( Eyebrows - round-over pass (along SVG edge, 6mm deep) )
( Origin: true bottom-left corner of the 18x12.5in stock )
( Zero the machine at that corner before running this file )
G21 ( mm )
G90 ( absolute )
M3 S12000 ( ignored if spindle speed is set manually )
G0 Z5.000
( Origin: lower-left corner of the eyebrow artwork's own bounding box )
( Independent coordinate system -- NOT shared with the rest of Scrappy )
( -- eyebrow 1/2 -- )
G0 X67.8227 Y167.3837 Z5.0000
G1 Z-6.0000 F300
G1 X92.7130 Y27.5302 Z-6.0000 F800
G1 X135.8339 Y40.8441 Z-6.0000 F800
G1 X135.8402 Y40.8457 Z-6.0000 F800
G1 X135.8589 Y40.8509 Z-6.0000 F800
G1 X135.8893 Y40.8598 Z-6.0000 F800
G1 X135.9309 Y40.8728 Z-6.0000 F800
G1 X135.9833 Y40.8901 Z-6.0000 F800
G1 X136.0458 Y40.9122 Z-6.0000 F800
G1 X136.1180 Y40.9393 Z-6.0000 F800
G1 X136.1993 Y40.9716 Z-6.0000 F800
G1 X136.2893 Y41.0095 Z-6.0000 F800
G1 X136.3872 Y41.0533 Z-6.0000 F800
G1 X136.4928 Y41.1033 Z-6.0000 F800
G1 X136.6053 Y41.1598 Z-6.0000 F800
G1 X136.7243 Y41.2230 Z-6.0000 F800
G1 X136.8492 Y41.2934 Z-6.0000 F800
G1 X136.9796 Y41.3711 Z-6.0000 F800
G1 X137.1148 Y41.4565 Z-6.0000 F800
G1 X137.2544 Y41.5499 Z-6.0000 F800
G1 X137.3978 Y41.6516 Z-6.0000 F800
G1 X137.5446 Y41.7619 Z-6.0000 F800
G1 X137.6941 Y41.8811 Z-6.0000 F800
G1 X137.8458 Y42.0094 Z-6.0000 F800
G1 X137.9992 Y42.1473 Z-6.0000 F800
G1 X138.1538 Y42.2949 Z-6.0000 F800
G1 X138.3091 Y42.4526 Z-6.0000 F800
G1 X138.4645 Y42.6207 Z-6.0000 F800
G1 X138.6195 Y42.7995 Z-6.0000 F800
G1 X138.7735 Y42.9893 Z-6.0000 F800
G1 X138.9261 Y43.1904 Z-6.0000 F800
G1 X139.0766 Y43.4030 Z-6.0000 F800
G1 X139.2246 Y43.6276 Z-6.0000 F800
G1 X139.3696 Y43.8643 Z-6.0000 F800
G1 X139.5110 Y44.1135 Z-6.0000 F800
G1 X139.6483 Y44.3755 Z-6.0000 F800
G1 X139.7809 Y44.6506 Z-6.0000 F800
G1 X139.9083 Y44.9391 Z-6.0000 F800
G1 X140.0300 Y45.2413 Z-6.0000 F800
G1 X140.1455 Y45.5575 Z-6.0000 F800
G1 X140.2542 Y45.8879 Z-6.0000 F800
G1 X140.3557 Y46.2330 Z-6.0000 F800
G1 X140.4493 Y46.5929 Z-6.0000 F800
G1 X140.5345 Y46.9681 Z-6.0000 F800
G1 X140.6109 Y47.3587 Z-6.0000 F800
G1 X140.6778 Y47.7651 Z-6.0000 F800
G1 X140.7348 Y48.1876 Z-6.0000 F800
G1 X140.7813 Y48.6265 Z-6.0000 F800
G1 X140.8168 Y49.0821 Z-6.0000 F800
G1 X140.8408 Y49.5547 Z-6.0000 F800
G1 X140.8527 Y50.0446 Z-6.0000 F800
G1 X140.8413 Y50.6590 Z-6.0000 F800
G1 X140.7944 Y51.4988 Z-6.0000 F800
G1 X140.7102 Y52.5541 Z-6.0000 F800
G1 X140.5868 Y53.8156 Z-6.0000 F800
G1 X140.4223 Y55.2734 Z-6.0000 F800
G1 X140.2148 Y56.9181 Z-6.0000 F800
G1 X139.9624 Y58.7399 Z-6.0000 F800
G1 X139.6633 Y60.7294 Z-6.0000 F800
G1 X139.3156 Y62.8769 Z-6.0000 F800
G1 X138.9175 Y65.1727 Z-6.0000 F800
G1 X138.4669 Y67.6072 Z-6.0000 F800
G1 X137.9622 Y70.1709 Z-6.0000 F800
G1 X137.4013 Y72.8542 Z-6.0000 F800
G1 X136.7824 Y75.6473 Z-6.0000 F800
G1 X136.1036 Y78.5408 Z-6.0000 F800
G1 X135.3631 Y81.5250 Z-6.0000 F800
G1 X134.5589 Y84.5902 Z-6.0000 F800
G1 X133.6893 Y87.7269 Z-6.0000 F800
G1 X132.7522 Y90.9255 Z-6.0000 F800
G1 X131.7459 Y94.1763 Z-6.0000 F800
G1 X130.6684 Y97.4697 Z-6.0000 F800
G1 X129.5179 Y100.7962 Z-6.0000 F800
G1 X128.2926 Y104.1461 Z-6.0000 F800
G1 X126.9904 Y107.5097 Z-6.0000 F800
G1 X125.6096 Y110.8776 Z-6.0000 F800
G1 X124.1482 Y114.2400 Z-6.0000 F800
G1 X122.6045 Y117.5873 Z-6.0000 F800
G1 X120.9764 Y120.9100 Z-6.0000 F800
G1 X119.2622 Y124.1985 Z-6.0000 F800
G1 X117.4599 Y127.4431 Z-6.0000 F800
G1 X115.5678 Y130.6341 Z-6.0000 F800
G1 X113.5838 Y133.7621 Z-6.0000 F800
G1 X111.5061 Y136.8174 Z-6.0000 F800
G1 X109.3329 Y139.7903 Z-6.0000 F800
G1 X107.0622 Y142.6713 Z-6.0000 F800
G1 X104.6923 Y145.4507 Z-6.0000 F800
G1 X102.2211 Y148.1190 Z-6.0000 F800
G1 X99.6469 Y150.6664 Z-6.0000 F800
G1 X96.9677 Y153.0835 Z-6.0000 F800
G1 X94.1817 Y155.3606 Z-6.0000 F800
G1 X91.2870 Y157.4881 Z-6.0000 F800
G1 X88.2817 Y159.4564 Z-6.0000 F800
G1 X85.1640 Y161.2558 Z-6.0000 F800
G1 X81.9319 Y162.8767 Z-6.0000 F800
G1 X78.5836 Y164.3096 Z-6.0000 F800
G1 X75.1172 Y165.5448 Z-6.0000 F800
G1 X71.5309 Y166.5727 Z-6.0000 F800
G1 X67.8227 Y167.3837 Z-6.0000 F800
G0 Z5.000
( -- eyebrow 2/2 -- )
G0 X0.0000 Y0.0000 Z5.0000
G1 Z-6.0000 F300
G1 X24.8903 Y139.8536 Z-6.0000 F800
G1 X68.0112 Y126.5397 Z-6.0000 F800
G1 X68.0176 Y126.5380 Z-6.0000 F800
G1 X68.0362 Y126.5329 Z-6.0000 F800
G1 X68.0666 Y126.5240 Z-6.0000 F800
G1 X68.1082 Y126.5110 Z-6.0000 F800
G1 X68.1606 Y126.4936 Z-6.0000 F800
G1 X68.2231 Y126.4715 Z-6.0000 F800
G1 X68.2953 Y126.4445 Z-6.0000 F800
G1 X68.3767 Y126.4122 Z-6.0000 F800
G1 X68.4666 Y126.3742 Z-6.0000 F800
G1 X68.5646 Y126.3304 Z-6.0000 F800
G1 X68.6701 Y126.2805 Z-6.0000 F800
G1 X68.7826 Y126.2240 Z-6.0000 F800
G1 X68.9016 Y126.1607 Z-6.0000 F800
G1 X69.0265 Y126.0904 Z-6.0000 F800
G1 X69.1569 Y126.0126 Z-6.0000 F800
G1 X69.2921 Y125.9272 Z-6.0000 F800
G1 X69.4317 Y125.8338 Z-6.0000 F800
G1 X69.5752 Y125.7321 Z-6.0000 F800
G1 X69.7219 Y125.6218 Z-6.0000 F800
G1 X69.8714 Y125.5027 Z-6.0000 F800
G1 X70.0231 Y125.3743 Z-6.0000 F800
G1 X70.1765 Y125.2365 Z-6.0000 F800
G1 X70.3312 Y125.0889 Z-6.0000 F800
G1 X70.4864 Y124.9311 Z-6.0000 F800
G1 X70.6418 Y124.7630 Z-6.0000 F800
G1 X70.7968 Y124.5842 Z-6.0000 F800
G1 X70.9508 Y124.3945 Z-6.0000 F800
G1 X71.1034 Y124.1934 Z-6.0000 F800
G1 X71.2539 Y123.9807 Z-6.0000 F800
G1 X71.4020 Y123.7562 Z-6.0000 F800
G1 X71.5469 Y123.5195 Z-6.0000 F800
G1 X71.6883 Y123.2702 Z-6.0000 F800
G1 X71.8256 Y123.0082 Z-6.0000 F800
G1 X71.9582 Y122.7331 Z-6.0000 F800
G1 X72.0856 Y122.4446 Z-6.0000 F800
G1 X72.2073 Y122.1424 Z-6.0000 F800
G1 X72.3228 Y121.8263 Z-6.0000 F800
G1 X72.4316 Y121.4958 Z-6.0000 F800
G1 X72.5330 Y121.1508 Z-6.0000 F800
G1 X72.6266 Y120.7908 Z-6.0000 F800
G1 X72.7118 Y120.4157 Z-6.0000 F800
G1 X72.7882 Y120.0250 Z-6.0000 F800
G1 X72.8551 Y119.6186 Z-6.0000 F800
G1 X72.9121 Y119.1961 Z-6.0000 F800
G1 X72.9586 Y118.7572 Z-6.0000 F800
G1 X72.9941 Y118.3016 Z-6.0000 F800
G1 X73.0181 Y117.8291 Z-6.0000 F800
G1 X73.0300 Y117.3392 Z-6.0000 F800
G1 X73.0186 Y116.7247 Z-6.0000 F800
G1 X72.9717 Y115.8850 Z-6.0000 F800
G1 X72.8875 Y114.8296 Z-6.0000 F800
G1 X72.7641 Y113.5682 Z-6.0000 F800
G1 X72.5996 Y112.1103 Z-6.0000 F800
G1 X72.3921 Y110.4657 Z-6.0000 F800
G1 X72.1397 Y108.6438 Z-6.0000 F800
G1 X71.8407 Y106.6543 Z-6.0000 F800
G1 X71.4930 Y104.5069 Z-6.0000 F800
G1 X71.0948 Y102.2111 Z-6.0000 F800
G1 X70.6443 Y99.7765 Z-6.0000 F800
G1 X70.1395 Y97.2128 Z-6.0000 F800
G1 X69.5786 Y94.5296 Z-6.0000 F800
G1 X68.9597 Y91.7364 Z-6.0000 F800
G1 X68.2809 Y88.8429 Z-6.0000 F800
G1 X67.5404 Y85.8588 Z-6.0000 F800
G1 X66.7362 Y82.7935 Z-6.0000 F800
G1 X65.8666 Y79.6568 Z-6.0000 F800
G1 X64.9295 Y76.4583 Z-6.0000 F800
G1 X63.9232 Y73.2075 Z-6.0000 F800
G1 X62.8457 Y69.9140 Z-6.0000 F800
G1 X61.6953 Y66.5876 Z-6.0000 F800
G1 X60.4699 Y63.2377 Z-6.0000 F800
G1 X59.1677 Y59.8740 Z-6.0000 F800
G1 X57.7869 Y56.5062 Z-6.0000 F800
G1 X56.3255 Y53.1438 Z-6.0000 F800
G1 X54.7818 Y49.7964 Z-6.0000 F800
G1 X53.1537 Y46.4737 Z-6.0000 F800
G1 X51.4395 Y43.1853 Z-6.0000 F800
G1 X49.6373 Y39.9407 Z-6.0000 F800
G1 X47.7451 Y36.7496 Z-6.0000 F800
G1 X45.7611 Y33.6216 Z-6.0000 F800
G1 X43.6834 Y30.5664 Z-6.0000 F800
G1 X41.5102 Y27.5935 Z-6.0000 F800
G1 X39.2396 Y24.7125 Z-6.0000 F800
G1 X36.8696 Y21.9330 Z-6.0000 F800
G1 X34.3984 Y19.2648 Z-6.0000 F800
G1 X31.8242 Y16.7173 Z-6.0000 F800
G1 X29.1450 Y14.3002 Z-6.0000 F800
G1 X26.3590 Y12.0231 Z-6.0000 F800
G1 X23.4643 Y9.8956 Z-6.0000 F800
G1 X20.4590 Y7.9274 Z-6.0000 F800
G1 X17.3413 Y6.1280 Z-6.0000 F800
G1 X14.1092 Y4.5070 Z-6.0000 F800
G1 X10.7609 Y3.0741 Z-6.0000 F800
G1 X7.2946 Y1.8389 Z-6.0000 F800
G1 X3.7082 Y0.8110 Z-6.0000 F800
G1 X0.0000 Y0.0000 Z-6.0000 F800
G0 Z5.000
G0 Z5.000
M5
M2
