( Scrappy - pupils pocket (centered, 400mm stock) )
( Origin: true bottom-left corner of the 18x12.5in stock )
( Zero the machine at that corner before running this file )
G21 ( mm )
G90 ( absolute )
M3 S12000 ( ignored if spindle speed is set manually )
G0 Z5.000
( Pocket clear: 22 ring(s), 1 Z pass(es) of 0.7937mm to total depth 0.7937mm )
( -- pass 1/1, Z=-0.7937 -- )
G0 X112.8172 Y184.0076 Z5.0000
G1 Z-0.7937 F300
G1 X112.7898 Y184.1713 Z-0.7937 F800
G1 X112.7281 Y184.5758 Z-0.7937 F800
G1 X112.6667 Y185.0250 Z-0.7937 F800
G1 X112.6076 Y185.5163 Z-0.7937 F800
G1 X112.5528 Y186.0470 Z-0.7937 F800
G1 X112.5045 Y186.6143 Z-0.7937 F800
G1 X112.4648 Y187.2157 Z-0.7937 F800
G1 X112.4357 Y187.8482 Z-0.7937 F800
G1 X112.4192 Y188.5094 Z-0.7937 F800
G1 X112.4174 Y189.1964 Z-0.7937 F800
G1 X112.4322 Y189.9065 Z-0.7937 F800
G1 X112.4657 Y190.6370 Z-0.7937 F800
G1 X112.5198 Y191.3852 Z-0.7937 F800
G1 X112.5964 Y192.1485 Z-0.7937 F800
G1 X112.6975 Y192.9241 Z-0.7937 F800
G1 X112.8250 Y193.7093 Z-0.7937 F800
G1 X112.9807 Y194.5016 Z-0.7937 F800
G1 X113.1664 Y195.2983 Z-0.7937 F800
G1 X113.3839 Y196.0969 Z-0.7937 F800
G1 X113.6351 Y196.8948 Z-0.7937 F800
G1 X113.9217 Y197.6897 Z-0.7937 F800
G1 X114.2455 Y198.4791 Z-0.7937 F800
G1 X114.6083 Y199.2608 Z-0.7937 F800
G1 X115.0119 Y200.0327 Z-0.7937 F800
G1 X115.4583 Y200.7926 Z-0.7937 F800
G1 X115.9495 Y201.5386 Z-0.7937 F800
G1 X116.4875 Y202.2686 Z-0.7937 F800
G1 X117.0747 Y202.9810 Z-0.7937 F800
G1 X117.7132 Y203.6737 Z-0.7937 F800
G1 X118.4058 Y204.3450 Z-0.7937 F800
G1 X119.1549 Y204.9929 Z-0.7937 F800
G1 X119.9635 Y205.6155 Z-0.7937 F800
G1 X120.8344 Y206.2105 Z-0.7937 F800
G1 X121.7704 Y206.7758 Z-0.7937 F800
G1 X122.7746 Y207.3090 Z-0.7937 F800
G1 X123.8498 Y207.8075 Z-0.7937 F800
G1 X124.9990 Y208.2686 Z-0.7937 F800
G1 X126.2249 Y208.6895 Z-0.7937 F800
G1 X127.5302 Y209.0674 Z-0.7937 F800
G1 X128.9174 Y209.3993 Z-0.7937 F800
G1 X130.3892 Y209.6823 Z-0.7937 F800
G1 X131.9418 Y209.9124 Z-0.7937 F800
G1 X133.4842 Y210.0654 Z-0.7937 F800
G1 X134.9359 Y210.1241 Z-0.7937 F800
G1 X136.3041 Y210.0942 Z-0.7937 F800
G1 X137.5912 Y209.9811 Z-0.7937 F800
G1 X138.8000 Y209.7898 Z-0.7937 F800
G1 X139.9335 Y209.5254 Z-0.7937 F800
G1 X140.9953 Y209.1926 Z-0.7937 F800
G1 X141.9888 Y208.7954 Z-0.7937 F800
G1 X142.9179 Y208.3378 Z-0.7937 F800
G1 X143.7859 Y207.8230 Z-0.7937 F800
G1 X144.5963 Y207.2540 Z-0.7937 F800
G1 X145.3520 Y206.6334 Z-0.7937 F800
G1 X146.0553 Y205.9638 Z-0.7937 F800
G1 X146.7083 Y205.2478 Z-0.7937 F800
G1 X147.3126 Y204.4881 Z-0.7937 F800
G1 X147.8695 Y203.6877 Z-0.7937 F800
G1 X148.3802 Y202.8498 Z-0.7937 F800
G1 X148.8456 Y201.9778 Z-0.7937 F800
G1 X149.2667 Y201.0754 Z-0.7937 F800
G1 X149.6443 Y200.1466 Z-0.7937 F800
G1 X149.9794 Y199.1953 Z-0.7937 F800
G1 X150.2731 Y198.2258 Z-0.7937 F800
G1 X150.5263 Y197.2424 Z-0.7937 F800
G1 X150.7404 Y196.2495 Z-0.7937 F800
G1 X150.9165 Y195.2514 Z-0.7937 F800
G1 X151.0559 Y194.2526 Z-0.7937 F800
G1 X151.1601 Y193.2576 Z-0.7937 F800
G1 X151.2303 Y192.2710 Z-0.7937 F800
G1 X151.2682 Y191.2973 Z-0.7937 F800
G1 X151.2754 Y190.3410 Z-0.7937 F800
G1 X151.2533 Y189.4068 Z-0.7937 F800
G1 X151.2036 Y188.4993 Z-0.7937 F800
G1 X151.1282 Y187.6233 Z-0.7937 F800
G1 X151.0289 Y186.7837 Z-0.7937 F800
G1 X150.9075 Y185.9853 Z-0.7937 F800
G1 X150.7662 Y185.2334 Z-0.7937 F800
G1 X150.6075 Y184.5333 Z-0.7937 F800
G1 X150.4338 Y183.8907 Z-0.7937 F800
G1 X150.2487 Y183.3121 Z-0.7937 F800
G1 X150.0563 Y182.8042 Z-0.7937 F800
G1 X149.8626 Y182.3751 Z-0.7937 F800
G1 X149.6763 Y182.0336 Z-0.7937 F800
G1 X149.5115 Y181.7895 Z-0.7937 F800
G1 X149.4660 Y181.7373 Z-0.7937 F800
G1 X149.4453 Y181.7429 Z-0.7937 F800
G1 X149.3811 Y181.7589 Z-0.7937 F800
G1 X148.9899 Y181.8474 Z-0.7937 F800
G1 X148.9427 Y181.8574 Z-0.7937 F800
G1 X148.4959 Y181.9443 Z-0.7937 F800
G1 X148.4598 Y181.9509 Z-0.7937 F800
G1 X147.9599 Y182.0363 Z-0.7937 F800
G1 X147.9314 Y182.0409 Z-0.7937 F800
G1 X147.3810 Y182.1247 Z-0.7937 F800
G1 X147.3580 Y182.1280 Z-0.7937 F800
G1 X146.7595 Y182.2102 Z-0.7937 F800
G1 X146.7405 Y182.2126 Z-0.7937 F800
G1 X146.0965 Y182.2932 Z-0.7937 F800
G1 X146.0806 Y182.2951 Z-0.7937 F800
G1 X145.3935 Y182.3739 Z-0.7937 F800
G1 X145.3800 Y182.3754 Z-0.7937 F800
G1 X144.6525 Y182.4526 Z-0.7937 F800
G1 X144.6408 Y182.4538 Z-0.7937 F800
G1 X143.8754 Y182.5293 Z-0.7937 F800
G1 X143.8653 Y182.5302 Z-0.7937 F800
G1 X143.0644 Y182.6040 Z-0.7937 F800
G1 X143.0555 Y182.6048 Z-0.7937 F800
G1 X142.2218 Y182.6769 Z-0.7937 F800
G1 X142.2139 Y182.6776 Z-0.7937 F800
G1 X141.3498 Y182.7479 Z-0.7937 F800
G1 X141.3428 Y182.7485 Z-0.7937 F800
G1 X140.4509 Y182.8171 Z-0.7937 F800
G1 X140.4445 Y182.8176 Z-0.7937 F800
G1 X139.5274 Y182.8845 Z-0.7937 F800
G1 X139.5216 Y182.8849 Z-0.7937 F800
G1 X138.5817 Y182.9500 Z-0.7937 F800
G1 X138.5765 Y182.9503 Z-0.7937 F800
G1 X137.6163 Y183.0136 Z-0.7937 F800
G1 X137.6115 Y183.0140 Z-0.7937 F800
G1 X136.6337 Y183.0755 Z-0.7937 F800
G1 X136.6293 Y183.0757 Z-0.7937 F800
G1 X135.6363 Y183.1355 Z-0.7937 F800
G1 X135.6322 Y183.1357 Z-0.7937 F800
G1 X134.6265 Y183.1936 Z-0.7937 F800
G1 X134.6228 Y183.1938 Z-0.7937 F800
G1 X133.6070 Y183.2498 Z-0.7937 F800
G1 X133.6035 Y183.2500 Z-0.7937 F800
G1 X132.5801 Y183.3042 Z-0.7937 F800
G1 X132.5768 Y183.3044 Z-0.7937 F800
G1 X131.5484 Y183.3567 Z-0.7937 F800
G1 X131.5453 Y183.3569 Z-0.7937 F800
G1 X130.5144 Y183.4073 Z-0.7937 F800
G1 X130.5114 Y183.4075 Z-0.7937 F800
G1 X129.4805 Y183.4560 Z-0.7937 F800
G1 X129.4777 Y183.4562 Z-0.7937 F800
G1 X128.4493 Y183.5028 Z-0.7937 F800
G1 X128.4467 Y183.5029 Z-0.7937 F800
G1 X127.4233 Y183.5477 Z-0.7937 F800
G1 X127.4208 Y183.5478 Z-0.7937 F800
G1 X126.4050 Y183.5906 Z-0.7937 F800
G1 X126.4026 Y183.5907 Z-0.7937 F800
G1 X125.3970 Y183.6315 Z-0.7937 F800
G1 X125.3946 Y183.6316 Z-0.7937 F800
G1 X124.4016 Y183.6705 Z-0.7937 F800
G1 X124.3994 Y183.6706 Z-0.7937 F800
G1 X123.4215 Y183.7074 Z-0.7937 F800
G1 X123.4193 Y183.7075 Z-0.7937 F800
G1 X122.4592 Y183.7424 Z-0.7937 F800
G1 X122.4570 Y183.7425 Z-0.7937 F800
G1 X121.5171 Y183.7754 Z-0.7937 F800
G1 X121.5150 Y183.7755 Z-0.7937 F800
G1 X120.5978 Y183.8064 Z-0.7937 F800
G1 X120.5957 Y183.8064 Z-0.7937 F800
G1 X119.7039 Y183.8353 Z-0.7937 F800
G1 X119.7018 Y183.8353 Z-0.7937 F800
G1 X118.8377 Y183.8621 Z-0.7937 F800
G1 X118.8356 Y183.8622 Z-0.7937 F800
G1 X118.0018 Y183.8869 Z-0.7937 F800
G1 X117.9997 Y183.8870 Z-0.7937 F800
G1 X117.1988 Y183.9096 Z-0.7937 F800
G1 X117.1966 Y183.9097 Z-0.7937 F800
G1 X116.4311 Y183.9303 Z-0.7937 F800
G1 X116.4288 Y183.9303 Z-0.7937 F800
G1 X115.7013 Y183.9488 Z-0.7937 F800
G1 X115.6988 Y183.9489 Z-0.7937 F800
G1 X115.0117 Y183.9652 Z-0.7937 F800
G1 X115.0090 Y183.9653 Z-0.7937 F800
G1 X114.3649 Y183.9795 Z-0.7937 F800
G1 X114.3619 Y183.9795 Z-0.7937 F800
G1 X113.7634 Y183.9916 Z-0.7937 F800
G1 X113.7599 Y183.9917 Z-0.7937 F800
G1 X113.2095 Y184.0015 Z-0.7937 F800
G1 X113.2054 Y184.0016 Z-0.7937 F800
G1 X112.8172 Y184.0076 Z-0.7937 F800
G0 Z5.000
G0 X113.9177 Y185.2587 Z5.0000
G1 Z-0.7937 F300
G1 X113.8697 Y185.6574 Z-0.7937 F800
G1 X113.8173 Y186.1660 Z-0.7937 F800
G1 X113.7710 Y186.7100 Z-0.7937 F800
G1 X113.7329 Y187.2867 Z-0.7937 F800
G1 X113.7050 Y187.8933 Z-0.7937 F800
G1 X113.6891 Y188.5269 Z-0.7937 F800
G1 X113.6874 Y189.1848 Z-0.7937 F800
G1 X113.7016 Y189.8641 Z-0.7937 F800
G1 X113.7336 Y190.5621 Z-0.7937 F800
G1 X113.7852 Y191.2760 Z-0.7937 F800
G1 X113.8582 Y192.0029 Z-0.7937 F800
G1 X113.9543 Y192.7402 Z-0.7937 F800
G1 X114.0752 Y193.4851 Z-0.7937 F800
G1 X114.2225 Y194.2350 Z-0.7937 F800
G1 X114.3979 Y194.9872 Z-0.7937 F800
G1 X114.6027 Y195.7392 Z-0.7937 F800
G1 X114.8386 Y196.4886 Z-0.7937 F800
G1 X115.1071 Y197.2331 Z-0.7937 F800
G1 X115.4096 Y197.9705 Z-0.7937 F800
G1 X115.7476 Y198.6989 Z-0.7937 F800
G1 X116.1228 Y199.4164 Z-0.7937 F800
G1 X116.5369 Y200.1213 Z-0.7937 F800
G1 X116.9918 Y200.8121 Z-0.7937 F800
G1 X117.4895 Y201.4875 Z-0.7937 F800
G1 X118.0323 Y202.1461 Z-0.7937 F800
G1 X118.6228 Y202.7867 Z-0.7937 F800
G1 X119.2638 Y203.4080 Z-0.7937 F800
G1 X119.9583 Y204.0087 Z-0.7937 F800
G1 X120.7097 Y204.5872 Z-0.7937 F800
G1 X121.5214 Y205.1418 Z-0.7937 F800
G1 X122.3969 Y205.6706 Z-0.7937 F800
G1 X123.3399 Y206.1712 Z-0.7937 F800
G1 X124.3537 Y206.6412 Z-0.7937 F800
G1 X125.4420 Y207.0779 Z-0.7937 F800
G1 X126.6079 Y207.4783 Z-0.7937 F800
G1 X127.8547 Y207.8392 Z-0.7937 F800
G1 X129.1852 Y208.1576 Z-0.7937 F800
G1 X130.6022 Y208.4300 Z-0.7937 F800
G1 X132.0977 Y208.6516 Z-0.7937 F800
G1 X133.5726 Y208.7979 Z-0.7937 F800
G1 X134.9477 Y208.8535 Z-0.7937 F800
G1 X136.2346 Y208.8254 Z-0.7937 F800
G1 X137.4362 Y208.7198 Z-0.7937 F800
G1 X138.5562 Y208.5426 Z-0.7937 F800
G1 X139.5989 Y208.2994 Z-0.7937 F800
G1 X140.5690 Y207.9952 Z-0.7937 F800
G1 X141.4718 Y207.6344 Z-0.7937 F800
G1 X142.3125 Y207.2203 Z-0.7937 F800
G1 X143.0961 Y206.7555 Z-0.7937 F800
G1 X143.8273 Y206.2421 Z-0.7937 F800
G1 X144.5100 Y205.6815 Z-0.7937 F800
G1 X145.1471 Y205.0749 Z-0.7937 F800
G1 X145.7410 Y204.4236 Z-0.7937 F800
G1 X146.2934 Y203.7293 Z-0.7937 F800
G1 X146.8051 Y202.9939 Z-0.7937 F800
G1 X147.2769 Y202.2198 Z-0.7937 F800
G1 X147.7092 Y201.4099 Z-0.7937 F800
G1 X148.1022 Y200.5674 Z-0.7937 F800
G1 X148.4564 Y199.6962 Z-0.7937 F800
G1 X148.7721 Y198.8000 Z-0.7937 F800
G1 X149.0498 Y197.8832 Z-0.7937 F800
G1 X149.2902 Y196.9501 Z-0.7937 F800
G1 X149.4939 Y196.0052 Z-0.7937 F800
G1 X149.6618 Y195.0532 Z-0.7937 F800
G1 X149.7951 Y194.0987 Z-0.7937 F800
G1 X149.8948 Y193.1464 Z-0.7937 F800
G1 X149.9621 Y192.2012 Z-0.7937 F800
G1 X149.9984 Y191.2678 Z-0.7937 F800
G1 X150.0052 Y190.3513 Z-0.7937 F800
G1 X149.9841 Y189.4565 Z-0.7937 F800
G1 X149.9366 Y188.5885 Z-0.7937 F800
G1 X149.8646 Y187.7525 Z-0.7937 F800
G1 X149.7701 Y186.9538 Z-0.7937 F800
G1 X149.6552 Y186.1981 Z-0.7937 F800
G1 X149.5225 Y185.4912 Z-0.7937 F800
G1 X149.3746 Y184.8395 Z-0.7937 F800
G1 X149.2154 Y184.2501 Z-0.7937 F800
G1 X149.0493 Y183.7308 Z-0.7937 F800
G1 X148.8826 Y183.2909 Z-0.7937 F800
G1 X148.8295 Y183.1732 Z-0.7937 F800
G1 X148.7386 Y183.1909 Z-0.7937 F800
G1 X148.6736 Y183.2028 Z-0.7937 F800
G1 X148.1737 Y183.2882 Z-0.7937 F800
G1 X148.1225 Y183.2965 Z-0.7937 F800
G1 X147.5720 Y183.3802 Z-0.7937 F800
G1 X147.5307 Y183.3862 Z-0.7937 F800
G1 X146.9321 Y183.4684 Z-0.7937 F800
G1 X146.8980 Y183.4728 Z-0.7937 F800
G1 X146.2540 Y183.5533 Z-0.7937 F800
G1 X146.2254 Y183.5568 Z-0.7937 F800
G1 X145.5383 Y183.6356 Z-0.7937 F800
G1 X145.5140 Y183.6383 Z-0.7937 F800
G1 X144.7865 Y183.7155 Z-0.7937 F800
G1 X144.7655 Y183.7176 Z-0.7937 F800
G1 X144.0001 Y183.7931 Z-0.7937 F800
G1 X143.9818 Y183.7949 Z-0.7937 F800
G1 X143.1810 Y183.8687 Z-0.7937 F800
G1 X143.1649 Y183.8701 Z-0.7937 F800
G1 X142.3312 Y183.9422 Z-0.7937 F800
G1 X142.3170 Y183.9434 Z-0.7937 F800
G1 X141.4529 Y184.0138 Z-0.7937 F800
G1 X141.4402 Y184.0148 Z-0.7937 F800
G1 X140.5483 Y184.0834 Z-0.7937 F800
G1 X140.5369 Y184.0842 Z-0.7937 F800
G1 X139.6197 Y184.1511 Z-0.7937 F800
G1 X139.6094 Y184.1518 Z-0.7937 F800
G1 X138.6695 Y184.2169 Z-0.7937 F800
G1 X138.6600 Y184.2176 Z-0.7937 F800
G1 X137.6999 Y184.2809 Z-0.7937 F800
G1 X137.6913 Y184.2814 Z-0.7937 F800
G1 X136.7134 Y184.3430 Z-0.7937 F800
G1 X136.7055 Y184.3435 Z-0.7937 F800
G1 X135.7125 Y184.4032 Z-0.7937 F800
G1 X135.7052 Y184.4036 Z-0.7937 F800
G1 X134.6995 Y184.4615 Z-0.7937 F800
G1 X134.6927 Y184.4619 Z-0.7937 F800
G1 X133.6770 Y184.5179 Z-0.7937 F800
G1 X133.6706 Y184.5183 Z-0.7937 F800
G1 X132.6473 Y184.5725 Z-0.7937 F800
G1 X132.6414 Y184.5728 Z-0.7937 F800
G1 X131.6129 Y184.6251 Z-0.7937 F800
G1 X131.6074 Y184.6254 Z-0.7937 F800
G1 X130.5764 Y184.6758 Z-0.7937 F800
G1 X130.5712 Y184.6761 Z-0.7937 F800
G1 X129.5402 Y184.7246 Z-0.7937 F800
G1 X129.5353 Y184.7249 Z-0.7937 F800
G1 X128.5069 Y184.7715 Z-0.7937 F800
G1 X128.5021 Y184.7717 Z-0.7937 F800
G1 X127.4788 Y184.8164 Z-0.7937 F800
G1 X127.4743 Y184.8166 Z-0.7937 F800
G1 X126.4585 Y184.8594 Z-0.7937 F800
G1 X126.4542 Y184.8596 Z-0.7937 F800
G1 X125.4485 Y184.9005 Z-0.7937 F800
G1 X125.4443 Y184.9006 Z-0.7937 F800
G1 X124.4513 Y184.9395 Z-0.7937 F800
G1 X124.4473 Y184.9396 Z-0.7937 F800
G1 X123.4694 Y184.9765 Z-0.7937 F800
G1 X123.4655 Y184.9767 Z-0.7937 F800
G1 X122.5053 Y185.0116 Z-0.7937 F800
G1 X122.5015 Y185.0117 Z-0.7937 F800
G1 X121.5615 Y185.0446 Z-0.7937 F800
G1 X121.5577 Y185.0448 Z-0.7937 F800
G1 X120.6406 Y185.0756 Z-0.7937 F800
G1 X120.6368 Y185.0758 Z-0.7937 F800
G1 X119.7449 Y185.1046 Z-0.7937 F800
G1 X119.7411 Y185.1047 Z-0.7937 F800
G1 X118.8771 Y185.1315 Z-0.7937 F800
G1 X118.8732 Y185.1316 Z-0.7937 F800
G1 X118.0395 Y185.1564 Z-0.7937 F800
G1 X118.0356 Y185.1565 Z-0.7937 F800
G1 X117.2347 Y185.1791 Z-0.7937 F800
G1 X117.2307 Y185.1792 Z-0.7937 F800
G1 X116.4652 Y185.1998 Z-0.7937 F800
G1 X116.4610 Y185.1999 Z-0.7937 F800
G1 X115.7335 Y185.2184 Z-0.7937 F800
G1 X115.7289 Y185.2185 Z-0.7937 F800
G1 X115.0419 Y185.2348 Z-0.7937 F800
G1 X115.0370 Y185.2349 Z-0.7937 F800
G1 X114.3929 Y185.2492 Z-0.7937 F800
G1 X114.3875 Y185.2493 Z-0.7937 F800
G1 X113.9177 Y185.2587 Z-0.7937 F800
G0 Z5.000
G0 X115.0630 Y186.5047 Z5.0000
G1 Z-0.7937 F300
G1 X115.0374 Y186.8057 Z-0.7937 F800
G1 X115.0010 Y187.3578 Z-0.7937 F800
G1 X114.9742 Y187.9383 Z-0.7937 F800
G1 X114.9591 Y188.5444 Z-0.7937 F800
G1 X114.9574 Y189.1732 Z-0.7937 F800
G1 X114.9710 Y189.8218 Z-0.7937 F800
G1 X115.0015 Y190.4872 Z-0.7937 F800
G1 X115.0506 Y191.1667 Z-0.7937 F800
G1 X115.1200 Y191.8574 Z-0.7937 F800
G1 X115.2111 Y192.5563 Z-0.7937 F800
G1 X115.3254 Y193.2609 Z-0.7937 F800
G1 X115.4644 Y193.9683 Z-0.7937 F800
G1 X115.6294 Y194.6760 Z-0.7937 F800
G1 X115.8216 Y195.3815 Z-0.7937 F800
G1 X116.0422 Y196.0824 Z-0.7937 F800
G1 X116.2925 Y196.7765 Z-0.7937 F800
G1 X116.5736 Y197.4620 Z-0.7937 F800
G1 X116.8869 Y198.1370 Z-0.7937 F800
G1 X117.2337 Y198.8001 Z-0.7937 F800
G1 X117.6155 Y199.4500 Z-0.7937 F800
G1 X118.0341 Y200.0857 Z-0.7937 F800
G1 X118.4914 Y200.7063 Z-0.7937 F800
G1 X118.9900 Y201.3112 Z-0.7937 F800
G1 X119.5324 Y201.8997 Z-0.7937 F800
G1 X120.1218 Y202.4710 Z-0.7937 F800
G1 X120.7618 Y203.0245 Z-0.7937 F800
G1 X121.4560 Y203.5590 Z-0.7937 F800
G1 X122.2085 Y204.0731 Z-0.7937 F800
G1 X123.0235 Y204.5653 Z-0.7937 F800
G1 X123.9051 Y205.0334 Z-0.7937 F800
G1 X124.8576 Y205.4750 Z-0.7937 F800
G1 X125.8850 Y205.8872 Z-0.7937 F800
G1 X126.9910 Y206.2670 Z-0.7937 F800
G1 X128.1792 Y206.6110 Z-0.7937 F800
G1 X129.4530 Y206.9158 Z-0.7937 F800
G1 X130.8153 Y207.1777 Z-0.7937 F800
G1 X132.2535 Y207.3909 Z-0.7937 F800
G1 X133.6610 Y207.5305 Z-0.7937 F800
G1 X134.9595 Y207.5829 Z-0.7937 F800
G1 X136.1651 Y207.5566 Z-0.7937 F800
G1 X137.2812 Y207.4585 Z-0.7937 F800
G1 X138.3124 Y207.2954 Z-0.7937 F800
G1 X139.2642 Y207.0734 Z-0.7937 F800
G1 X140.1427 Y206.7979 Z-0.7937 F800
G1 X140.9547 Y206.4734 Z-0.7937 F800
G1 X141.7070 Y206.1028 Z-0.7937 F800
G1 X142.4063 Y205.6881 Z-0.7937 F800
G1 X143.0583 Y205.2303 Z-0.7937 F800
G1 X143.6679 Y204.7296 Z-0.7937 F800
G1 X144.2389 Y204.1860 Z-0.7937 F800
G1 X144.7738 Y203.5995 Z-0.7937 F800
G1 X145.2741 Y202.9705 Z-0.7937 F800
G1 X145.7407 Y202.3001 Z-0.7937 F800
G1 X146.1736 Y201.5898 Z-0.7937 F800
G1 X146.5727 Y200.8420 Z-0.7937 F800
G1 X146.9378 Y200.0595 Z-0.7937 F800
G1 X147.2686 Y199.2458 Z-0.7937 F800
G1 X147.5649 Y198.4048 Z-0.7937 F800
G1 X147.8266 Y197.5406 Z-0.7937 F800
G1 X148.0540 Y196.6578 Z-0.7937 F800
G1 X148.2474 Y195.7610 Z-0.7937 F800
G1 X148.4072 Y194.8550 Z-0.7937 F800
G1 X148.5343 Y193.9447 Z-0.7937 F800
G1 X148.6295 Y193.0352 Z-0.7937 F800
G1 X148.6938 Y192.1313 Z-0.7937 F800
G1 X148.7286 Y191.2384 Z-0.7937 F800
G1 X148.7351 Y190.3616 Z-0.7937 F800
G1 X148.7149 Y189.5062 Z-0.7937 F800
G1 X148.6696 Y188.6776 Z-0.7937 F800
G1 X148.6011 Y187.8816 Z-0.7937 F800
G1 X148.5114 Y187.1239 Z-0.7937 F800
G1 X148.4030 Y186.4108 Z-0.7937 F800
G1 X148.2787 Y185.7489 Z-0.7937 F800
G1 X148.1418 Y185.1457 Z-0.7937 F800
G1 X147.9969 Y184.6094 Z-0.7937 F800
G1 X147.9941 Y184.6006 Z-0.7937 F800
G1 X147.7631 Y184.6358 Z-0.7937 F800
G1 X147.7033 Y184.6444 Z-0.7937 F800
G1 X147.1048 Y184.7266 Z-0.7937 F800
G1 X147.0555 Y184.7330 Z-0.7937 F800
G1 X146.4115 Y184.8135 Z-0.7937 F800
G1 X146.3702 Y184.8185 Z-0.7937 F800
G1 X145.6831 Y184.8973 Z-0.7937 F800
G1 X145.6479 Y184.9012 Z-0.7937 F800
G1 X144.9204 Y184.9784 Z-0.7937 F800
G1 X144.8901 Y184.9815 Z-0.7937 F800
G1 X144.1247 Y185.0570 Z-0.7937 F800
G1 X144.0983 Y185.0595 Z-0.7937 F800
G1 X143.2975 Y185.1333 Z-0.7937 F800
G1 X143.2743 Y185.1354 Z-0.7937 F800
G1 X142.4406 Y185.2075 Z-0.7937 F800
G1 X142.4200 Y185.2092 Z-0.7937 F800
G1 X141.5560 Y185.2796 Z-0.7937 F800
G1 X141.5376 Y185.2810 Z-0.7937 F800
G1 X140.6457 Y185.3496 Z-0.7937 F800
G1 X140.6292 Y185.3509 Z-0.7937 F800
G1 X139.7121 Y185.4177 Z-0.7937 F800
G1 X139.6971 Y185.4188 Z-0.7937 F800
G1 X138.7572 Y185.4839 Z-0.7937 F800
G1 X138.7436 Y185.4848 Z-0.7937 F800
G1 X137.7835 Y185.5481 Z-0.7937 F800
G1 X137.7710 Y185.5489 Z-0.7937 F800
G1 X136.7932 Y185.6105 Z-0.7937 F800
G1 X136.7818 Y185.6112 Z-0.7937 F800
G1 X135.7887 Y185.6709 Z-0.7937 F800
G1 X135.7782 Y185.6715 Z-0.7937 F800
G1 X134.7725 Y185.7294 Z-0.7937 F800
G1 X134.7627 Y185.7299 Z-0.7937 F800
G1 X133.7469 Y185.7860 Z-0.7937 F800
G1 X133.7378 Y185.7865 Z-0.7937 F800
G1 X132.7144 Y185.8407 Z-0.7937 F800
G1 X132.7059 Y185.8411 Z-0.7937 F800
G1 X131.6775 Y185.8935 Z-0.7937 F800
G1 X131.6695 Y185.8939 Z-0.7937 F800
G1 X130.6385 Y185.9443 Z-0.7937 F800
G1 X130.6309 Y185.9447 Z-0.7937 F800
G1 X129.6000 Y185.9932 Z-0.7937 F800
G1 X129.5928 Y185.9936 Z-0.7937 F800
G1 X128.5644 Y186.0402 Z-0.7937 F800
G1 X128.5576 Y186.0405 Z-0.7937 F800
G1 X127.5342 Y186.0852 Z-0.7937 F800
G1 X127.5277 Y186.0855 Z-0.7937 F800
G1 X126.5119 Y186.1283 Z-0.7937 F800
G1 X126.5057 Y186.1286 Z-0.7937 F800
G1 X125.5000 Y186.1694 Z-0.7937 F800
G1 X125.4940 Y186.1696 Z-0.7937 F800
G1 X124.5010 Y186.2085 Z-0.7937 F800
G1 X124.4951 Y186.2087 Z-0.7937 F800
G1 X123.5173 Y186.2456 Z-0.7937 F800
G1 X123.5116 Y186.2459 Z-0.7937 F800
G1 X122.5515 Y186.2808 Z-0.7937 F800
G1 X122.5459 Y186.2810 Z-0.7937 F800
G1 X121.6060 Y186.3139 Z-0.7937 F800
G1 X121.6005 Y186.3140 Z-0.7937 F800
G1 X120.6833 Y186.3449 Z-0.7937 F800
G1 X120.6778 Y186.3451 Z-0.7937 F800
G1 X119.7860 Y186.3739 Z-0.7937 F800
G1 X119.7805 Y186.3741 Z-0.7937 F800
G1 X118.9164 Y186.4009 Z-0.7937 F800
G1 X118.9109 Y186.4011 Z-0.7937 F800
G1 X118.0772 Y186.4258 Z-0.7937 F800
G1 X118.0715 Y186.4260 Z-0.7937 F800
G1 X117.2707 Y186.4486 Z-0.7937 F800
G1 X117.2648 Y186.4488 Z-0.7937 F800
G1 X116.4994 Y186.4694 Z-0.7937 F800
G1 X116.4932 Y186.4695 Z-0.7937 F800
G1 X115.7657 Y186.4880 Z-0.7937 F800
G1 X115.7591 Y186.4881 Z-0.7937 F800
G1 X115.0721 Y186.5045 Z-0.7937 F800
G1 X115.0650 Y186.5046 Z-0.7937 F800
G1 X115.0630 Y186.5047 Z-0.7937 F800
G0 Z5.000
G0 X116.2544 Y187.7460 Z5.0000
G1 Z-0.7937 F300
G1 X116.2435 Y187.9834 Z-0.7937 F800
G1 X116.2291 Y188.5620 Z-0.7937 F800
G1 X116.2275 Y189.1616 Z-0.7937 F800
G1 X116.2404 Y189.7794 Z-0.7937 F800
G1 X116.2694 Y190.4124 Z-0.7937 F800
G1 X116.3160 Y191.0575 Z-0.7937 F800
G1 X116.3817 Y191.7118 Z-0.7937 F800
G1 X116.4679 Y192.3725 Z-0.7937 F800
G1 X116.5757 Y193.0367 Z-0.7937 F800
G1 X116.7063 Y193.7017 Z-0.7937 F800
G1 X116.8609 Y194.3649 Z-0.7937 F800
G1 X117.0404 Y195.0238 Z-0.7937 F800
G1 X117.2458 Y195.6761 Z-0.7937 F800
G1 X117.4779 Y196.3200 Z-0.7937 F800
G1 X117.7377 Y196.9534 Z-0.7937 F800
G1 X118.0263 Y197.5751 Z-0.7937 F800
G1 X118.3446 Y198.1838 Z-0.7937 F800
G1 X118.6941 Y198.7787 Z-0.7937 F800
G1 X119.0763 Y199.3593 Z-0.7937 F800
G1 X119.4934 Y199.9252 Z-0.7937 F800
G1 X119.9476 Y200.4763 Z-0.7937 F800
G1 X120.4420 Y201.0126 Z-0.7937 F800
G1 X120.9799 Y201.5340 Z-0.7937 F800
G1 X121.5652 Y202.0402 Z-0.7937 F800
G1 X122.2022 Y202.5307 Z-0.7937 F800
G1 X122.8956 Y203.0044 Z-0.7937 F800
G1 X123.6500 Y203.4601 Z-0.7937 F800
G1 X124.4704 Y203.8957 Z-0.7937 F800
G1 X125.3615 Y204.3088 Z-0.7937 F800
G1 X126.3280 Y204.6966 Z-0.7937 F800
G1 X127.3740 Y205.0558 Z-0.7937 F800
G1 X128.5038 Y205.3828 Z-0.7937 F800
G1 X129.7208 Y205.6740 Z-0.7937 F800
G1 X131.0284 Y205.9254 Z-0.7937 F800
G1 X132.4094 Y206.1301 Z-0.7937 F800
G1 X133.7494 Y206.2630 Z-0.7937 F800
G1 X134.9713 Y206.3124 Z-0.7937 F800
G1 X136.0955 Y206.2878 Z-0.7937 F800
G1 X137.1262 Y206.1972 Z-0.7937 F800
G1 X138.0687 Y206.0481 Z-0.7937 F800
G1 X138.9295 Y205.8473 Z-0.7937 F800
G1 X139.7164 Y205.6006 Z-0.7937 F800
G1 X140.4377 Y205.3123 Z-0.7937 F800
G1 X141.1016 Y204.9853 Z-0.7937 F800
G1 X141.7165 Y204.6207 Z-0.7937 F800
G1 X142.2893 Y204.2185 Z-0.7937 F800
G1 X142.8259 Y203.7777 Z-0.7937 F800
G1 X143.3308 Y203.2971 Z-0.7937 F800
G1 X143.8066 Y202.7753 Z-0.7937 F800
G1 X144.2549 Y202.2117 Z-0.7937 F800
G1 X144.6762 Y201.6063 Z-0.7937 F800
G1 X145.0702 Y200.9598 Z-0.7937 F800
G1 X145.4362 Y200.2741 Z-0.7937 F800
G1 X145.7734 Y199.5515 Z-0.7937 F800
G1 X146.0808 Y198.7954 Z-0.7937 F800
G1 X146.3576 Y198.0095 Z-0.7937 F800
G1 X146.6034 Y197.1980 Z-0.7937 F800
G1 X146.8179 Y196.3655 Z-0.7937 F800
G1 X147.0008 Y195.5168 Z-0.7937 F800
G1 X147.1525 Y194.6568 Z-0.7937 F800
G1 X147.2734 Y193.7908 Z-0.7937 F800
G1 X147.3642 Y192.9239 Z-0.7937 F800
G1 X147.4256 Y192.0615 Z-0.7937 F800
G1 X147.4588 Y191.2090 Z-0.7937 F800
G1 X147.4650 Y190.3719 Z-0.7937 F800
G1 X147.4457 Y189.5559 Z-0.7937 F800
G1 X147.4026 Y188.7668 Z-0.7937 F800
G1 X147.3375 Y188.0107 Z-0.7937 F800
G1 X147.2527 Y187.2940 Z-0.7937 F800
G1 X147.1507 Y186.6235 Z-0.7937 F800
G1 X147.0365 Y186.0153 Z-0.7937 F800
G1 X146.5690 Y186.0737 Z-0.7937 F800
G1 X146.5150 Y186.0802 Z-0.7937 F800
G1 X145.8279 Y186.1591 Z-0.7937 F800
G1 X145.7819 Y186.1641 Z-0.7937 F800
G1 X145.0544 Y186.2413 Z-0.7937 F800
G1 X145.0148 Y186.2454 Z-0.7937 F800
G1 X144.2494 Y186.3209 Z-0.7937 F800
G1 X144.2149 Y186.3242 Z-0.7937 F800
G1 X143.4140 Y186.3980 Z-0.7937 F800
G1 X143.3837 Y186.4007 Z-0.7937 F800
G1 X142.5500 Y186.4728 Z-0.7937 F800
G1 X142.5231 Y186.4750 Z-0.7937 F800
G1 X141.6590 Y186.5454 Z-0.7937 F800
G1 X141.6350 Y186.5473 Z-0.7937 F800
G1 X140.7432 Y186.6159 Z-0.7937 F800
G1 X140.7216 Y186.6175 Z-0.7937 F800
G1 X139.8044 Y186.6844 Z-0.7937 F800
G1 X139.7849 Y186.6858 Z-0.7937 F800
G1 X138.8450 Y186.7509 Z-0.7937 F800
G1 X138.8272 Y186.7521 Z-0.7937 F800
G1 X137.8670 Y186.8154 Z-0.7937 F800
G1 X137.8508 Y186.8164 Z-0.7937 F800
G1 X136.8729 Y186.8780 Z-0.7937 F800
G1 X136.8580 Y186.8789 Z-0.7937 F800
G1 X135.8650 Y186.9386 Z-0.7937 F800
G1 X135.8512 Y186.9394 Z-0.7937 F800
G1 X134.8455 Y186.9973 Z-0.7937 F800
G1 X134.8327 Y186.9980 Z-0.7937 F800
G1 X133.8169 Y187.0541 Z-0.7937 F800
G1 X133.8050 Y187.0547 Z-0.7937 F800
G1 X132.7816 Y187.1089 Z-0.7937 F800
G1 X132.7704 Y187.1095 Z-0.7937 F800
G1 X131.7420 Y187.1618 Z-0.7937 F800
G1 X131.7315 Y187.1623 Z-0.7937 F800
G1 X130.7006 Y187.2128 Z-0.7937 F800
G1 X130.6907 Y187.2133 Z-0.7937 F800
G1 X129.6597 Y187.2618 Z-0.7937 F800
G1 X129.6504 Y187.2623 Z-0.7937 F800
G1 X128.6219 Y187.3089 Z-0.7937 F800
G1 X128.6130 Y187.3093 Z-0.7937 F800
G1 X127.5897 Y187.3540 Z-0.7937 F800
G1 X127.5812 Y187.3544 Z-0.7937 F800
G1 X126.5654 Y187.3972 Z-0.7937 F800
G1 X126.5572 Y187.3975 Z-0.7937 F800
G1 X125.5515 Y187.4384 Z-0.7937 F800
G1 X125.5437 Y187.4387 Z-0.7937 F800
G1 X124.5507 Y187.4775 Z-0.7937 F800
G1 X124.5430 Y187.4778 Z-0.7937 F800
G1 X123.5652 Y187.5147 Z-0.7937 F800
G1 X123.5577 Y187.5150 Z-0.7937 F800
G1 X122.5976 Y187.5499 Z-0.7937 F800
G1 X122.5903 Y187.5502 Z-0.7937 F800
G1 X121.6504 Y187.5831 Z-0.7937 F800
G1 X121.6432 Y187.5833 Z-0.7937 F800
G1 X120.7260 Y187.6142 Z-0.7937 F800
G1 X120.7189 Y187.6144 Z-0.7937 F800
G1 X119.8270 Y187.6433 Z-0.7937 F800
G1 X119.8198 Y187.6435 Z-0.7937 F800
G1 X118.9558 Y187.6703 Z-0.7937 F800
G1 X118.9485 Y187.6705 Z-0.7937 F800
G1 X118.1148 Y187.6953 Z-0.7937 F800
G1 X118.1074 Y187.6955 Z-0.7937 F800
G1 X117.3066 Y187.7181 Z-0.7937 F800
G1 X117.2989 Y187.7183 Z-0.7937 F800
G1 X116.5335 Y187.7389 Z-0.7937 F800
G1 X116.5254 Y187.7391 Z-0.7937 F800
G1 X116.2544 Y187.7460 Z-0.7937 F800
G0 Z5.000
G0 X117.4979 Y188.9832 Z5.0000
G1 Z-0.7937 F300
G1 X117.4975 Y189.1501 Z-0.7937 F800
G1 X117.5098 Y189.7371 Z-0.7937 F800
G1 X117.5373 Y190.3375 Z-0.7937 F800
G1 X117.5814 Y190.9482 Z-0.7937 F800
G1 X117.6435 Y191.5662 Z-0.7937 F800
G1 X117.7246 Y192.1886 Z-0.7937 F800
G1 X117.8259 Y192.8124 Z-0.7937 F800
G1 X117.9482 Y193.4350 Z-0.7937 F800
G1 X118.0924 Y194.0537 Z-0.7937 F800
G1 X118.2592 Y194.6661 Z-0.7937 F800
G1 X118.4493 Y195.2699 Z-0.7937 F800
G1 X118.6633 Y195.8634 Z-0.7937 F800
G1 X118.9018 Y196.4449 Z-0.7937 F800
G1 X119.1656 Y197.0132 Z-0.7937 F800
G1 X119.4555 Y197.5675 Z-0.7937 F800
G1 X119.7726 Y198.1074 Z-0.7937 F800
G1 X120.1186 Y198.6328 Z-0.7937 F800
G1 X120.4953 Y199.1440 Z-0.7937 F800
G1 X120.9053 Y199.6414 Z-0.7937 F800
G1 X121.3515 Y200.1256 Z-0.7937 F800
G1 X121.8379 Y200.5970 Z-0.7937 F800
G1 X122.3686 Y201.0560 Z-0.7937 F800
G1 X122.9484 Y201.5024 Z-0.7937 F800
G1 X123.5826 Y201.9357 Z-0.7937 F800
G1 X124.2765 Y202.3548 Z-0.7937 F800
G1 X125.0357 Y202.7579 Z-0.7937 F800
G1 X125.8654 Y203.1425 Z-0.7937 F800
G1 X126.7709 Y203.5059 Z-0.7937 F800
G1 X127.7571 Y203.8445 Z-0.7937 F800
G1 X128.8283 Y204.1546 Z-0.7937 F800
G1 X129.9886 Y204.4322 Z-0.7937 F800
G1 X131.2415 Y204.6731 Z-0.7937 F800
G1 X132.5653 Y204.8693 Z-0.7937 F800
G1 X133.8378 Y204.9955 Z-0.7937 F800
G1 X134.9831 Y205.0418 Z-0.7937 F800
G1 X136.0260 Y205.0191 Z-0.7937 F800
G1 X136.9711 Y204.9360 Z-0.7937 F800
G1 X137.8249 Y204.8009 Z-0.7937 F800
G1 X138.5949 Y204.6213 Z-0.7937 F800
G1 X139.2902 Y204.4033 Z-0.7937 F800
G1 X139.9206 Y204.1513 Z-0.7937 F800
G1 X140.4962 Y203.8678 Z-0.7937 F800
G1 X141.0266 Y203.5532 Z-0.7937 F800
G1 X141.5203 Y203.2066 Z-0.7937 F800
G1 X141.9839 Y202.8258 Z-0.7937 F800
G1 X142.4226 Y202.4082 Z-0.7937 F800
G1 X142.8394 Y201.9512 Z-0.7937 F800
G1 X143.2357 Y201.4530 Z-0.7937 F800
G1 X143.6118 Y200.9125 Z-0.7937 F800
G1 X143.9669 Y200.3298 Z-0.7937 F800
G1 X144.2998 Y199.7061 Z-0.7937 F800
G1 X144.6090 Y199.0435 Z-0.7937 F800
G1 X144.8929 Y198.3450 Z-0.7937 F800
G1 X145.1504 Y197.6142 Z-0.7937 F800
G1 X145.3802 Y196.8554 Z-0.7937 F800
G1 X145.5817 Y196.0732 Z-0.7937 F800
G1 X145.7543 Y195.2725 Z-0.7937 F800
G1 X145.8979 Y194.4586 Z-0.7937 F800
G1 X146.0126 Y193.6369 Z-0.7937 F800
G1 X146.0989 Y192.8127 Z-0.7937 F800
G1 X146.1574 Y191.9916 Z-0.7937 F800
G1 X146.1890 Y191.1795 Z-0.7937 F800
G1 X146.1949 Y190.3822 Z-0.7937 F800
G1 X146.1765 Y189.6056 Z-0.7937 F800
G1 X146.1355 Y188.8560 Z-0.7937 F800
G1 X146.0739 Y188.1398 Z-0.7937 F800
G1 X145.9939 Y187.4641 Z-0.7937 F800
G1 X145.9871 Y187.4191 Z-0.7937 F800
G1 X145.9727 Y187.4208 Z-0.7937 F800
G1 X145.9159 Y187.4271 Z-0.7937 F800
G1 X145.1884 Y187.5042 Z-0.7937 F800
G1 X145.1395 Y187.5092 Z-0.7937 F800
G1 X144.3740 Y187.5847 Z-0.7937 F800
G1 X144.3314 Y187.5888 Z-0.7937 F800
G1 X143.5306 Y187.6626 Z-0.7937 F800
G1 X143.4931 Y187.6659 Z-0.7937 F800
G1 X142.6594 Y187.7380 Z-0.7937 F800
G1 X142.6262 Y187.7408 Z-0.7937 F800
G1 X141.7621 Y187.8112 Z-0.7937 F800
G1 X141.7325 Y187.8135 Z-0.7937 F800
G1 X140.8406 Y187.8822 Z-0.7937 F800
G1 X140.8139 Y187.8842 Z-0.7937 F800
G1 X139.8968 Y187.9510 Z-0.7937 F800
G1 X139.8726 Y187.9527 Z-0.7937 F800
G1 X138.9327 Y188.0178 Z-0.7937 F800
G1 X138.9108 Y188.0193 Z-0.7937 F800
G1 X137.9506 Y188.0826 Z-0.7937 F800
G1 X137.9305 Y188.0839 Z-0.7937 F800
G1 X136.9527 Y188.1455 Z-0.7937 F800
G1 X136.9342 Y188.1466 Z-0.7937 F800
G1 X135.9412 Y188.2063 Z-0.7937 F800
G1 X135.9241 Y188.2073 Z-0.7937 F800
G1 X134.9185 Y188.2652 Z-0.7937 F800
G1 X134.9027 Y188.2661 Z-0.7937 F800
G1 X133.8869 Y188.3221 Z-0.7937 F800
G1 X133.8721 Y188.3229 Z-0.7937 F800
G1 X132.8488 Y188.3771 Z-0.7937 F800
G1 X132.8350 Y188.3778 Z-0.7937 F800
G1 X131.8066 Y188.4302 Z-0.7937 F800
G1 X131.7936 Y188.4308 Z-0.7937 F800
G1 X130.7627 Y188.4813 Z-0.7937 F800
G1 X130.7504 Y188.4819 Z-0.7937 F800
G1 X129.7195 Y188.5304 Z-0.7937 F800
G1 X129.7079 Y188.5310 Z-0.7937 F800
G1 X128.6795 Y188.5776 Z-0.7937 F800
G1 X128.6685 Y188.5781 Z-0.7937 F800
G1 X127.6451 Y188.6228 Z-0.7937 F800
G1 X127.6346 Y188.6233 Z-0.7937 F800
G1 X126.6188 Y188.6661 Z-0.7937 F800
G1 X126.6088 Y188.6665 Z-0.7937 F800
G1 X125.6031 Y188.7073 Z-0.7937 F800
G1 X125.5934 Y188.7077 Z-0.7937 F800
G1 X124.6003 Y188.7466 Z-0.7937 F800
G1 X124.5909 Y188.7469 Z-0.7937 F800
G1 X123.6131 Y188.7838 Z-0.7937 F800
G1 X123.6039 Y188.7842 Z-0.7937 F800
G1 X122.6437 Y188.8191 Z-0.7937 F800
G1 X122.6347 Y188.8194 Z-0.7937 F800
G1 X121.6948 Y188.8523 Z-0.7937 F800
G1 X121.6859 Y188.8526 Z-0.7937 F800
G1 X120.7688 Y188.8835 Z-0.7937 F800
G1 X120.7599 Y188.8838 Z-0.7937 F800
G1 X119.8681 Y188.9126 Z-0.7937 F800
G1 X119.8592 Y188.9129 Z-0.7937 F800
G1 X118.9951 Y188.9397 Z-0.7937 F800
G1 X118.9862 Y188.9400 Z-0.7937 F800
G1 X118.1525 Y188.9647 Z-0.7937 F800
G1 X118.1433 Y188.9650 Z-0.7937 F800
G1 X117.4979 Y188.9832 Z-0.7937 F800
G0 Z5.000
G0 X118.8030 Y190.2160 Z5.0000
G1 Z-0.7937 F300
G1 X118.8052 Y190.2626 Z-0.7937 F800
G1 X118.8468 Y190.8389 Z-0.7937 F800
G1 X118.9053 Y191.4206 Z-0.7937 F800
G1 X118.9814 Y192.0047 Z-0.7937 F800
G1 X119.0761 Y192.5882 Z-0.7937 F800
G1 X119.1901 Y193.1684 Z-0.7937 F800
G1 X119.3239 Y193.7425 Z-0.7937 F800
G1 X119.4781 Y194.3084 Z-0.7937 F800
G1 X119.6529 Y194.8637 Z-0.7937 F800
G1 X119.8487 Y195.4068 Z-0.7937 F800
G1 X120.0659 Y195.9363 Z-0.7937 F800
G1 X120.3049 Y196.4513 Z-0.7937 F800
G1 X120.5664 Y196.9512 Z-0.7937 F800
G1 X120.8512 Y197.4361 Z-0.7937 F800
G1 X121.1609 Y197.9064 Z-0.7937 F800
G1 X121.4972 Y198.3629 Z-0.7937 F800
G1 X121.8629 Y198.8065 Z-0.7937 F800
G1 X122.2611 Y199.2385 Z-0.7937 F800
G1 X122.6959 Y199.6600 Z-0.7937 F800
G1 X123.1720 Y200.0717 Z-0.7937 F800
G1 X123.6947 Y200.4742 Z-0.7937 F800
G1 X124.2697 Y200.8671 Z-0.7937 F800
G1 X124.9031 Y201.2496 Z-0.7937 F800
G1 X125.6009 Y201.6201 Z-0.7937 F800
G1 X126.3693 Y201.9763 Z-0.7937 F800
G1 X127.2139 Y202.3152 Z-0.7937 F800
G1 X128.1401 Y202.6332 Z-0.7937 F800
G1 X129.1528 Y202.9264 Z-0.7937 F800
G1 X130.2564 Y203.1905 Z-0.7937 F800
G1 X131.4546 Y203.4208 Z-0.7937 F800
G1 X132.7211 Y203.6085 Z-0.7937 F800
G1 X133.9262 Y203.7281 Z-0.7937 F800
G1 X134.9949 Y203.7713 Z-0.7937 F800
G1 X135.9564 Y203.7503 Z-0.7937 F800
G1 X136.8161 Y203.6747 Z-0.7937 F800
G1 X137.5811 Y203.5537 Z-0.7937 F800
G1 X138.2602 Y203.3953 Z-0.7937 F800
G1 X138.8639 Y203.2060 Z-0.7937 F800
G1 X139.4035 Y202.9903 Z-0.7937 F800
G1 X139.8908 Y202.7503 Z-0.7937 F800
G1 X140.3368 Y202.4858 Z-0.7937 F800
G1 X140.7512 Y202.1948 Z-0.7937 F800
G1 X141.1419 Y201.8739 Z-0.7937 F800
G1 X141.5144 Y201.5193 Z-0.7937 F800
G1 X141.8722 Y201.1270 Z-0.7937 F800
G1 X142.2165 Y200.6942 Z-0.7937 F800
G1 X142.5474 Y200.2187 Z-0.7937 F800
G1 X142.8636 Y199.6999 Z-0.7937 F800
G1 X143.1633 Y199.1382 Z-0.7937 F800
G1 X143.4445 Y198.5356 Z-0.7937 F800
G1 X143.7051 Y197.8946 Z-0.7937 F800
G1 X143.9431 Y197.2189 Z-0.7937 F800
G1 X144.1570 Y196.5128 Z-0.7937 F800
G1 X144.3455 Y195.7809 Z-0.7937 F800
G1 X144.5078 Y195.0283 Z-0.7937 F800
G1 X144.6432 Y194.2605 Z-0.7937 F800
G1 X144.7518 Y193.4829 Z-0.7937 F800
G1 X144.8336 Y192.7014 Z-0.7937 F800
G1 X144.8891 Y191.9218 Z-0.7937 F800
G1 X144.9192 Y191.1501 Z-0.7937 F800
G1 X144.9248 Y190.3925 Z-0.7937 F800
G1 X144.9074 Y189.6553 Z-0.7937 F800
G1 X144.8685 Y188.9451 Z-0.7937 F800
G1 X144.8572 Y188.8132 Z-0.7937 F800
G1 X144.4987 Y188.8486 Z-0.7937 F800
G1 X144.4479 Y188.8534 Z-0.7937 F800
G1 X143.6471 Y188.9272 Z-0.7937 F800
G1 X143.6025 Y188.9312 Z-0.7937 F800
G1 X142.7688 Y189.0033 Z-0.7937 F800
G1 X142.7293 Y189.0066 Z-0.7937 F800
G1 X141.8652 Y189.0770 Z-0.7937 F800
G1 X141.8299 Y189.0798 Z-0.7937 F800
G1 X140.9380 Y189.1484 Z-0.7937 F800
G1 X140.9063 Y189.1508 Z-0.7937 F800
G1 X139.9891 Y189.2177 Z-0.7937 F800
G1 X139.9604 Y189.2197 Z-0.7937 F800
G1 X139.0205 Y189.2848 Z-0.7937 F800
G1 X138.9943 Y189.2866 Z-0.7937 F800
G1 X138.0342 Y189.3499 Z-0.7937 F800
G1 X138.0103 Y189.3514 Z-0.7937 F800
G1 X137.0324 Y189.4129 Z-0.7937 F800
G1 X137.0104 Y189.4143 Z-0.7937 F800
G1 X136.0174 Y189.4740 Z-0.7937 F800
G1 X135.9971 Y189.4752 Z-0.7937 F800
G1 X134.9915 Y189.5331 Z-0.7937 F800
G1 X134.9726 Y189.5342 Z-0.7937 F800
G1 X133.9568 Y189.5902 Z-0.7937 F800
G1 X133.9393 Y189.5912 Z-0.7937 F800
G1 X132.9159 Y189.6453 Z-0.7937 F800
G1 X132.8995 Y189.6462 Z-0.7937 F800
G1 X131.8711 Y189.6985 Z-0.7937 F800
G1 X131.8557 Y189.6993 Z-0.7937 F800
G1 X130.8247 Y189.7498 Z-0.7937 F800
G1 X130.8102 Y189.7505 Z-0.7937 F800
G1 X129.7792 Y189.7990 Z-0.7937 F800
G1 X129.7655 Y189.7996 Z-0.7937 F800
G1 X128.7370 Y189.8463 Z-0.7937 F800
G1 X128.7240 Y189.8469 Z-0.7937 F800
G1 X127.7006 Y189.8916 Z-0.7937 F800
G1 X127.6881 Y189.8921 Z-0.7937 F800
G1 X126.6723 Y189.9349 Z-0.7937 F800
G1 X126.6603 Y189.9354 Z-0.7937 F800
G1 X125.6546 Y189.9763 Z-0.7937 F800
G1 X125.6430 Y189.9767 Z-0.7937 F800
G1 X124.6500 Y190.0156 Z-0.7937 F800
G1 X124.6388 Y190.0160 Z-0.7937 F800
G1 X123.6609 Y190.0529 Z-0.7937 F800
G1 X123.6500 Y190.0533 Z-0.7937 F800
G1 X122.6899 Y190.0882 Z-0.7937 F800
G1 X122.6792 Y190.0886 Z-0.7937 F800
G1 X121.7392 Y190.1215 Z-0.7937 F800
G1 X121.7287 Y190.1219 Z-0.7937 F800
G1 X120.8115 Y190.1528 Z-0.7937 F800
G1 X120.8010 Y190.1531 Z-0.7937 F800
G1 X119.9091 Y190.1820 Z-0.7937 F800
G1 X119.8986 Y190.1823 Z-0.7937 F800
G1 X119.0345 Y190.2091 Z-0.7937 F800
G1 X119.0238 Y190.2094 Z-0.7937 F800
G1 X118.8030 Y190.2160 Z-0.7937 F800
G0 Z5.000
G0 X120.1890 Y191.4436 Z5.0000
G1 Z-0.7937 F300
G1 X120.2382 Y191.8208 Z-0.7937 F800
G1 X120.3263 Y192.3640 Z-0.7937 F800
G1 X120.4320 Y192.9017 Z-0.7937 F800
G1 X120.5555 Y193.4314 Z-0.7937 F800
G1 X120.6969 Y193.9506 Z-0.7937 F800
G1 X120.8565 Y194.4575 Z-0.7937 F800
G1 X121.0341 Y194.9502 Z-0.7937 F800
G1 X121.2300 Y195.4278 Z-0.7937 F800
G1 X121.4442 Y195.8894 Z-0.7937 F800
G1 X121.6772 Y196.3350 Z-0.7937 F800
G1 X121.9298 Y196.7649 Z-0.7937 F800
G1 X122.2031 Y197.1800 Z-0.7937 F800
G1 X122.4992 Y197.5817 Z-0.7937 F800
G1 X122.8206 Y197.9716 Z-0.7937 F800
G1 X123.1707 Y198.3515 Z-0.7937 F800
G1 X123.5540 Y198.7230 Z-0.7937 F800
G1 X123.9754 Y199.0875 Z-0.7937 F800
G1 X124.4409 Y199.4459 Z-0.7937 F800
G1 X124.9567 Y199.7984 Z-0.7937 F800
G1 X125.5296 Y200.1443 Z-0.7937 F800
G1 X126.1662 Y200.4823 Z-0.7937 F800
G1 X126.8732 Y200.8101 Z-0.7937 F800
G1 X127.6569 Y201.1245 Z-0.7937 F800
G1 X128.5232 Y201.4220 Z-0.7937 F800
G1 X129.4774 Y201.6982 Z-0.7937 F800
G1 X130.5241 Y201.9487 Z-0.7937 F800
G1 X131.6676 Y202.1685 Z-0.7937 F800
G1 X132.8770 Y202.3478 Z-0.7937 F800
G1 X134.0146 Y202.4606 Z-0.7937 F800
G1 X135.0067 Y202.5007 Z-0.7937 F800
G1 X135.8869 Y202.4815 Z-0.7937 F800
G1 X136.6611 Y202.4134 Z-0.7937 F800
G1 X137.3373 Y202.3065 Z-0.7937 F800
G1 X137.9255 Y202.1693 Z-0.7937 F800
G1 X138.4376 Y202.0087 Z-0.7937 F800
G1 X138.8865 Y201.8293 Z-0.7937 F800
G1 X139.2854 Y201.6328 Z-0.7937 F800
G1 X139.6470 Y201.4184 Z-0.7937 F800
G1 X139.9822 Y201.1830 Z-0.7937 F800
G1 X140.2999 Y200.9220 Z-0.7937 F800
G1 X140.6063 Y200.6304 Z-0.7937 F800
G1 X140.9049 Y200.3029 Z-0.7937 F800
G1 X141.1973 Y199.9354 Z-0.7937 F800
G1 X141.4829 Y199.5249 Z-0.7937 F800
G1 X141.7602 Y199.0699 Z-0.7937 F800
G1 X142.0269 Y198.5703 Z-0.7937 F800
G1 X142.2801 Y198.0276 Z-0.7937 F800
G1 X142.5173 Y197.4442 Z-0.7937 F800
G1 X142.7359 Y196.8237 Z-0.7937 F800
G1 X142.9338 Y196.1702 Z-0.7937 F800
G1 X143.1094 Y195.4885 Z-0.7937 F800
G1 X143.2613 Y194.7841 Z-0.7937 F800
G1 X143.3886 Y194.0623 Z-0.7937 F800
G1 X143.4910 Y193.3290 Z-0.7937 F800
G1 X143.5683 Y192.5902 Z-0.7937 F800
G1 X143.6209 Y191.8520 Z-0.7937 F800
G1 X143.6493 Y191.1207 Z-0.7937 F800
G1 X143.6547 Y190.4028 Z-0.7937 F800
G1 X143.6499 Y190.2019 Z-0.7937 F800
G1 X142.8782 Y190.2686 Z-0.7937 F800
G1 X142.8323 Y190.2724 Z-0.7937 F800
G1 X141.9683 Y190.3428 Z-0.7937 F800
G1 X141.9273 Y190.3460 Z-0.7937 F800
G1 X141.0354 Y190.4147 Z-0.7937 F800
G1 X140.9986 Y190.4174 Z-0.7937 F800
G1 X140.0815 Y190.4843 Z-0.7937 F800
G1 X140.0481 Y190.4867 Z-0.7937 F800
G1 X139.1082 Y190.5518 Z-0.7937 F800
G1 X139.0779 Y190.5538 Z-0.7937 F800
G1 X138.1177 Y190.6171 Z-0.7937 F800
G1 X138.0900 Y190.6189 Z-0.7937 F800
G1 X137.1122 Y190.6804 Z-0.7937 F800
G1 X137.0867 Y190.6820 Z-0.7937 F800
G1 X136.0936 Y190.7417 Z-0.7937 F800
G1 X136.0701 Y190.7431 Z-0.7937 F800
G1 X135.0644 Y190.8010 Z-0.7937 F800
G1 X135.0426 Y190.8022 Z-0.7937 F800
G1 X134.0268 Y190.8583 Z-0.7937 F800
G1 X134.0065 Y190.8594 Z-0.7937 F800
G1 X132.9831 Y190.9136 Z-0.7937 F800
G1 X132.9641 Y190.9146 Z-0.7937 F800
G1 X131.9356 Y190.9669 Z-0.7937 F800
G1 X131.9178 Y190.9678 Z-0.7937 F800
G1 X130.8868 Y191.0182 Z-0.7937 F800
G1 X130.8699 Y191.0190 Z-0.7937 F800
G1 X129.8390 Y191.0676 Z-0.7937 F800
G1 X129.8230 Y191.0683 Z-0.7937 F800
G1 X128.7946 Y191.1150 Z-0.7937 F800
G1 X128.7794 Y191.1157 Z-0.7937 F800
G1 X127.7560 Y191.1604 Z-0.7937 F800
G1 X127.7415 Y191.1610 Z-0.7937 F800
G1 X126.7257 Y191.2038 Z-0.7937 F800
G1 X126.7118 Y191.2044 Z-0.7937 F800
G1 X125.7061 Y191.2452 Z-0.7937 F800
G1 X125.6927 Y191.2458 Z-0.7937 F800
G1 X124.6997 Y191.2846 Z-0.7937 F800
G1 X124.6867 Y191.2851 Z-0.7937 F800
G1 X123.7088 Y191.3220 Z-0.7937 F800
G1 X123.6962 Y191.3225 Z-0.7937 F800
G1 X122.7360 Y191.3574 Z-0.7937 F800
G1 X122.7236 Y191.3578 Z-0.7937 F800
G1 X121.7837 Y191.3907 Z-0.7937 F800
G1 X121.7714 Y191.3912 Z-0.7937 F800
G1 X120.8542 Y191.4220 Z-0.7937 F800
G1 X120.8420 Y191.4224 Z-0.7937 F800
G1 X120.1890 Y191.4436 Z-0.7937 F800
G0 Z5.000
G0 X121.6808 Y192.6649 Z5.0000
G1 Z-0.7937 F300
G1 X121.7870 Y193.1202 Z-0.7937 F800
G1 X121.9157 Y193.5929 Z-0.7937 F800
G1 X122.0600 Y194.0513 Z-0.7937 F800
G1 X122.2195 Y194.4937 Z-0.7937 F800
G1 X122.3941 Y194.9192 Z-0.7937 F800
G1 X122.5836 Y195.3275 Z-0.7937 F800
G1 X122.7881 Y195.7187 Z-0.7937 F800
G1 X123.0084 Y196.0936 Z-0.7937 F800
G1 X123.2454 Y196.4536 Z-0.7937 F800
G1 X123.5011 Y196.8006 Z-0.7937 F800
G1 X123.7782 Y197.1367 Z-0.7937 F800
G1 X124.0803 Y197.4645 Z-0.7937 F800
G1 X124.4120 Y197.7860 Z-0.7937 F800
G1 X124.7789 Y198.1033 Z-0.7937 F800
G1 X125.1871 Y198.4176 Z-0.7937 F800
G1 X125.6438 Y198.7297 Z-0.7937 F800
G1 X126.1561 Y199.0391 Z-0.7937 F800
G1 X126.7315 Y199.3445 Z-0.7937 F800
G1 X127.3771 Y199.6438 Z-0.7937 F800
G1 X128.0999 Y199.9338 Z-0.7937 F800
G1 X128.9062 Y200.2107 Z-0.7937 F800
G1 X129.8019 Y200.4700 Z-0.7937 F800
G1 X130.7919 Y200.7069 Z-0.7937 F800
G1 X131.8807 Y200.9163 Z-0.7937 F800
G1 X133.0328 Y201.0870 Z-0.7937 F800
G1 X134.1030 Y201.1931 Z-0.7937 F800
G1 X135.0185 Y201.2301 Z-0.7937 F800
G1 X135.8174 Y201.2127 Z-0.7937 F800
G1 X136.5061 Y201.1522 Z-0.7937 F800
G1 X137.0935 Y201.0592 Z-0.7937 F800
G1 X137.5909 Y200.9432 Z-0.7937 F800
G1 X138.0113 Y200.8114 Z-0.7937 F800
G1 X138.3694 Y200.6683 Z-0.7937 F800
G1 X138.6800 Y200.5153 Z-0.7937 F800
G1 X138.9572 Y200.3509 Z-0.7937 F800
G1 X139.2132 Y200.1711 Z-0.7937 F800
G1 X139.4579 Y199.9701 Z-0.7937 F800
G1 X139.6981 Y199.7415 Z-0.7937 F800
G1 X139.9377 Y199.4787 Z-0.7937 F800
G1 X140.1781 Y199.1766 Z-0.7937 F800
G1 X140.4185 Y198.8311 Z-0.7937 F800
G1 X140.6569 Y198.4399 Z-0.7937 F800
G1 X140.8904 Y198.0024 Z-0.7937 F800
G1 X141.1157 Y197.5196 Z-0.7937 F800
G1 X141.3294 Y196.9938 Z-0.7937 F800
G1 X141.5286 Y196.4284 Z-0.7937 F800
G1 X141.7106 Y195.8275 Z-0.7937 F800
G1 X141.8732 Y195.1962 Z-0.7937 F800
G1 X142.0147 Y194.5398 Z-0.7937 F800
G1 X142.1340 Y193.8641 Z-0.7937 F800
G1 X142.2301 Y193.1750 Z-0.7937 F800
G1 X142.3030 Y192.4789 Z-0.7937 F800
G1 X142.3526 Y191.7821 Z-0.7937 F800
G1 X142.3603 Y191.5851 Z-0.7937 F800
G1 X142.0714 Y191.6086 Z-0.7937 F800
G1 X142.0247 Y191.6123 Z-0.7937 F800
G1 X141.1329 Y191.6809 Z-0.7937 F800
G1 X141.0910 Y191.6841 Z-0.7937 F800
G1 X140.1738 Y191.7509 Z-0.7937 F800
G1 X140.1359 Y191.7536 Z-0.7937 F800
G1 X139.1960 Y191.8187 Z-0.7937 F800
G1 X139.1615 Y191.8211 Z-0.7937 F800
G1 X138.2013 Y191.8844 Z-0.7937 F800
G1 X138.1698 Y191.8864 Z-0.7937 F800
G1 X137.1919 Y191.9479 Z-0.7937 F800
G1 X137.1629 Y191.9497 Z-0.7937 F800
G1 X136.1699 Y192.0094 Z-0.7937 F800
G1 X136.1431 Y192.0110 Z-0.7937 F800
G1 X135.1374 Y192.0689 Z-0.7937 F800
G1 X135.1126 Y192.0703 Z-0.7937 F800
G1 X134.0968 Y192.1263 Z-0.7937 F800
G1 X134.0736 Y192.1276 Z-0.7937 F800
G1 X133.0503 Y192.1818 Z-0.7937 F800
G1 X133.0286 Y192.1829 Z-0.7937 F800
G1 X132.0002 Y192.2353 Z-0.7937 F800
G1 X131.9798 Y192.2363 Z-0.7937 F800
G1 X130.9489 Y192.2867 Z-0.7937 F800
G1 X130.9297 Y192.2876 Z-0.7937 F800
G1 X129.8987 Y192.3362 Z-0.7937 F800
G1 X129.8806 Y192.3370 Z-0.7937 F800
G1 X128.8521 Y192.3837 Z-0.7937 F800
G1 X128.8349 Y192.3845 Z-0.7937 F800
G1 X127.8115 Y192.4292 Z-0.7937 F800
G1 X127.7950 Y192.4299 Z-0.7937 F800
G1 X126.7792 Y192.4727 Z-0.7937 F800
G1 X126.7633 Y192.4733 Z-0.7937 F800
G1 X125.7577 Y192.5142 Z-0.7937 F800
G1 X125.7424 Y192.5148 Z-0.7937 F800
G1 X124.7494 Y192.5537 Z-0.7937 F800
G1 X124.7346 Y192.5542 Z-0.7937 F800
G1 X123.7567 Y192.5911 Z-0.7937 F800
G1 X123.7423 Y192.5917 Z-0.7937 F800
G1 X122.7821 Y192.6266 Z-0.7937 F800
G1 X122.7680 Y192.6271 Z-0.7937 F800
G1 X121.8281 Y192.6600 Z-0.7937 F800
G1 X121.8141 Y192.6604 Z-0.7937 F800
G1 X121.6808 Y192.6649 Z-0.7937 F800
G0 Z5.000
G0 X123.3472 Y193.8769 Z5.0000
G1 Z-0.7937 F300
G1 X123.4050 Y194.0371 Z-0.7937 F800
G1 X123.5582 Y194.4107 Z-0.7937 F800
G1 X123.7229 Y194.7656 Z-0.7937 F800
G1 X123.8990 Y195.1024 Z-0.7937 F800
G1 X124.0869 Y195.4223 Z-0.7937 F800
G1 X124.2877 Y195.7271 Z-0.7937 F800
G1 X124.5031 Y196.0194 Z-0.7937 F800
G1 X124.7358 Y196.3018 Z-0.7937 F800
G1 X124.9899 Y196.5774 Z-0.7937 F800
G1 X125.2700 Y196.8490 Z-0.7937 F800
G1 X125.5823 Y197.1190 Z-0.7937 F800
G1 X125.9334 Y197.3894 Z-0.7937 F800
G1 X126.3309 Y197.6610 Z-0.7937 F800
G1 X126.7826 Y197.9338 Z-0.7937 F800
G1 X127.2967 Y198.2067 Z-0.7937 F800
G1 X127.8810 Y198.4776 Z-0.7937 F800
G1 X128.5429 Y198.7432 Z-0.7937 F800
G1 X129.2893 Y198.9995 Z-0.7937 F800
G1 X130.1264 Y199.2418 Z-0.7937 F800
G1 X131.0597 Y199.4651 Z-0.7937 F800
G1 X132.0938 Y199.6640 Z-0.7937 F800
G1 X133.1887 Y199.8262 Z-0.7937 F800
G1 X134.1914 Y199.9257 Z-0.7937 F800
G1 X135.0303 Y199.9596 Z-0.7937 F800
G1 X135.7478 Y199.9439 Z-0.7937 F800
G1 X136.3511 Y199.8909 Z-0.7937 F800
G1 X136.8497 Y199.8120 Z-0.7937 F800
G1 X137.2562 Y199.7172 Z-0.7937 F800
G1 X137.5850 Y199.6141 Z-0.7937 F800
G1 X137.8524 Y199.5072 Z-0.7937 F800
G1 X138.0746 Y199.3978 Z-0.7937 F800
G1 X138.2673 Y199.2835 Z-0.7937 F800
G1 X138.4442 Y199.1593 Z-0.7937 F800
G1 X138.6159 Y199.0182 Z-0.7937 F800
G1 X138.7900 Y198.8526 Z-0.7937 F800
G1 X138.9705 Y198.6546 Z-0.7937 F800
G1 X139.1588 Y198.4178 Z-0.7937 F800
G1 X139.3540 Y198.1373 Z-0.7937 F800
G1 X139.5536 Y197.8099 Z-0.7937 F800
G1 X139.7539 Y197.4345 Z-0.7937 F800
G1 X139.9512 Y197.0117 Z-0.7937 F800
G1 X140.1416 Y196.5434 Z-0.7937 F800
G1 X140.3214 Y196.0331 Z-0.7937 F800
G1 X140.4874 Y195.4849 Z-0.7937 F800
G1 X140.6371 Y194.9039 Z-0.7937 F800
G1 X140.7682 Y194.2956 Z-0.7937 F800
G1 X140.8793 Y193.6659 Z-0.7937 F800
G1 X140.9693 Y193.0211 Z-0.7937 F800
G1 X140.9751 Y192.9659 Z-0.7937 F800
G1 X140.2661 Y193.0176 Z-0.7937 F800
G1 X140.2236 Y193.0206 Z-0.7937 F800
G1 X139.2837 Y193.0857 Z-0.7937 F800
G1 X139.2450 Y193.0883 Z-0.7937 F800
G1 X138.2849 Y193.1516 Z-0.7937 F800
G1 X138.2495 Y193.1539 Z-0.7937 F800
G1 X137.2716 Y193.2154 Z-0.7937 F800
G1 X137.2391 Y193.2174 Z-0.7937 F800
G1 X136.2461 Y193.2771 Z-0.7937 F800
G1 X136.2161 Y193.2789 Z-0.7937 F800
G1 X135.2104 Y193.3368 Z-0.7937 F800
G1 X135.1825 Y193.3384 Z-0.7937 F800
G1 X134.1668 Y193.3944 Z-0.7937 F800
G1 X134.1408 Y193.3958 Z-0.7937 F800
G1 X133.1174 Y193.4500 Z-0.7937 F800
G1 X133.0932 Y193.4513 Z-0.7937 F800
G1 X132.0647 Y193.5036 Z-0.7937 F800
G1 X132.0419 Y193.5047 Z-0.7937 F800
G1 X131.0110 Y193.5552 Z-0.7937 F800
G1 X130.9894 Y193.5562 Z-0.7937 F800
G1 X129.9585 Y193.6048 Z-0.7937 F800
G1 X129.9381 Y193.6057 Z-0.7937 F800
G1 X128.9097 Y193.6524 Z-0.7937 F800
G1 X128.8903 Y193.6532 Z-0.7937 F800
G1 X127.8669 Y193.6980 Z-0.7937 F800
G1 X127.8484 Y193.6988 Z-0.7937 F800
G1 X126.8326 Y193.7416 Z-0.7937 F800
G1 X126.8149 Y193.7423 Z-0.7937 F800
G1 X125.8092 Y193.7831 Z-0.7937 F800
G1 X125.7921 Y193.7838 Z-0.7937 F800
G1 X124.7991 Y193.8227 Z-0.7937 F800
G1 X124.7825 Y193.8233 Z-0.7937 F800
G1 X123.8046 Y193.8602 Z-0.7937 F800
G1 X123.7884 Y193.8608 Z-0.7937 F800
G1 X123.3472 Y193.8769 Z-0.7937 F800
G0 Z5.000
G0 X125.3816 Y195.0709 Z5.0000
G1 Z-0.7937 F300
G1 X125.5050 Y195.2382 Z-0.7937 F800
G1 X125.6935 Y195.4670 Z-0.7937 F800
G1 X125.8995 Y195.6904 Z-0.7937 F800
G1 X126.1281 Y195.9120 Z-0.7937 F800
G1 X126.3857 Y196.1348 Z-0.7937 F800
G1 X126.6796 Y196.3611 Z-0.7937 F800
G1 X127.0179 Y196.5923 Z-0.7937 F800
G1 X127.4092 Y196.8285 Z-0.7937 F800
G1 X127.8620 Y197.0690 Z-0.7937 F800
G1 X128.3849 Y197.3113 Z-0.7937 F800
G1 X128.9858 Y197.5525 Z-0.7937 F800
G1 X129.6723 Y197.7882 Z-0.7937 F800
G1 X130.4509 Y198.0136 Z-0.7937 F800
G1 X131.3275 Y198.2234 Z-0.7937 F800
G1 X132.3069 Y198.4117 Z-0.7937 F800
G1 X133.3446 Y198.5655 Z-0.7937 F800
G1 X134.2798 Y198.6582 Z-0.7937 F800
G1 X135.0421 Y198.6890 Z-0.7937 F800
G1 X135.6783 Y198.6751 Z-0.7937 F800
G1 X136.1960 Y198.6296 Z-0.7937 F800
G1 X136.6059 Y198.5648 Z-0.7937 F800
G1 X136.9215 Y198.4912 Z-0.7937 F800
G1 X137.1588 Y198.4168 Z-0.7937 F800
G1 X137.3353 Y198.3462 Z-0.7937 F800
G1 X137.4692 Y198.2803 Z-0.7937 F800
G1 X137.5775 Y198.2160 Z-0.7937 F800
G1 X137.6752 Y198.1475 Z-0.7937 F800
G1 X137.7739 Y198.0664 Z-0.7937 F800
G1 X137.8818 Y197.9637 Z-0.7937 F800
G1 X138.0033 Y197.8305 Z-0.7937 F800
G1 X138.1396 Y197.6590 Z-0.7937 F800
G1 X138.2896 Y197.4435 Z-0.7937 F800
G1 X138.4502 Y197.1799 Z-0.7937 F800
G1 X138.6175 Y196.8666 Z-0.7937 F800
G1 X138.7868 Y196.5037 Z-0.7937 F800
G1 X138.9538 Y196.0930 Z-0.7937 F800
G1 X139.1141 Y195.6378 Z-0.7937 F800
G1 X139.2642 Y195.1423 Z-0.7937 F800
G1 X139.4009 Y194.6116 Z-0.7937 F800
G1 X139.4580 Y194.3467 Z-0.7937 F800
G1 X139.3715 Y194.3527 Z-0.7937 F800
G1 X139.3286 Y194.3556 Z-0.7937 F800
G1 X138.3685 Y194.4189 Z-0.7937 F800
G1 X138.3292 Y194.4214 Z-0.7937 F800
G1 X137.3514 Y194.4829 Z-0.7937 F800
G1 X137.3154 Y194.4851 Z-0.7937 F800
G1 X136.3223 Y194.5449 Z-0.7937 F800
G1 X136.2891 Y194.5468 Z-0.7937 F800
G1 X135.2834 Y194.6047 Z-0.7937 F800
G1 X135.2525 Y194.6064 Z-0.7937 F800
G1 X134.2367 Y194.6625 Z-0.7937 F800
G1 X134.2080 Y194.6640 Z-0.7937 F800
G1 X133.1846 Y194.7182 Z-0.7937 F800
G1 X133.1577 Y194.7196 Z-0.7937 F800
G1 X132.1293 Y194.7720 Z-0.7937 F800
G1 X132.1040 Y194.7732 Z-0.7937 F800
G1 X131.0730 Y194.8237 Z-0.7937 F800
G1 X131.0492 Y194.8248 Z-0.7937 F800
G1 X130.0182 Y194.8734 Z-0.7937 F800
G1 X129.9957 Y194.8744 Z-0.7937 F800
G1 X128.9672 Y194.9211 Z-0.7937 F800
G1 X128.9458 Y194.9220 Z-0.7937 F800
G1 X127.9224 Y194.9668 Z-0.7937 F800
G1 X127.9019 Y194.9676 Z-0.7937 F800
G1 X126.8861 Y195.0104 Z-0.7937 F800
G1 X126.8664 Y195.0112 Z-0.7937 F800
G1 X125.8607 Y195.0521 Z-0.7937 F800
G1 X125.8418 Y195.0528 Z-0.7937 F800
G1 X125.3816 Y195.0709 Z-0.7937 F800
G0 Z5.000
G0 X129.0025 Y196.1908 Z5.0000
G1 Z-0.7937 F300
G1 X129.4288 Y196.3618 Z-0.7937 F800
G1 X130.0554 Y196.5770 Z-0.7937 F800
G1 X130.7755 Y196.7854 Z-0.7937 F800
G1 X131.5953 Y196.9816 Z-0.7937 F800
G1 X132.5200 Y197.1594 Z-0.7937 F800
G1 X133.5004 Y197.3047 Z-0.7937 F800
G1 X134.3682 Y197.3908 Z-0.7937 F800
G1 X135.0539 Y197.4185 Z-0.7937 F800
G1 X135.6087 Y197.4064 Z-0.7937 F800
G1 X136.0410 Y197.3684 Z-0.7937 F800
G1 X136.3622 Y197.3175 Z-0.7937 F800
G1 X136.5868 Y197.2651 Z-0.7937 F800
G1 X136.7325 Y197.2195 Z-0.7937 F800
G1 X136.8182 Y197.1852 Z-0.7937 F800
G1 X136.8638 Y197.1628 Z-0.7937 F800
G1 X136.8877 Y197.1486 Z-0.7937 F800
G1 X136.9062 Y197.1356 Z-0.7937 F800
G1 X136.9319 Y197.1145 Z-0.7937 F800
G1 X136.9736 Y197.0748 Z-0.7937 F800
G1 X137.0360 Y197.0063 Z-0.7937 F800
G1 X137.1204 Y196.9003 Z-0.7937 F800
G1 X137.2252 Y196.7497 Z-0.7937 F800
G1 X137.3469 Y196.5500 Z-0.7937 F800
G1 X137.4810 Y196.2987 Z-0.7937 F800
G1 X137.6224 Y195.9957 Z-0.7937 F800
G1 X137.7297 Y195.7316 Z-0.7937 F800
G1 X137.4311 Y195.7504 Z-0.7937 F800
G1 X137.3916 Y195.7528 Z-0.7937 F800
G1 X136.3986 Y195.8126 Z-0.7937 F800
G1 X136.3620 Y195.8147 Z-0.7937 F800
G1 X135.3564 Y195.8726 Z-0.7937 F800
G1 X135.3225 Y195.8745 Z-0.7937 F800
G1 X134.3067 Y195.9306 Z-0.7937 F800
G1 X134.2751 Y195.9323 Z-0.7937 F800
G1 X133.2518 Y195.9865 Z-0.7937 F800
G1 X133.2222 Y195.9880 Z-0.7937 F800
G1 X132.1938 Y196.0403 Z-0.7937 F800
G1 X132.1661 Y196.0417 Z-0.7937 F800
G1 X131.1351 Y196.0922 Z-0.7937 F800
G1 X131.1089 Y196.0934 Z-0.7937 F800
G1 X130.0780 Y196.1420 Z-0.7937 F800
G1 X130.0532 Y196.1431 Z-0.7937 F800
G1 X129.0248 Y196.1898 Z-0.7937 F800
G1 X129.0025 Y196.1908 Z-0.7937 F800
G0 Z5.000
G0 X247.6093 Y182.8654 Z5.0000
G1 Z-0.7937 F300
G1 X247.5641 Y182.9170 Z-0.7937 F800
G1 X247.3998 Y183.1589 Z-0.7937 F800
G1 X247.2140 Y183.4978 Z-0.7937 F800
G1 X247.0207 Y183.9241 Z-0.7937 F800
G1 X246.8285 Y184.4287 Z-0.7937 F800
G1 X246.6436 Y185.0040 Z-0.7937 F800
G1 X246.4702 Y185.6428 Z-0.7937 F800
G1 X246.3115 Y186.3391 Z-0.7937 F800
G1 X246.1703 Y187.0869 Z-0.7937 F800
G1 X246.0490 Y187.8810 Z-0.7937 F800
G1 X245.9497 Y188.7163 Z-0.7937 F800
G1 X245.8744 Y189.5876 Z-0.7937 F800
G1 X245.8248 Y190.4904 Z-0.7937 F800
G1 X245.8027 Y191.4197 Z-0.7937 F800
G1 X245.8098 Y192.3711 Z-0.7937 F800
G1 X245.8477 Y193.3398 Z-0.7937 F800
G1 X245.9179 Y194.3213 Z-0.7937 F800
G1 X246.0220 Y195.3111 Z-0.7937 F800
G1 X246.1614 Y196.3047 Z-0.7937 F800
G1 X246.3374 Y197.2976 Z-0.7937 F800
G1 X246.5513 Y198.2853 Z-0.7937 F800
G1 X246.8045 Y199.2635 Z-0.7937 F800
G1 X247.0980 Y200.2278 Z-0.7937 F800
G1 X247.4329 Y201.1739 Z-0.7937 F800
G1 X247.8103 Y202.0978 Z-0.7937 F800
G1 X248.2310 Y202.9952 Z-0.7937 F800
G1 X248.6962 Y203.8625 Z-0.7937 F800
G1 X249.2066 Y204.6958 Z-0.7937 F800
G1 X249.7632 Y205.4918 Z-0.7937 F800
G1 X250.3672 Y206.2474 Z-0.7937 F800
G1 X251.0199 Y206.9594 Z-0.7937 F800
G1 X251.7230 Y207.6254 Z-0.7937 F800
G1 X252.4785 Y208.2426 Z-0.7937 F800
G1 X253.2888 Y208.8086 Z-0.7937 F800
G1 X254.1569 Y209.3206 Z-0.7937 F800
G1 X255.0861 Y209.7757 Z-0.7937 F800
G1 X256.0799 Y210.1705 Z-0.7937 F800
G1 X257.1419 Y210.5014 Z-0.7937 F800
G1 X258.2759 Y210.7641 Z-0.7937 F800
G1 X259.4851 Y210.9538 Z-0.7937 F800
G1 X260.7726 Y211.0658 Z-0.7937 F800
G1 X262.1413 Y211.0947 Z-0.7937 F800
G1 X263.5934 Y211.0355 Z-0.7937 F800
G1 X265.1360 Y210.8823 Z-0.7937 F800
G1 X266.6882 Y210.6521 Z-0.7937 F800
G1 X268.1587 Y210.3688 Z-0.7937 F800
G1 X269.5441 Y210.0363 Z-0.7937 F800
G1 X270.8469 Y209.6577 Z-0.7937 F800
G1 X272.0698 Y209.2359 Z-0.7937 F800
G1 X273.2155 Y208.7738 Z-0.7937 F800
G1 X274.2869 Y208.2741 Z-0.7937 F800
G1 X275.2868 Y207.7397 Z-0.7937 F800
G1 X276.2181 Y207.1730 Z-0.7937 F800
G1 X277.0840 Y206.5765 Z-0.7937 F800
G1 X277.8873 Y205.9524 Z-0.7937 F800
G1 X278.6310 Y205.3028 Z-0.7937 F800
G1 X279.3179 Y204.6297 Z-0.7937 F800
G1 X279.9507 Y203.9351 Z-0.7937 F800
G1 X280.5318 Y203.2207 Z-0.7937 F800
G1 X281.0638 Y202.4884 Z-0.7937 F800
G1 X281.5488 Y201.7401 Z-0.7937 F800
G1 X281.9889 Y200.9776 Z-0.7937 F800
G1 X282.3863 Y200.2031 Z-0.7937 F800
G1 X282.7427 Y199.4185 Z-0.7937 F800
G1 X283.0600 Y198.6262 Z-0.7937 F800
G1 X283.3401 Y197.8282 Z-0.7937 F800
G1 X283.5848 Y197.0271 Z-0.7937 F800
G1 X283.7958 Y196.2253 Z-0.7937 F800
G1 X283.9749 Y195.4252 Z-0.7937 F800
G1 X284.1240 Y194.6295 Z-0.7937 F800
G1 X284.2449 Y193.8409 Z-0.7937 F800
G1 X284.3396 Y193.0619 Z-0.7937 F800
G1 X284.4099 Y192.2952 Z-0.7937 F800
G1 X284.4577 Y191.5435 Z-0.7937 F800
G1 X284.4850 Y190.8097 Z-0.7937 F800
G1 X284.4938 Y190.0963 Z-0.7937 F800
G1 X284.4861 Y189.4061 Z-0.7937 F800
G1 X284.4640 Y188.7419 Z-0.7937 F800
G1 X284.4294 Y188.1063 Z-0.7937 F800
G1 X284.3845 Y187.5021 Z-0.7937 F800
G1 X284.3313 Y186.9321 Z-0.7937 F800
G1 X284.2720 Y186.3988 Z-0.7937 F800
G1 X284.2086 Y185.9051 Z-0.7937 F800
G1 X284.1432 Y185.4537 Z-0.7937 F800
G1 X284.0780 Y185.0472 Z-0.7937 F800
G1 X284.0467 Y184.8685 Z-0.7937 F800
G1 X283.6590 Y184.8643 Z-0.7937 F800
G1 X283.6560 Y184.8643 Z-0.7937 F800
G1 X283.1079 Y184.8573 Z-0.7937 F800
G1 X283.1053 Y184.8572 Z-0.7937 F800
G1 X282.5096 Y184.8486 Z-0.7937 F800
G1 X282.5072 Y184.8486 Z-0.7937 F800
G1 X281.8665 Y184.8383 Z-0.7937 F800
G1 X281.8643 Y184.8383 Z-0.7937 F800
G1 X281.1809 Y184.8264 Z-0.7937 F800
G1 X281.1789 Y184.8264 Z-0.7937 F800
G1 X280.4555 Y184.8129 Z-0.7937 F800
G1 X280.4535 Y184.8129 Z-0.7937 F800
G1 X279.6925 Y184.7977 Z-0.7937 F800
G1 X279.6905 Y184.7976 Z-0.7937 F800
G1 X278.8945 Y184.7808 Z-0.7937 F800
G1 X278.8926 Y184.7808 Z-0.7937 F800
G1 X278.0640 Y184.7622 Z-0.7937 F800
G1 X278.0621 Y184.7622 Z-0.7937 F800
G1 X277.2035 Y184.7419 Z-0.7937 F800
G1 X277.2015 Y184.7419 Z-0.7937 F800
G1 X276.3153 Y184.7199 Z-0.7937 F800
G1 X276.3134 Y184.7199 Z-0.7937 F800
G1 X275.4022 Y184.6961 Z-0.7937 F800
G1 X275.4002 Y184.6961 Z-0.7937 F800
G1 X274.4664 Y184.6706 Z-0.7937 F800
G1 X274.4644 Y184.6706 Z-0.7937 F800
G1 X273.5106 Y184.6433 Z-0.7937 F800
G1 X273.5085 Y184.6433 Z-0.7937 F800
G1 X272.5372 Y184.6142 Z-0.7937 F800
G1 X272.5350 Y184.6142 Z-0.7937 F800
G1 X271.5486 Y184.5833 Z-0.7937 F800
G1 X271.5464 Y184.5833 Z-0.7937 F800
G1 X270.5475 Y184.5506 Z-0.7937 F800
G1 X270.5451 Y184.5505 Z-0.7937 F800
G1 X269.5362 Y184.5161 Z-0.7937 F800
G1 X269.5337 Y184.5160 Z-0.7937 F800
G1 X268.5173 Y184.4797 Z-0.7937 F800
G1 X268.5147 Y184.4796 Z-0.7937 F800
G1 X267.4933 Y184.4414 Z-0.7937 F800
G1 X267.4905 Y184.4413 Z-0.7937 F800
G1 X266.4666 Y184.4012 Z-0.7937 F800
G1 X266.4637 Y184.4011 Z-0.7937 F800
G1 X265.4397 Y184.3591 Z-0.7937 F800
G1 X265.4366 Y184.3590 Z-0.7937 F800
G1 X264.4152 Y184.3151 Z-0.7937 F800
G1 X264.4119 Y184.3150 Z-0.7937 F800
G1 X263.3955 Y184.2692 Z-0.7937 F800
G1 X263.3919 Y184.2690 Z-0.7937 F800
G1 X262.3830 Y184.2213 Z-0.7937 F800
G1 X262.3791 Y184.2211 Z-0.7937 F800
G1 X261.3802 Y184.1714 Z-0.7937 F800
G1 X261.3761 Y184.1712 Z-0.7937 F800
G1 X260.3897 Y184.1195 Z-0.7937 F800
G1 X260.3852 Y184.1193 Z-0.7937 F800
G1 X259.4139 Y184.0656 Z-0.7937 F800
G1 X259.4090 Y184.0653 Z-0.7937 F800
G1 X258.4552 Y184.0097 Z-0.7937 F800
G1 X258.4498 Y184.0094 Z-0.7937 F800
G1 X257.5160 Y183.9517 Z-0.7937 F800
G1 X257.5101 Y183.9513 Z-0.7937 F800
G1 X256.5988 Y183.8916 Z-0.7937 F800
G1 X256.5923 Y183.8912 Z-0.7937 F800
G1 X255.7061 Y183.8294 Z-0.7937 F800
G1 X255.6988 Y183.8289 Z-0.7937 F800
G1 X254.8401 Y183.7651 Z-0.7937 F800
G1 X254.8320 Y183.7644 Z-0.7937 F800
G1 X254.0034 Y183.6985 Z-0.7937 F800
G1 X253.9941 Y183.6978 Z-0.7937 F800
G1 X253.1981 Y183.6298 Z-0.7937 F800
G1 X253.1876 Y183.6289 Z-0.7937 F800
G1 X252.4266 Y183.5588 Z-0.7937 F800
G1 X252.4145 Y183.5576 Z-0.7937 F800
G1 X251.6911 Y183.4854 Z-0.7937 F800
G1 X251.6771 Y183.4839 Z-0.7937 F800
G1 X250.9938 Y183.4095 Z-0.7937 F800
G1 X250.9773 Y183.4076 Z-0.7937 F800
G1 X250.3365 Y183.3311 Z-0.7937 F800
G1 X250.3168 Y183.3286 Z-0.7937 F800
G1 X249.7212 Y183.2499 Z-0.7937 F800
G1 X249.6973 Y183.2466 Z-0.7937 F800
G1 X249.1492 Y183.1657 Z-0.7937 F800
G1 X249.1197 Y183.1611 Z-0.7937 F800
G1 X248.6217 Y183.0780 Z-0.7937 F800
G1 X248.5844 Y183.0713 Z-0.7937 F800
G1 X248.1390 Y182.9860 Z-0.7937 F800
G1 X248.0902 Y182.9758 Z-0.7937 F800
G1 X247.6998 Y182.8883 Z-0.7937 F800
G1 X247.6336 Y182.8720 Z-0.7937 F800
G1 X247.6093 Y182.8654 Z-0.7937 F800
G0 Z5.000
G0 X248.2450 Y184.2994 Z5.0000
G1 Z-0.7937 F300
G1 X248.1935 Y184.4128 Z-0.7937 F800
G1 X248.0274 Y184.8493 Z-0.7937 F800
G1 X247.8616 Y185.3649 Z-0.7937 F800
G1 X247.7026 Y185.9504 Z-0.7937 F800
G1 X247.5550 Y186.5980 Z-0.7937 F800
G1 X247.4224 Y187.3006 Z-0.7937 F800
G1 X247.3077 Y188.0519 Z-0.7937 F800
G1 X247.2133 Y188.8460 Z-0.7937 F800
G1 X247.1414 Y189.6772 Z-0.7937 F800
G1 X247.0939 Y190.5403 Z-0.7937 F800
G1 X247.0728 Y191.4301 Z-0.7937 F800
G1 X247.0796 Y192.3415 Z-0.7937 F800
G1 X247.1159 Y193.2696 Z-0.7937 F800
G1 X247.1832 Y194.2095 Z-0.7937 F800
G1 X247.2828 Y195.1565 Z-0.7937 F800
G1 X247.4159 Y196.1056 Z-0.7937 F800
G1 X247.5837 Y197.0522 Z-0.7937 F800
G1 X247.7872 Y197.9917 Z-0.7937 F800
G1 X248.0272 Y198.9194 Z-0.7937 F800
G1 X248.3046 Y199.8308 Z-0.7937 F800
G1 X248.6200 Y200.7217 Z-0.7937 F800
G1 X248.9738 Y201.5878 Z-0.7937 F800
G1 X249.3664 Y202.4251 Z-0.7937 F800
G1 X249.7982 Y203.2302 Z-0.7937 F800
G1 X250.2694 Y203.9996 Z-0.7937 F800
G1 X250.7806 Y204.7306 Z-0.7937 F800
G1 X251.3324 Y205.4208 Z-0.7937 F800
G1 X251.9259 Y206.0682 Z-0.7937 F800
G1 X252.5626 Y206.6713 Z-0.7937 F800
G1 X253.2449 Y207.2288 Z-0.7937 F800
G1 X253.9760 Y207.7394 Z-0.7937 F800
G1 X254.7597 Y208.2017 Z-0.7937 F800
G1 X255.6007 Y208.6135 Z-0.7937 F800
G1 X256.5039 Y208.9724 Z-0.7937 F800
G1 X257.4746 Y209.2748 Z-0.7937 F800
G1 X258.5179 Y209.5165 Z-0.7937 F800
G1 X259.6387 Y209.6924 Z-0.7937 F800
G1 X260.8411 Y209.7969 Z-0.7937 F800
G1 X262.1288 Y209.8242 Z-0.7937 F800
G1 X263.5047 Y209.7680 Z-0.7937 F800
G1 X264.9800 Y209.6215 Z-0.7937 F800
G1 X266.4748 Y209.3998 Z-0.7937 F800
G1 X267.8902 Y209.1271 Z-0.7937 F800
G1 X269.2185 Y208.8084 Z-0.7937 F800
G1 X270.4624 Y208.4469 Z-0.7937 F800
G1 X271.6249 Y208.0459 Z-0.7937 F800
G1 X272.7093 Y207.6086 Z-0.7937 F800
G1 X273.7187 Y207.1378 Z-0.7937 F800
G1 X274.6569 Y206.6363 Z-0.7937 F800
G1 X275.5273 Y206.1068 Z-0.7937 F800
G1 X276.3336 Y205.5513 Z-0.7937 F800
G1 X277.0794 Y204.9719 Z-0.7937 F800
G1 X277.7682 Y204.3703 Z-0.7937 F800
G1 X278.4033 Y203.7479 Z-0.7937 F800
G1 X278.9879 Y203.1061 Z-0.7937 F800
G1 X279.5247 Y202.4462 Z-0.7937 F800
G1 X280.0164 Y201.7693 Z-0.7937 F800
G1 X280.4653 Y201.0768 Z-0.7937 F800
G1 X280.8733 Y200.3699 Z-0.7937 F800
G1 X281.2425 Y199.6503 Z-0.7937 F800
G1 X281.5745 Y198.9196 Z-0.7937 F800
G1 X281.8708 Y198.1795 Z-0.7937 F800
G1 X282.1331 Y197.4323 Z-0.7937 F800
G1 X282.3629 Y196.6799 Z-0.7937 F800
G1 X282.5616 Y195.9248 Z-0.7937 F800
G1 X282.7307 Y195.1694 Z-0.7937 F800
G1 X282.8719 Y194.4163 Z-0.7937 F800
G1 X282.9866 Y193.6680 Z-0.7937 F800
G1 X283.0766 Y192.9273 Z-0.7937 F800
G1 X283.1435 Y192.1969 Z-0.7937 F800
G1 X283.1892 Y191.4796 Z-0.7937 F800
G1 X283.2153 Y190.7782 Z-0.7937 F800
G1 X283.2237 Y190.0955 Z-0.7937 F800
G1 X283.2163 Y189.4343 Z-0.7937 F800
G1 X283.1951 Y188.7975 Z-0.7937 F800
G1 X283.1620 Y188.1878 Z-0.7937 F800
G1 X283.1189 Y187.6082 Z-0.7937 F800
G1 X283.0679 Y187.0613 Z-0.7937 F800
G1 X283.0110 Y186.5500 Z-0.7937 F800
G1 X282.9564 Y186.1252 Z-0.7937 F800
G1 X282.4913 Y186.1185 Z-0.7937 F800
G1 X282.4870 Y186.1184 Z-0.7937 F800
G1 X281.8462 Y186.1082 Z-0.7937 F800
G1 X281.8422 Y186.1081 Z-0.7937 F800
G1 X281.1589 Y186.0962 Z-0.7937 F800
G1 X281.1551 Y186.0962 Z-0.7937 F800
G1 X280.4317 Y186.0827 Z-0.7937 F800
G1 X280.4281 Y186.0826 Z-0.7937 F800
G1 X279.6672 Y186.0674 Z-0.7937 F800
G1 X279.6637 Y186.0674 Z-0.7937 F800
G1 X278.8676 Y186.0505 Z-0.7937 F800
G1 X278.8642 Y186.0504 Z-0.7937 F800
G1 X278.0356 Y186.0319 Z-0.7937 F800
G1 X278.0321 Y186.0318 Z-0.7937 F800
G1 X277.1735 Y186.0116 Z-0.7937 F800
G1 X277.1701 Y186.0115 Z-0.7937 F800
G1 X276.2839 Y185.9895 Z-0.7937 F800
G1 X276.2804 Y185.9894 Z-0.7937 F800
G1 X275.3691 Y185.9657 Z-0.7937 F800
G1 X275.3656 Y185.9656 Z-0.7937 F800
G1 X274.4318 Y185.9401 Z-0.7937 F800
G1 X274.4281 Y185.9400 Z-0.7937 F800
G1 X273.4743 Y185.9128 Z-0.7937 F800
G1 X273.4706 Y185.9127 Z-0.7937 F800
G1 X272.4992 Y185.8837 Z-0.7937 F800
G1 X272.4953 Y185.8835 Z-0.7937 F800
G1 X271.5089 Y185.8527 Z-0.7937 F800
G1 X271.5049 Y185.8526 Z-0.7937 F800
G1 X270.5060 Y185.8199 Z-0.7937 F800
G1 X270.5017 Y185.8198 Z-0.7937 F800
G1 X269.4928 Y185.7853 Z-0.7937 F800
G1 X269.4884 Y185.7852 Z-0.7937 F800
G1 X268.4720 Y185.7488 Z-0.7937 F800
G1 X268.4673 Y185.7487 Z-0.7937 F800
G1 X267.4458 Y185.7105 Z-0.7937 F800
G1 X267.4409 Y185.7103 Z-0.7937 F800
G1 X266.4169 Y185.6702 Z-0.7937 F800
G1 X266.4117 Y185.6700 Z-0.7937 F800
G1 X265.3877 Y185.6281 Z-0.7937 F800
G1 X265.3821 Y185.6278 Z-0.7937 F800
G1 X264.3607 Y185.5839 Z-0.7937 F800
G1 X264.3547 Y185.5837 Z-0.7937 F800
G1 X263.3383 Y185.5379 Z-0.7937 F800
G1 X263.3319 Y185.5376 Z-0.7937 F800
G1 X262.3230 Y185.4899 Z-0.7937 F800
G1 X262.3160 Y185.4895 Z-0.7937 F800
G1 X261.3171 Y185.4398 Z-0.7937 F800
G1 X261.3097 Y185.4394 Z-0.7937 F800
G1 X260.3233 Y185.3878 Z-0.7937 F800
G1 X260.3152 Y185.3873 Z-0.7937 F800
G1 X259.3438 Y185.3337 Z-0.7937 F800
G1 X259.3350 Y185.3332 Z-0.7937 F800
G1 X258.3812 Y185.2775 Z-0.7937 F800
G1 X258.3715 Y185.2770 Z-0.7937 F800
G1 X257.4377 Y185.2193 Z-0.7937 F800
G1 X257.4270 Y185.2186 Z-0.7937 F800
G1 X256.5158 Y185.1589 Z-0.7937 F800
G1 X256.5040 Y185.1581 Z-0.7937 F800
G1 X255.6178 Y185.0963 Z-0.7937 F800
G1 X255.6047 Y185.0954 Z-0.7937 F800
G1 X254.7460 Y185.0316 Z-0.7937 F800
G1 X254.7313 Y185.0304 Z-0.7937 F800
G1 X253.9027 Y184.9645 Z-0.7937 F800
G1 X253.8860 Y184.9632 Z-0.7937 F800
G1 X253.0900 Y184.8952 Z-0.7937 F800
G1 X253.0711 Y184.8935 Z-0.7937 F800
G1 X252.3101 Y184.8234 Z-0.7937 F800
G1 X252.2883 Y184.8213 Z-0.7937 F800
G1 X251.5649 Y184.7491 Z-0.7937 F800
G1 X251.5397 Y184.7464 Z-0.7937 F800
G1 X250.8563 Y184.6721 Z-0.7937 F800
G1 X250.8266 Y184.6687 Z-0.7937 F800
G1 X250.1859 Y184.5922 Z-0.7937 F800
G1 X250.1505 Y184.5877 Z-0.7937 F800
G1 X249.5548 Y184.5090 Z-0.7937 F800
G1 X249.5119 Y184.5030 Z-0.7937 F800
G1 X248.9638 Y184.4221 Z-0.7937 F800
G1 X248.9107 Y184.4138 Z-0.7937 F800
G1 X248.4127 Y184.3307 Z-0.7937 F800
G1 X248.3455 Y184.3186 Z-0.7937 F800
G1 X248.2450 Y184.2994 Z-0.7937 F800
G0 Z5.000
G0 X249.0805 Y185.7231 Z5.0000
G1 Z-0.7937 F300
G1 X249.0796 Y185.7258 Z-0.7937 F800
G1 X248.9351 Y186.2580 Z-0.7937 F800
G1 X248.7986 Y186.8570 Z-0.7937 F800
G1 X248.6745 Y187.5144 Z-0.7937 F800
G1 X248.5663 Y188.2228 Z-0.7937 F800
G1 X248.4768 Y188.9757 Z-0.7937 F800
G1 X248.4084 Y189.7668 Z-0.7937 F800
G1 X248.3631 Y190.5902 Z-0.7937 F800
G1 X248.3429 Y191.4404 Z-0.7937 F800
G1 X248.3494 Y192.3119 Z-0.7937 F800
G1 X248.3841 Y193.1995 Z-0.7937 F800
G1 X248.4484 Y194.0978 Z-0.7937 F800
G1 X248.5435 Y195.0018 Z-0.7937 F800
G1 X248.6704 Y195.9065 Z-0.7937 F800
G1 X248.8300 Y196.8069 Z-0.7937 F800
G1 X249.0230 Y197.6980 Z-0.7937 F800
G1 X249.2500 Y198.5752 Z-0.7937 F800
G1 X249.5113 Y199.4338 Z-0.7937 F800
G1 X249.8071 Y200.2694 Z-0.7937 F800
G1 X250.1373 Y201.0777 Z-0.7937 F800
G1 X250.5018 Y201.8550 Z-0.7937 F800
G1 X250.9002 Y202.5979 Z-0.7937 F800
G1 X251.3323 Y203.3034 Z-0.7937 F800
G1 X251.7980 Y203.9694 Z-0.7937 F800
G1 X252.2976 Y204.5943 Z-0.7937 F800
G1 X252.8318 Y205.1770 Z-0.7937 F800
G1 X253.4022 Y205.7173 Z-0.7937 F800
G1 X254.0114 Y206.2151 Z-0.7937 F800
G1 X254.6632 Y206.6703 Z-0.7937 F800
G1 X255.3625 Y207.0828 Z-0.7937 F800
G1 X256.1152 Y207.4514 Z-0.7937 F800
G1 X256.9278 Y207.7743 Z-0.7937 F800
G1 X257.8072 Y208.0483 Z-0.7937 F800
G1 X258.7600 Y208.2689 Z-0.7937 F800
G1 X259.7923 Y208.4310 Z-0.7937 F800
G1 X260.9096 Y208.5281 Z-0.7937 F800
G1 X262.1163 Y208.5536 Z-0.7937 F800
G1 X263.4160 Y208.5006 Z-0.7937 F800
G1 X264.8240 Y208.3608 Z-0.7937 F800
G1 X266.2614 Y208.1476 Z-0.7937 F800
G1 X267.6218 Y207.8855 Z-0.7937 F800
G1 X268.8929 Y207.5805 Z-0.7937 F800
G1 X270.0779 Y207.2361 Z-0.7937 F800
G1 X271.1800 Y206.8559 Z-0.7937 F800
G1 X272.2030 Y206.4433 Z-0.7937 F800
G1 X273.1506 Y206.0014 Z-0.7937 F800
G1 X274.0270 Y205.5330 Z-0.7937 F800
G1 X274.8364 Y205.0405 Z-0.7937 F800
G1 X275.5831 Y204.5261 Z-0.7937 F800
G1 X276.2714 Y203.9914 Z-0.7937 F800
G1 X276.9053 Y203.4377 Z-0.7937 F800
G1 X277.4887 Y202.8660 Z-0.7937 F800
G1 X278.0251 Y202.2771 Z-0.7937 F800
G1 X278.5176 Y201.6717 Z-0.7937 F800
G1 X278.9690 Y201.0502 Z-0.7937 F800
G1 X279.3817 Y200.4135 Z-0.7937 F800
G1 X279.7577 Y199.7622 Z-0.7937 F800
G1 X280.0987 Y199.0975 Z-0.7937 F800
G1 X280.4062 Y198.4206 Z-0.7937 F800
G1 X280.6816 Y197.7329 Z-0.7937 F800
G1 X280.9262 Y197.0363 Z-0.7937 F800
G1 X281.1410 Y196.3327 Z-0.7937 F800
G1 X281.3274 Y195.6244 Z-0.7937 F800
G1 X281.4865 Y194.9136 Z-0.7937 F800
G1 X281.6197 Y194.2030 Z-0.7937 F800
G1 X281.7283 Y193.4951 Z-0.7937 F800
G1 X281.8136 Y192.7927 Z-0.7937 F800
G1 X281.8772 Y192.0986 Z-0.7937 F800
G1 X281.9207 Y191.4157 Z-0.7937 F800
G1 X281.9456 Y190.7467 Z-0.7937 F800
G1 X281.9536 Y190.0947 Z-0.7937 F800
G1 X281.9466 Y189.4625 Z-0.7937 F800
G1 X281.9263 Y188.8531 Z-0.7937 F800
G1 X281.8945 Y188.2694 Z-0.7937 F800
G1 X281.8533 Y187.7142 Z-0.7937 F800
G1 X281.8219 Y187.3779 Z-0.7937 F800
G1 X281.8202 Y187.3779 Z-0.7937 F800
G1 X281.1369 Y187.3661 Z-0.7937 F800
G1 X281.1314 Y187.3660 Z-0.7937 F800
G1 X280.4080 Y187.3525 Z-0.7937 F800
G1 X280.4028 Y187.3524 Z-0.7937 F800
G1 X279.6419 Y187.3372 Z-0.7937 F800
G1 X279.6368 Y187.3371 Z-0.7937 F800
G1 X278.8408 Y187.3202 Z-0.7937 F800
G1 X278.8358 Y187.3201 Z-0.7937 F800
G1 X278.0072 Y187.3016 Z-0.7937 F800
G1 X278.0022 Y187.3015 Z-0.7937 F800
G1 X277.1436 Y187.2812 Z-0.7937 F800
G1 X277.1386 Y187.2811 Z-0.7937 F800
G1 X276.2524 Y187.2591 Z-0.7937 F800
G1 X276.2473 Y187.2590 Z-0.7937 F800
G1 X275.3361 Y187.2353 Z-0.7937 F800
G1 X275.3309 Y187.2351 Z-0.7937 F800
G1 X274.3972 Y187.2097 Z-0.7937 F800
G1 X274.3919 Y187.2095 Z-0.7937 F800
G1 X273.4381 Y187.1823 Z-0.7937 F800
G1 X273.4326 Y187.1821 Z-0.7937 F800
G1 X272.4613 Y187.1531 Z-0.7937 F800
G1 X272.4556 Y187.1529 Z-0.7937 F800
G1 X271.4693 Y187.1221 Z-0.7937 F800
G1 X271.4634 Y187.1219 Z-0.7937 F800
G1 X270.4645 Y187.0893 Z-0.7937 F800
G1 X270.4584 Y187.0891 Z-0.7937 F800
G1 X269.4495 Y187.0546 Z-0.7937 F800
G1 X269.4430 Y187.0544 Z-0.7937 F800
G1 X268.4266 Y187.0180 Z-0.7937 F800
G1 X268.4198 Y187.0178 Z-0.7937 F800
G1 X267.3984 Y186.9796 Z-0.7937 F800
G1 X267.3912 Y186.9793 Z-0.7937 F800
G1 X266.3673 Y186.9393 Z-0.7937 F800
G1 X266.3597 Y186.9389 Z-0.7937 F800
G1 X265.3357 Y186.8970 Z-0.7937 F800
G1 X265.3276 Y186.8966 Z-0.7937 F800
G1 X264.3062 Y186.8528 Z-0.7937 F800
G1 X264.2975 Y186.8524 Z-0.7937 F800
G1 X263.2811 Y186.8066 Z-0.7937 F800
G1 X263.2718 Y186.8062 Z-0.7937 F800
G1 X262.2629 Y186.7584 Z-0.7937 F800
G1 X262.2529 Y186.7579 Z-0.7937 F800
G1 X261.2540 Y186.7083 Z-0.7937 F800
G1 X261.2432 Y186.7077 Z-0.7937 F800
G1 X260.2569 Y186.6560 Z-0.7937 F800
G1 X260.2451 Y186.6554 Z-0.7937 F800
G1 X259.2738 Y186.6018 Z-0.7937 F800
G1 X259.2610 Y186.6010 Z-0.7937 F800
G1 X258.3072 Y186.5454 Z-0.7937 F800
G1 X258.2932 Y186.5445 Z-0.7937 F800
G1 X257.3594 Y186.4869 Z-0.7937 F800
G1 X257.3440 Y186.4859 Z-0.7937 F800
G1 X256.4328 Y186.4262 Z-0.7937 F800
G1 X256.4157 Y186.4250 Z-0.7937 F800
G1 X255.5295 Y186.3633 Z-0.7937 F800
G1 X255.5105 Y186.3619 Z-0.7937 F800
G1 X254.6519 Y186.2981 Z-0.7937 F800
G1 X254.6306 Y186.2964 Z-0.7937 F800
G1 X253.8020 Y186.2305 Z-0.7937 F800
G1 X253.7780 Y186.2286 Z-0.7937 F800
G1 X252.9819 Y186.1606 Z-0.7937 F800
G1 X252.9546 Y186.1581 Z-0.7937 F800
G1 X252.1936 Y186.0880 Z-0.7937 F800
G1 X252.1622 Y186.0850 Z-0.7937 F800
G1 X251.4388 Y186.0128 Z-0.7937 F800
G1 X251.4023 Y186.0090 Z-0.7937 F800
G1 X250.7189 Y185.9346 Z-0.7937 F800
G1 X250.6760 Y185.9297 Z-0.7937 F800
G1 X250.0353 Y185.8532 Z-0.7937 F800
G1 X249.9841 Y185.8468 Z-0.7937 F800
G1 X249.3885 Y185.7681 Z-0.7937 F800
G1 X249.3265 Y185.7594 Z-0.7937 F800
G1 X249.0805 Y185.7231 Z-0.7937 F800
G0 Z5.000
G0 X250.0390 Y187.1327 Z5.0000
G1 Z-0.7937 F300
G1 X249.9266 Y187.7281 Z-0.7937 F800
G1 X249.8249 Y188.3937 Z-0.7937 F800
G1 X249.7403 Y189.1054 Z-0.7937 F800
G1 X249.6754 Y189.8564 Z-0.7937 F800
G1 X249.6323 Y190.6402 Z-0.7937 F800
G1 X249.6130 Y191.4508 Z-0.7937 F800
G1 X249.6192 Y192.2824 Z-0.7937 F800
G1 X249.6524 Y193.1293 Z-0.7937 F800
G1 X249.7137 Y193.9860 Z-0.7937 F800
G1 X249.8042 Y194.8471 Z-0.7937 F800
G1 X249.9249 Y195.7074 Z-0.7937 F800
G1 X250.0763 Y196.5615 Z-0.7937 F800
G1 X250.2589 Y197.4044 Z-0.7937 F800
G1 X250.4728 Y198.2311 Z-0.7937 F800
G1 X250.7180 Y199.0368 Z-0.7937 F800
G1 X250.9942 Y199.8171 Z-0.7937 F800
G1 X251.3008 Y200.5677 Z-0.7937 F800
G1 X251.6371 Y201.2849 Z-0.7937 F800
G1 X252.0022 Y201.9656 Z-0.7937 F800
G1 X252.3952 Y202.6072 Z-0.7937 F800
G1 X252.8154 Y203.2082 Z-0.7937 F800
G1 X253.2628 Y203.7677 Z-0.7937 F800
G1 X253.7377 Y204.2858 Z-0.7937 F800
G1 X254.2417 Y204.7633 Z-0.7937 F800
G1 X254.7778 Y205.2013 Z-0.7937 F800
G1 X255.3504 Y205.6012 Z-0.7937 F800
G1 X255.9653 Y205.9639 Z-0.7937 F800
G1 X256.6298 Y206.2893 Z-0.7937 F800
G1 X257.3518 Y206.5762 Z-0.7937 F800
G1 X258.1398 Y206.8217 Z-0.7937 F800
G1 X259.0020 Y207.0214 Z-0.7937 F800
G1 X259.9459 Y207.1695 Z-0.7937 F800
G1 X260.9781 Y207.2593 Z-0.7937 F800
G1 X262.1039 Y207.2831 Z-0.7937 F800
G1 X263.3273 Y207.2332 Z-0.7937 F800
G1 X264.6680 Y207.1000 Z-0.7937 F800
G1 X266.0481 Y206.8953 Z-0.7937 F800
G1 X267.3534 Y206.6439 Z-0.7937 F800
G1 X268.5674 Y206.3525 Z-0.7937 F800
G1 X269.6934 Y206.0253 Z-0.7937 F800
G1 X270.7352 Y205.6660 Z-0.7937 F800
G1 X271.6967 Y205.2781 Z-0.7937 F800
G1 X272.5825 Y204.8650 Z-0.7937 F800
G1 X273.3971 Y204.4296 Z-0.7937 F800
G1 X274.1456 Y203.9743 Z-0.7937 F800
G1 X274.8327 Y203.5009 Z-0.7937 F800
G1 X275.4634 Y203.0109 Z-0.7937 F800
G1 X276.0424 Y202.5051 Z-0.7937 F800
G1 X276.5741 Y201.9842 Z-0.7937 F800
G1 X277.0623 Y201.4482 Z-0.7937 F800
G1 X277.5105 Y200.8972 Z-0.7937 F800
G1 X277.9217 Y200.3312 Z-0.7937 F800
G1 X278.2982 Y199.7502 Z-0.7937 F800
G1 X278.6421 Y199.1545 Z-0.7937 F800
G1 X278.9549 Y198.5447 Z-0.7937 F800
G1 X279.2380 Y197.9216 Z-0.7937 F800
G1 X279.4924 Y197.2863 Z-0.7937 F800
G1 X279.7192 Y196.6404 Z-0.7937 F800
G1 X279.9191 Y195.9856 Z-0.7937 F800
G1 X280.0932 Y195.3239 Z-0.7937 F800
G1 X280.2424 Y194.6578 Z-0.7937 F800
G1 X280.3676 Y193.9897 Z-0.7937 F800
G1 X280.4699 Y193.3222 Z-0.7937 F800
G1 X280.5506 Y192.6582 Z-0.7937 F800
G1 X280.6109 Y192.0003 Z-0.7937 F800
G1 X280.6522 Y191.3517 Z-0.7937 F800
G1 X280.6759 Y190.7153 Z-0.7937 F800
G1 X280.6835 Y190.0939 Z-0.7937 F800
G1 X280.6768 Y189.4908 Z-0.7937 F800
G1 X280.6574 Y188.9088 Z-0.7937 F800
G1 X280.6421 Y188.6270 Z-0.7937 F800
G1 X280.3843 Y188.6222 Z-0.7937 F800
G1 X280.3775 Y188.6221 Z-0.7937 F800
G1 X279.6166 Y188.6069 Z-0.7937 F800
G1 X279.6099 Y188.6068 Z-0.7937 F800
G1 X278.8139 Y188.5899 Z-0.7937 F800
G1 X278.8074 Y188.5898 Z-0.7937 F800
G1 X277.9788 Y188.5713 Z-0.7937 F800
G1 X277.9723 Y188.5711 Z-0.7937 F800
G1 X277.1136 Y188.5509 Z-0.7937 F800
G1 X277.1071 Y188.5507 Z-0.7937 F800
G1 X276.2209 Y188.5287 Z-0.7937 F800
G1 X276.2143 Y188.5286 Z-0.7937 F800
G1 X275.3031 Y188.5048 Z-0.7937 F800
G1 X275.2963 Y188.5047 Z-0.7937 F800
G1 X274.3625 Y188.4792 Z-0.7937 F800
G1 X274.3556 Y188.4790 Z-0.7937 F800
G1 X273.4018 Y188.4518 Z-0.7937 F800
G1 X273.3947 Y188.4516 Z-0.7937 F800
G1 X272.4233 Y188.4225 Z-0.7937 F800
G1 X272.4160 Y188.4223 Z-0.7937 F800
G1 X271.4296 Y188.3915 Z-0.7937 F800
G1 X271.4219 Y188.3912 Z-0.7937 F800
G1 X270.4230 Y188.3586 Z-0.7937 F800
G1 X270.4150 Y188.3583 Z-0.7937 F800
G1 X269.4061 Y188.3238 Z-0.7937 F800
G1 X269.3977 Y188.3235 Z-0.7937 F800
G1 X268.3812 Y188.2872 Z-0.7937 F800
G1 X268.3724 Y188.2869 Z-0.7937 F800
G1 X267.3509 Y188.2487 Z-0.7937 F800
G1 X267.3415 Y188.2483 Z-0.7937 F800
G1 X266.3176 Y188.2083 Z-0.7937 F800
G1 X266.3077 Y188.2079 Z-0.7937 F800
G1 X265.2837 Y188.1659 Z-0.7937 F800
G1 X265.2731 Y188.1655 Z-0.7937 F800
G1 X264.2517 Y188.1216 Z-0.7937 F800
G1 X264.2404 Y188.1211 Z-0.7937 F800
G1 X263.2240 Y188.0753 Z-0.7937 F800
G1 X263.2118 Y188.0748 Z-0.7937 F800
G1 X262.2029 Y188.0270 Z-0.7937 F800
G1 X262.1898 Y188.0264 Z-0.7937 F800
G1 X261.1909 Y187.9767 Z-0.7937 F800
G1 X261.1768 Y187.9760 Z-0.7937 F800
G1 X260.1904 Y187.9243 Z-0.7937 F800
G1 X260.1751 Y187.9235 Z-0.7937 F800
G1 X259.2038 Y187.8698 Z-0.7937 F800
G1 X259.1870 Y187.8689 Z-0.7937 F800
G1 X258.2332 Y187.8132 Z-0.7937 F800
G1 X258.2149 Y187.8121 Z-0.7937 F800
G1 X257.2811 Y187.7544 Z-0.7937 F800
G1 X257.2610 Y187.7532 Z-0.7937 F800
G1 X256.3497 Y187.6935 Z-0.7937 F800
G1 X256.3274 Y187.6920 Z-0.7937 F800
G1 X255.4412 Y187.6302 Z-0.7937 F800
G1 X255.4164 Y187.6284 Z-0.7937 F800
G1 X254.5578 Y187.5646 Z-0.7937 F800
G1 X254.5299 Y187.5624 Z-0.7937 F800
G1 X253.7013 Y187.4966 Z-0.7937 F800
G1 X253.6699 Y187.4940 Z-0.7937 F800
G1 X252.8739 Y187.4260 Z-0.7937 F800
G1 X252.8381 Y187.4228 Z-0.7937 F800
G1 X252.0771 Y187.3527 Z-0.7937 F800
G1 X252.0360 Y187.3487 Z-0.7937 F800
G1 X251.3126 Y187.2765 Z-0.7937 F800
G1 X251.2649 Y187.2715 Z-0.7937 F800
G1 X250.5815 Y187.1972 Z-0.7937 F800
G1 X250.5254 Y187.1908 Z-0.7937 F800
G1 X250.0390 Y187.1327 Z-0.7937 F800
G0 Z5.000
G0 X251.0889 Y188.5299 Z5.0000
G1 Z-0.7937 F300
G1 X251.0836 Y188.5646 Z-0.7937 F800
G1 X251.0038 Y189.2351 Z-0.7937 F800
G1 X250.9424 Y189.9460 Z-0.7937 F800
G1 X250.9015 Y190.6901 Z-0.7937 F800
G1 X250.8831 Y191.4611 Z-0.7937 F800
G1 X250.8891 Y192.2528 Z-0.7937 F800
G1 X250.9206 Y193.0591 Z-0.7937 F800
G1 X250.9789 Y193.8742 Z-0.7937 F800
G1 X251.0650 Y194.6925 Z-0.7937 F800
G1 X251.1794 Y195.5083 Z-0.7937 F800
G1 X251.3226 Y196.3161 Z-0.7937 F800
G1 X251.4947 Y197.1108 Z-0.7937 F800
G1 X251.6956 Y197.8870 Z-0.7937 F800
G1 X251.9247 Y198.6399 Z-0.7937 F800
G1 X252.1814 Y199.3648 Z-0.7937 F800
G1 X252.4644 Y200.0577 Z-0.7937 F800
G1 X252.7725 Y200.7148 Z-0.7937 F800
G1 X253.1042 Y201.3333 Z-0.7937 F800
G1 X253.4580 Y201.9110 Z-0.7937 F800
G1 X253.8328 Y202.4470 Z-0.7937 F800
G1 X254.2279 Y202.9412 Z-0.7937 F800
G1 X254.6436 Y203.3946 Z-0.7937 F800
G1 X255.0813 Y203.8092 Z-0.7937 F800
G1 X255.5443 Y204.1875 Z-0.7937 F800
G1 X256.0376 Y204.5321 Z-0.7937 F800
G1 X256.5682 Y204.8450 Z-0.7937 F800
G1 X257.1444 Y205.1272 Z-0.7937 F800
G1 X257.7758 Y205.3781 Z-0.7937 F800
G1 X258.4724 Y205.5951 Z-0.7937 F800
G1 X259.2440 Y205.7738 Z-0.7937 F800
G1 X260.0996 Y205.9081 Z-0.7937 F800
G1 X261.0466 Y205.9904 Z-0.7937 F800
G1 X262.0914 Y206.0125 Z-0.7937 F800
G1 X263.2385 Y205.9657 Z-0.7937 F800
G1 X264.5120 Y205.8393 Z-0.7937 F800
G1 X265.8347 Y205.6431 Z-0.7937 F800
G1 X267.0850 Y205.4022 Z-0.7937 F800
G1 X268.2418 Y205.1246 Z-0.7937 F800
G1 X269.3089 Y204.8145 Z-0.7937 F800
G1 X270.2903 Y204.4760 Z-0.7937 F800
G1 X271.1904 Y204.1129 Z-0.7937 F800
G1 X272.0143 Y203.7287 Z-0.7937 F800
G1 X272.7673 Y203.3263 Z-0.7937 F800
G1 X273.4547 Y202.9080 Z-0.7937 F800
G1 X274.0822 Y202.4757 Z-0.7937 F800
G1 X274.6554 Y202.0304 Z-0.7937 F800
G1 X275.1795 Y201.5726 Z-0.7937 F800
G1 X275.6594 Y201.1023 Z-0.7937 F800
G1 X276.0995 Y200.6192 Z-0.7937 F800
G1 X276.5034 Y200.1227 Z-0.7937 F800
G1 X276.8743 Y199.6121 Z-0.7937 F800
G1 X277.2147 Y199.0869 Z-0.7937 F800
G1 X277.5265 Y198.5468 Z-0.7937 F800
G1 X277.8111 Y197.9919 Z-0.7937 F800
G1 X278.0698 Y197.4226 Z-0.7937 F800
G1 X278.3032 Y196.8397 Z-0.7937 F800
G1 X278.5122 Y196.2444 Z-0.7937 F800
G1 X278.6973 Y195.6384 Z-0.7937 F800
G1 X278.8590 Y195.0235 Z-0.7937 F800
G1 X278.9982 Y194.4020 Z-0.7937 F800
G1 X279.1154 Y193.7764 Z-0.7937 F800
G1 X279.2116 Y193.1493 Z-0.7937 F800
G1 X279.2876 Y192.5236 Z-0.7937 F800
G1 X279.3446 Y191.9021 Z-0.7937 F800
G1 X279.3837 Y191.2878 Z-0.7937 F800
G1 X279.4061 Y190.6838 Z-0.7937 F800
G1 X279.4134 Y190.0932 Z-0.7937 F800
G1 X279.4110 Y189.8729 Z-0.7937 F800
G1 X278.7870 Y189.8597 Z-0.7937 F800
G1 X278.7789 Y189.8595 Z-0.7937 F800
G1 X277.9504 Y189.8409 Z-0.7937 F800
G1 X277.9423 Y189.8408 Z-0.7937 F800
G1 X277.0837 Y189.8205 Z-0.7937 F800
G1 X277.0756 Y189.8203 Z-0.7937 F800
G1 X276.1894 Y189.7983 Z-0.7937 F800
G1 X276.1812 Y189.7981 Z-0.7937 F800
G1 X275.2700 Y189.7744 Z-0.7937 F800
G1 X275.2617 Y189.7742 Z-0.7937 F800
G1 X274.3279 Y189.7487 Z-0.7937 F800
G1 X274.3194 Y189.7485 Z-0.7937 F800
G1 X273.3656 Y189.7212 Z-0.7937 F800
G1 X273.3567 Y189.7210 Z-0.7937 F800
G1 X272.3854 Y189.6920 Z-0.7937 F800
G1 X272.3763 Y189.6917 Z-0.7937 F800
G1 X271.3899 Y189.6609 Z-0.7937 F800
G1 X271.3804 Y189.6606 Z-0.7937 F800
G1 X270.3815 Y189.6279 Z-0.7937 F800
G1 X270.3716 Y189.6276 Z-0.7937 F800
G1 X269.3627 Y189.5931 Z-0.7937 F800
G1 X269.3523 Y189.5927 Z-0.7937 F800
G1 X268.3359 Y189.5564 Z-0.7937 F800
G1 X268.3249 Y189.5560 Z-0.7937 F800
G1 X267.3035 Y189.5178 Z-0.7937 F800
G1 X267.2919 Y189.5174 Z-0.7937 F800
G1 X266.2680 Y189.4773 Z-0.7937 F800
G1 X266.2557 Y189.4768 Z-0.7937 F800
G1 X265.2317 Y189.4349 Z-0.7937 F800
G1 X265.2186 Y189.4343 Z-0.7937 F800
G1 X264.1972 Y189.3904 Z-0.7937 F800
G1 X264.1832 Y189.3898 Z-0.7937 F800
G1 X263.1668 Y189.3440 Z-0.7937 F800
G1 X263.1518 Y189.3433 Z-0.7937 F800
G1 X262.1429 Y189.2956 Z-0.7937 F800
G1 X262.1267 Y189.2948 Z-0.7937 F800
G1 X261.1278 Y189.2451 Z-0.7937 F800
G1 X261.1104 Y189.2442 Z-0.7937 F800
G1 X260.1240 Y189.1926 Z-0.7937 F800
G1 X260.1051 Y189.1915 Z-0.7937 F800
G1 X259.1337 Y189.1379 Z-0.7937 F800
G1 X259.1131 Y189.1367 Z-0.7937 F800
G1 X258.1592 Y189.0811 Z-0.7937 F800
G1 X258.1366 Y189.0797 Z-0.7937 F800
G1 X257.2028 Y189.0220 Z-0.7937 F800
G1 X257.1779 Y189.0204 Z-0.7937 F800
G1 X256.2667 Y188.9607 Z-0.7937 F800
G1 X256.2391 Y188.9589 Z-0.7937 F800
G1 X255.3530 Y188.8971 Z-0.7937 F800
G1 X255.3223 Y188.8949 Z-0.7937 F800
G1 X254.4636 Y188.8311 Z-0.7937 F800
G1 X254.4292 Y188.8285 Z-0.7937 F800
G1 X253.6006 Y188.7626 Z-0.7937 F800
G1 X253.5618 Y188.7594 Z-0.7937 F800
G1 X252.7658 Y188.6914 Z-0.7937 F800
G1 X252.7216 Y188.6874 Z-0.7937 F800
G1 X251.9606 Y188.6173 Z-0.7937 F800
G1 X251.9098 Y188.6125 Z-0.7937 F800
G1 X251.1864 Y188.5402 Z-0.7937 F800
G1 X251.1274 Y188.5341 Z-0.7937 F800
G1 X251.0889 Y188.5299 Z-0.7937 F800
G0 Z5.000
G0 X252.2196 Y189.9166 Z5.0000
G1 Z-0.7937 F300
G1 X252.2093 Y190.0355 Z-0.7937 F800
G1 X252.1706 Y190.7401 Z-0.7937 F800
G1 X252.1533 Y191.4715 Z-0.7937 F800
G1 X252.1589 Y192.2232 Z-0.7937 F800
G1 X252.1888 Y192.9889 Z-0.7937 F800
G1 X252.2442 Y193.7625 Z-0.7937 F800
G1 X252.3257 Y194.5378 Z-0.7937 F800
G1 X252.4339 Y195.3092 Z-0.7937 F800
G1 X252.5689 Y196.0708 Z-0.7937 F800
G1 X252.7306 Y196.8171 Z-0.7937 F800
G1 X252.9184 Y197.5428 Z-0.7937 F800
G1 X253.1314 Y198.2429 Z-0.7937 F800
G1 X253.3685 Y198.9125 Z-0.7937 F800
G1 X253.6279 Y199.5476 Z-0.7937 F800
G1 X253.9078 Y200.1447 Z-0.7937 F800
G1 X254.2062 Y200.7010 Z-0.7937 F800
G1 X254.5209 Y201.2148 Z-0.7937 F800
G1 X254.8503 Y201.6858 Z-0.7937 F800
G1 X255.1931 Y202.1146 Z-0.7937 F800
G1 X255.5495 Y202.5034 Z-0.7937 F800
G1 X255.9208 Y202.8552 Z-0.7937 F800
G1 X256.3107 Y203.1737 Z-0.7937 F800
G1 X256.7248 Y203.4629 Z-0.7937 F800
G1 X257.1710 Y203.7261 Z-0.7937 F800
G1 X257.6589 Y203.9651 Z-0.7937 F800
G1 X258.1997 Y204.1799 Z-0.7937 F800
G1 X258.8050 Y204.3685 Z-0.7937 F800
G1 X259.4861 Y204.5263 Z-0.7937 F800
G1 X260.2532 Y204.6467 Z-0.7937 F800
G1 X261.1152 Y204.7216 Z-0.7937 F800
G1 X262.0789 Y204.7420 Z-0.7937 F800
G1 X263.1498 Y204.6983 Z-0.7937 F800
G1 X264.3560 Y204.5785 Z-0.7937 F800
G1 X265.6213 Y204.3908 Z-0.7937 F800
G1 X266.8165 Y204.1606 Z-0.7937 F800
G1 X267.9163 Y203.8967 Z-0.7937 F800
G1 X268.9244 Y203.6037 Z-0.7937 F800
G1 X269.8454 Y203.2860 Z-0.7937 F800
G1 X270.6842 Y202.9477 Z-0.7937 F800
G1 X271.4462 Y202.5923 Z-0.7937 F800
G1 X272.1374 Y202.2229 Z-0.7937 F800
G1 X272.7638 Y201.8418 Z-0.7937 F800
G1 X273.3318 Y201.4505 Z-0.7937 F800
G1 X273.8475 Y201.0499 Z-0.7937 F800
G1 X274.3167 Y200.6400 Z-0.7937 F800
G1 X274.7448 Y200.2205 Z-0.7937 F800
G1 X275.1367 Y199.7902 Z-0.7937 F800
G1 X275.4963 Y199.3482 Z-0.7937 F800
G1 X275.8270 Y198.8930 Z-0.7937 F800
G1 X276.1312 Y198.4236 Z-0.7937 F800
G1 X276.4109 Y197.9391 Z-0.7937 F800
G1 X276.6674 Y197.4392 Z-0.7937 F800
G1 X276.9015 Y196.9236 Z-0.7937 F800
G1 X277.1140 Y196.3931 Z-0.7937 F800
G1 X277.3052 Y195.8485 Z-0.7937 F800
G1 X277.4754 Y195.2912 Z-0.7937 F800
G1 X277.6249 Y194.7231 Z-0.7937 F800
G1 X277.7540 Y194.1462 Z-0.7937 F800
G1 X277.8633 Y193.5632 Z-0.7937 F800
G1 X277.9533 Y192.9765 Z-0.7937 F800
G1 X278.0246 Y192.3890 Z-0.7937 F800
G1 X278.0783 Y191.8038 Z-0.7937 F800
G1 X278.1152 Y191.2238 Z-0.7937 F800
G1 X278.1192 Y191.1150 Z-0.7937 F800
G1 X277.9219 Y191.1106 Z-0.7937 F800
G1 X277.9124 Y191.1104 Z-0.7937 F800
G1 X277.0537 Y191.0902 Z-0.7937 F800
G1 X277.0441 Y191.0899 Z-0.7937 F800
G1 X276.1579 Y191.0679 Z-0.7937 F800
G1 X276.1482 Y191.0677 Z-0.7937 F800
G1 X275.2370 Y191.0440 Z-0.7937 F800
G1 X275.2271 Y191.0437 Z-0.7937 F800
G1 X274.2933 Y191.0183 Z-0.7937 F800
G1 X274.2831 Y191.0180 Z-0.7937 F800
G1 X273.3293 Y190.9907 Z-0.7937 F800
G1 X273.3188 Y190.9904 Z-0.7937 F800
G1 X272.3475 Y190.9614 Z-0.7937 F800
G1 X272.3366 Y190.9611 Z-0.7937 F800
G1 X271.3503 Y190.9302 Z-0.7937 F800
G1 X271.3389 Y190.9299 Z-0.7937 F800
G1 X270.3401 Y190.8972 Z-0.7937 F800
G1 X270.3282 Y190.8968 Z-0.7937 F800
G1 X269.3193 Y190.8624 Z-0.7937 F800
G1 X269.3069 Y190.8619 Z-0.7937 F800
G1 X268.2905 Y190.8256 Z-0.7937 F800
G1 X268.2775 Y190.8251 Z-0.7937 F800
G1 X267.2560 Y190.7869 Z-0.7937 F800
G1 X267.2422 Y190.7864 Z-0.7937 F800
G1 X266.2183 Y190.7463 Z-0.7937 F800
G1 X266.2037 Y190.7458 Z-0.7937 F800
G1 X265.1797 Y190.7038 Z-0.7937 F800
G1 X265.1641 Y190.7031 Z-0.7937 F800
G1 X264.1427 Y190.6593 Z-0.7937 F800
G1 X264.1260 Y190.6585 Z-0.7937 F800
G1 X263.1096 Y190.6127 Z-0.7937 F800
G1 X263.0918 Y190.6119 Z-0.7937 F800
G1 X262.0829 Y190.5642 Z-0.7937 F800
G1 X262.0636 Y190.5632 Z-0.7937 F800
G1 X261.0647 Y190.5135 Z-0.7937 F800
G1 X261.0439 Y190.5125 Z-0.7937 F800
G1 X260.0576 Y190.4608 Z-0.7937 F800
G1 X260.0350 Y190.4596 Z-0.7937 F800
G1 X259.0637 Y190.4060 Z-0.7937 F800
G1 X259.0391 Y190.4046 Z-0.7937 F800
G1 X258.0853 Y190.3489 Z-0.7937 F800
G1 X258.0583 Y190.3473 Z-0.7937 F800
G1 X257.1246 Y190.2896 Z-0.7937 F800
G1 X257.0949 Y190.2877 Z-0.7937 F800
G1 X256.1837 Y190.2280 Z-0.7937 F800
G1 X256.1509 Y190.2258 Z-0.7937 F800
G1 X255.2647 Y190.1641 Z-0.7937 F800
G1 X255.2281 Y190.1614 Z-0.7937 F800
G1 X254.3695 Y190.0976 Z-0.7937 F800
G1 X254.3285 Y190.0945 Z-0.7937 F800
G1 X253.5000 Y190.0286 Z-0.7937 F800
G1 X253.4537 Y190.0247 Z-0.7937 F800
G1 X252.6577 Y189.9568 Z-0.7937 F800
G1 X252.6051 Y189.9521 Z-0.7937 F800
G1 X252.2196 Y189.9166 Z-0.7937 F800
G0 Z5.000
G0 X253.4278 Y191.2968 Z5.0000
G1 Z-0.7937 F300
G1 X253.4234 Y191.4818 Z-0.7937 F800
G1 X253.4287 Y192.1937 Z-0.7937 F800
G1 X253.4570 Y192.9188 Z-0.7937 F800
G1 X253.5094 Y193.6507 Z-0.7937 F800
G1 X253.5865 Y194.3832 Z-0.7937 F800
G1 X253.6884 Y195.1101 Z-0.7937 F800
G1 X253.8152 Y195.8254 Z-0.7937 F800
G1 X253.9664 Y196.5235 Z-0.7937 F800
G1 X254.1412 Y197.1987 Z-0.7937 F800
G1 X254.3381 Y197.8459 Z-0.7937 F800
G1 X254.5556 Y198.4603 Z-0.7937 F800
G1 X254.7914 Y199.0376 Z-0.7937 F800
G1 X255.0432 Y199.5746 Z-0.7937 F800
G1 X255.3082 Y200.0687 Z-0.7937 F800
G1 X255.5838 Y200.5186 Z-0.7937 F800
G1 X255.8677 Y200.9246 Z-0.7937 F800
G1 X256.1583 Y201.2881 Z-0.7937 F800
G1 X256.4554 Y201.6122 Z-0.7937 F800
G1 X256.7604 Y201.9011 Z-0.7937 F800
G1 X257.0772 Y202.1599 Z-0.7937 F800
G1 X257.4120 Y202.3938 Z-0.7937 F800
G1 X257.7738 Y202.6072 Z-0.7937 F800
G1 X258.1735 Y202.8029 Z-0.7937 F800
G1 X258.6237 Y202.9818 Z-0.7937 F800
G1 X259.1377 Y203.1419 Z-0.7937 F800
G1 X259.7281 Y203.2787 Z-0.7937 F800
G1 X260.4068 Y203.3852 Z-0.7937 F800
G1 X261.1837 Y203.4528 Z-0.7937 F800
G1 X262.0665 Y203.4714 Z-0.7937 F800
G1 X263.0611 Y203.4309 Z-0.7937 F800
G1 X264.2000 Y203.3178 Z-0.7937 F800
G1 X265.4079 Y203.1386 Z-0.7937 F800
G1 X266.5481 Y202.9189 Z-0.7937 F800
G1 X267.5907 Y202.6687 Z-0.7937 F800
G1 X268.5399 Y202.3929 Z-0.7937 F800
G1 X269.4005 Y202.0961 Z-0.7937 F800
G1 X270.1779 Y201.7825 Z-0.7937 F800
G1 X270.8781 Y201.4560 Z-0.7937 F800
G1 X271.5075 Y201.1195 Z-0.7937 F800
G1 X272.0730 Y200.7755 Z-0.7937 F800
G1 X272.5814 Y200.4253 Z-0.7937 F800
G1 X273.0395 Y200.0693 Z-0.7937 F800
G1 X273.4538 Y199.7075 Z-0.7937 F800
G1 X273.8302 Y199.3386 Z-0.7937 F800
G1 X274.1739 Y198.9613 Z-0.7937 F800
G1 X274.4892 Y198.5737 Z-0.7937 F800
G1 X274.7796 Y198.1739 Z-0.7937 F800
G1 X275.0477 Y197.7603 Z-0.7937 F800
G1 X275.2953 Y197.3314 Z-0.7937 F800
G1 X275.5236 Y196.8864 Z-0.7937 F800
G1 X275.7333 Y196.4247 Z-0.7937 F800
G1 X275.9248 Y195.9465 Z-0.7937 F800
G1 X276.0982 Y195.4525 Z-0.7937 F800
G1 X276.2535 Y194.9440 Z-0.7937 F800
G1 X276.3907 Y194.4226 Z-0.7937 F800
G1 X276.5099 Y193.8905 Z-0.7937 F800
G1 X276.6112 Y193.3499 Z-0.7937 F800
G1 X276.6949 Y192.8036 Z-0.7937 F800
G1 X276.7497 Y192.3530 Z-0.7937 F800
G1 X276.1265 Y192.3376 Z-0.7937 F800
G1 X276.1152 Y192.3373 Z-0.7937 F800
G1 X275.2039 Y192.3136 Z-0.7937 F800
G1 X275.1924 Y192.3133 Z-0.7937 F800
G1 X274.2587 Y192.2878 Z-0.7937 F800
G1 X274.2469 Y192.2875 Z-0.7937 F800
G1 X273.2931 Y192.2602 Z-0.7937 F800
G1 X273.2809 Y192.2599 Z-0.7937 F800
G1 X272.3095 Y192.2308 Z-0.7937 F800
G1 X272.2969 Y192.2304 Z-0.7937 F800
G1 X271.3106 Y192.1996 Z-0.7937 F800
G1 X271.2975 Y192.1992 Z-0.7937 F800
G1 X270.2986 Y192.1666 Z-0.7937 F800
G1 X270.2849 Y192.1661 Z-0.7937 F800
G1 X269.2760 Y192.1316 Z-0.7937 F800
G1 X269.2616 Y192.1311 Z-0.7937 F800
G1 X268.2452 Y192.0948 Z-0.7937 F800
G1 X268.2300 Y192.0942 Z-0.7937 F800
G1 X267.2086 Y192.0560 Z-0.7937 F800
G1 X267.1926 Y192.0554 Z-0.7937 F800
G1 X266.1686 Y192.0154 Z-0.7937 F800
G1 X266.1517 Y192.0147 Z-0.7937 F800
G1 X265.1277 Y191.9727 Z-0.7937 F800
G1 X265.1096 Y191.9720 Z-0.7937 F800
G1 X264.0882 Y191.9281 Z-0.7937 F800
G1 X264.0689 Y191.9272 Z-0.7937 F800
G1 X263.0525 Y191.8815 Z-0.7937 F800
G1 X263.0317 Y191.8805 Z-0.7937 F800
G1 X262.0228 Y191.8328 Z-0.7937 F800
G1 X262.0005 Y191.8317 Z-0.7937 F800
G1 X261.0016 Y191.7820 Z-0.7937 F800
G1 X260.9775 Y191.7807 Z-0.7937 F800
G1 X259.9912 Y191.7291 Z-0.7937 F800
G1 X259.9650 Y191.7277 Z-0.7937 F800
G1 X258.9936 Y191.6740 Z-0.7937 F800
G1 X258.9651 Y191.6724 Z-0.7937 F800
G1 X258.0113 Y191.6168 Z-0.7937 F800
G1 X257.9800 Y191.6149 Z-0.7937 F800
G1 X257.0463 Y191.5572 Z-0.7937 F800
G1 X257.0119 Y191.5550 Z-0.7937 F800
G1 X256.1006 Y191.4953 Z-0.7937 F800
G1 X256.0626 Y191.4927 Z-0.7937 F800
G1 X255.1764 Y191.4310 Z-0.7937 F800
G1 X255.1340 Y191.4279 Z-0.7937 F800
G1 X254.2754 Y191.3641 Z-0.7937 F800
G1 X254.2278 Y191.3605 Z-0.7937 F800
G1 X253.4278 Y191.2968 Z-0.7937 F800
G0 Z5.000
G0 X254.7183 Y192.6705 Z5.0000
G1 Z-0.7937 F300
G1 X254.7253 Y192.8486 Z-0.7937 F800
G1 X254.7747 Y193.5389 Z-0.7937 F800
G1 X254.8472 Y194.2285 Z-0.7937 F800
G1 X254.9429 Y194.9110 Z-0.7937 F800
G1 X255.0615 Y195.5801 Z-0.7937 F800
G1 X255.2023 Y196.2299 Z-0.7937 F800
G1 X255.3639 Y196.8546 Z-0.7937 F800
G1 X255.5448 Y197.4489 Z-0.7937 F800
G1 X255.7427 Y198.0080 Z-0.7937 F800
G1 X255.9550 Y198.5276 Z-0.7937 F800
G1 X256.1786 Y199.0045 Z-0.7937 F800
G1 X256.4102 Y199.4364 Z-0.7937 F800
G1 X256.6467 Y199.8224 Z-0.7937 F800
G1 X256.8851 Y200.1634 Z-0.7937 F800
G1 X257.1235 Y200.4616 Z-0.7937 F800
G1 X257.3613 Y200.7210 Z-0.7937 F800
G1 X257.6000 Y200.9471 Z-0.7937 F800
G1 X257.8436 Y201.1462 Z-0.7937 F800
G1 X258.0992 Y201.3247 Z-0.7937 F800
G1 X258.3766 Y201.4883 Z-0.7937 F800
G1 X258.6880 Y201.6408 Z-0.7937 F800
G1 X259.0477 Y201.7837 Z-0.7937 F800
G1 X259.4703 Y201.9154 Z-0.7937 F800
G1 X259.9702 Y202.0312 Z-0.7937 F800
G1 X260.5605 Y202.1238 Z-0.7937 F800
G1 X261.2522 Y202.1839 Z-0.7937 F800
G1 X262.0540 Y202.2009 Z-0.7937 F800
G1 X262.9724 Y202.1634 Z-0.7937 F800
G1 X264.0440 Y202.0570 Z-0.7937 F800
G1 X265.1945 Y201.8863 Z-0.7937 F800
G1 X266.2797 Y201.6773 Z-0.7937 F800
G1 X267.2651 Y201.4408 Z-0.7937 F800
G1 X268.1554 Y201.1821 Z-0.7937 F800
G1 X268.9556 Y200.9061 Z-0.7937 F800
G1 X269.6716 Y200.6173 Z-0.7937 F800
G1 X270.3100 Y200.3196 Z-0.7937 F800
G1 X270.8776 Y200.0162 Z-0.7937 F800
G1 X271.3821 Y199.7092 Z-0.7937 F800
G1 X271.8309 Y199.4000 Z-0.7937 F800
G1 X272.2315 Y199.0888 Z-0.7937 F800
G1 X272.5909 Y198.7749 Z-0.7937 F800
G1 X272.9156 Y198.4567 Z-0.7937 F800
G1 X273.2111 Y198.1323 Z-0.7937 F800
G1 X273.4821 Y197.7992 Z-0.7937 F800
G1 X273.7322 Y197.4548 Z-0.7937 F800
G1 X273.9641 Y197.0970 Z-0.7937 F800
G1 X274.1796 Y196.7237 Z-0.7937 F800
G1 X274.3798 Y196.3336 Z-0.7937 F800
G1 X274.5651 Y195.9257 Z-0.7937 F800
G1 X274.7356 Y195.4999 Z-0.7937 F800
G1 X274.8912 Y195.0566 Z-0.7937 F800
G1 X275.0316 Y194.5968 Z-0.7937 F800
G1 X275.1565 Y194.1222 Z-0.7937 F800
G1 X275.2657 Y193.6347 Z-0.7937 F800
G1 X275.2748 Y193.5858 Z-0.7937 F800
G1 X275.1709 Y193.5831 Z-0.7937 F800
G1 X275.1578 Y193.5828 Z-0.7937 F800
G1 X274.2240 Y193.5573 Z-0.7937 F800
G1 X274.2106 Y193.5569 Z-0.7937 F800
G1 X273.2568 Y193.5297 Z-0.7937 F800
G1 X273.2429 Y193.5293 Z-0.7937 F800
G1 X272.2716 Y193.5003 Z-0.7937 F800
G1 X272.2573 Y193.4998 Z-0.7937 F800
G1 X271.2709 Y193.4690 Z-0.7937 F800
G1 X271.2560 Y193.4685 Z-0.7937 F800
G1 X270.2571 Y193.4359 Z-0.7937 F800
G1 X270.2415 Y193.4354 Z-0.7937 F800
G1 X269.2326 Y193.4009 Z-0.7937 F800
G1 X269.2162 Y193.4003 Z-0.7937 F800
G1 X268.1998 Y193.3640 Z-0.7937 F800
G1 X268.1826 Y193.3634 Z-0.7937 F800
G1 X267.1611 Y193.3252 Z-0.7937 F800
G1 X267.1429 Y193.3245 Z-0.7937 F800
G1 X266.1190 Y193.2844 Z-0.7937 F800
G1 X266.0997 Y193.2836 Z-0.7937 F800
G1 X265.0757 Y193.2417 Z-0.7937 F800
G1 X265.0551 Y193.2408 Z-0.7937 F800
G1 X264.0337 Y193.1969 Z-0.7937 F800
G1 X264.0117 Y193.1960 Z-0.7937 F800
G1 X262.9953 Y193.1502 Z-0.7937 F800
G1 X262.9717 Y193.1491 Z-0.7937 F800
G1 X261.9628 Y193.1013 Z-0.7937 F800
G1 X261.9374 Y193.1001 Z-0.7937 F800
G1 X260.9385 Y193.0504 Z-0.7937 F800
G1 X260.9111 Y193.0490 Z-0.7937 F800
G1 X259.9247 Y192.9973 Z-0.7937 F800
G1 X259.8949 Y192.9957 Z-0.7937 F800
G1 X258.9236 Y192.9421 Z-0.7937 F800
G1 X258.8911 Y192.9402 Z-0.7937 F800
G1 X257.9373 Y192.8846 Z-0.7937 F800
G1 X257.9018 Y192.8825 Z-0.7937 F800
G1 X256.9680 Y192.8248 Z-0.7937 F800
G1 X256.9288 Y192.8223 Z-0.7937 F800
G1 X256.0176 Y192.7626 Z-0.7937 F800
G1 X255.9743 Y192.7597 Z-0.7937 F800
G1 X255.0881 Y192.6979 Z-0.7937 F800
G1 X255.0399 Y192.6944 Z-0.7937 F800
G1 X254.7183 Y192.6705 Z-0.7937 F800
G0 Z5.000
G0 X256.1045 Y194.0410 Z5.0000
G1 Z-0.7937 F300
G1 X256.1079 Y194.0739 Z-0.7937 F800
G1 X256.1974 Y194.7119 Z-0.7937 F800
G1 X256.3078 Y195.3347 Z-0.7937 F800
G1 X256.4381 Y195.9362 Z-0.7937 F800
G1 X256.5867 Y196.5105 Z-0.7937 F800
G1 X256.7515 Y197.0519 Z-0.7937 F800
G1 X256.9298 Y197.5557 Z-0.7937 F800
G1 X257.1185 Y198.0176 Z-0.7937 F800
G1 X257.3139 Y198.4344 Z-0.7937 F800
G1 X257.5122 Y198.8041 Z-0.7937 F800
G1 X257.7095 Y199.1262 Z-0.7937 F800
G1 X257.9025 Y199.4022 Z-0.7937 F800
G1 X258.0886 Y199.6350 Z-0.7937 F800
G1 X258.2672 Y199.8298 Z-0.7937 F800
G1 X258.4395 Y199.9930 Z-0.7937 F800
G1 X258.6101 Y200.1324 Z-0.7937 F800
G1 X258.7864 Y200.2555 Z-0.7937 F800
G1 X258.9794 Y200.3693 Z-0.7937 F800
G1 X259.2026 Y200.4787 Z-0.7937 F800
G1 X259.4717 Y200.5856 Z-0.7937 F800
G1 X259.8029 Y200.6888 Z-0.7937 F800
G1 X260.2122 Y200.7836 Z-0.7937 F800
G1 X260.7141 Y200.8624 Z-0.7937 F800
G1 X261.3207 Y200.9151 Z-0.7937 F800
G1 X262.0416 Y200.9303 Z-0.7937 F800
G1 X262.8837 Y200.8960 Z-0.7937 F800
G1 X263.8879 Y200.7962 Z-0.7937 F800
G1 X264.9811 Y200.6341 Z-0.7937 F800
G1 X266.0112 Y200.4357 Z-0.7937 F800
G1 X266.9396 Y200.2129 Z-0.7937 F800
G1 X267.7709 Y199.9713 Z-0.7937 F800
G1 X268.5107 Y199.7161 Z-0.7937 F800
G1 X269.1654 Y199.4521 Z-0.7937 F800
G1 X269.7418 Y199.1832 Z-0.7937 F800
G1 X270.2478 Y198.9128 Z-0.7937 F800
G1 X270.6912 Y198.6430 Z-0.7937 F800
G1 X271.0805 Y198.3748 Z-0.7937 F800
G1 X271.4235 Y198.1083 Z-0.7937 F800
G1 X271.7280 Y197.8423 Z-0.7937 F800
G1 X272.0010 Y197.5749 Z-0.7937 F800
G1 X272.2483 Y197.3033 Z-0.7937 F800
G1 X272.4750 Y197.0247 Z-0.7937 F800
G1 X272.6849 Y196.7358 Z-0.7937 F800
G1 X272.8806 Y196.4337 Z-0.7937 F800
G1 X273.0640 Y196.1161 Z-0.7937 F800
G1 X273.2360 Y195.7808 Z-0.7937 F800
G1 X273.3969 Y195.4267 Z-0.7937 F800
G1 X273.5464 Y195.0533 Z-0.7937 F800
G1 X273.6315 Y194.8109 Z-0.7937 F800
G1 X273.2205 Y194.7992 Z-0.7937 F800
G1 X273.2050 Y194.7987 Z-0.7937 F800
G1 X272.2337 Y194.7697 Z-0.7937 F800
G1 X272.2176 Y194.7692 Z-0.7937 F800
G1 X271.2312 Y194.7384 Z-0.7937 F800
G1 X271.2145 Y194.7378 Z-0.7937 F800
G1 X270.2156 Y194.7052 Z-0.7937 F800
G1 X270.1981 Y194.7046 Z-0.7937 F800
G1 X269.1892 Y194.6701 Z-0.7937 F800
G1 X269.1709 Y194.6695 Z-0.7937 F800
G1 X268.1544 Y194.6332 Z-0.7937 F800
G1 X268.1351 Y194.6325 Z-0.7937 F800
G1 X267.1137 Y194.5943 Z-0.7937 F800
G1 X267.0933 Y194.5935 Z-0.7937 F800
G1 X266.0693 Y194.5534 Z-0.7937 F800
G1 X266.0477 Y194.5526 Z-0.7937 F800
G1 X265.0237 Y194.5106 Z-0.7937 F800
G1 X265.0006 Y194.5096 Z-0.7937 F800
G1 X263.9792 Y194.4658 Z-0.7937 F800
G1 X263.9546 Y194.4647 Z-0.7937 F800
G1 X262.9381 Y194.4189 Z-0.7937 F800
G1 X262.9117 Y194.4177 Z-0.7937 F800
G1 X261.9028 Y194.3699 Z-0.7937 F800
G1 X261.8743 Y194.3685 Z-0.7937 F800
G1 X260.8754 Y194.3188 Z-0.7937 F800
G1 X260.8447 Y194.3173 Z-0.7937 F800
G1 X259.8583 Y194.2656 Z-0.7937 F800
G1 X259.8249 Y194.2638 Z-0.7937 F800
G1 X258.8536 Y194.2102 Z-0.7937 F800
G1 X258.8171 Y194.2081 Z-0.7937 F800
G1 X257.8633 Y194.1524 Z-0.7937 F800
G1 X257.8235 Y194.1500 Z-0.7937 F800
G1 X256.8897 Y194.0924 Z-0.7937 F800
G1 X256.8458 Y194.0896 Z-0.7937 F800
G1 X256.1045 Y194.0410 Z-0.7937 F800
G0 Z5.000
G0 X257.6236 Y195.4101 Z5.0000
G1 Z-0.7937 F300
G1 X257.6740 Y195.6426 Z-0.7937 F800
G1 X257.8095 Y196.1663 Z-0.7937 F800
G1 X257.9582 Y196.6549 Z-0.7937 F800
G1 X258.1170 Y197.1034 Z-0.7937 F800
G1 X258.2820 Y197.5075 Z-0.7937 F800
G1 X258.4493 Y197.8642 Z-0.7937 F800
G1 X258.6142 Y198.1718 Z-0.7937 F800
G1 X258.7724 Y198.4300 Z-0.7937 F800
G1 X258.9199 Y198.6410 Z-0.7937 F800
G1 X259.0538 Y198.8085 Z-0.7937 F800
G1 X259.1731 Y198.9386 Z-0.7937 F800
G1 X259.2791 Y199.0390 Z-0.7937 F800
G1 X259.3765 Y199.1186 Z-0.7937 F800
G1 X259.4736 Y199.1864 Z-0.7937 F800
G1 X259.5822 Y199.2504 Z-0.7937 F800
G1 X259.7172 Y199.3166 Z-0.7937 F800
G1 X259.8956 Y199.3875 Z-0.7937 F800
G1 X260.1355 Y199.4622 Z-0.7937 F800
G1 X260.4543 Y199.5360 Z-0.7937 F800
G1 X260.8677 Y199.6009 Z-0.7937 F800
G1 X261.3892 Y199.6463 Z-0.7937 F800
G1 X262.0291 Y199.6598 Z-0.7937 F800
G1 X262.7950 Y199.6285 Z-0.7937 F800
G1 X263.7319 Y199.5355 Z-0.7937 F800
G1 X264.7678 Y199.3819 Z-0.7937 F800
G1 X265.7428 Y199.1940 Z-0.7937 F800
G1 X266.6140 Y198.9850 Z-0.7937 F800
G1 X267.3864 Y198.7605 Z-0.7937 F800
G1 X268.0658 Y198.5261 Z-0.7937 F800
G1 X268.6591 Y198.2869 Z-0.7937 F800
G1 X269.1737 Y198.0469 Z-0.7937 F800
G1 X269.6179 Y197.8094 Z-0.7937 F800
G1 X270.0004 Y197.5767 Z-0.7937 F800
G1 X270.3300 Y197.3496 Z-0.7937 F800
G1 X270.6155 Y197.1278 Z-0.7937 F800
G1 X270.8652 Y196.9098 Z-0.7937 F800
G1 X271.0863 Y196.6930 Z-0.7937 F800
G1 X271.2855 Y196.4744 Z-0.7937 F800
G1 X271.4679 Y196.2502 Z-0.7937 F800
G1 X271.6340 Y196.0216 Z-0.7937 F800
G1 X271.1916 Y196.0078 Z-0.7937 F800
G1 X271.1730 Y196.0072 Z-0.7937 F800
G1 X270.1741 Y195.9745 Z-0.7937 F800
G1 X270.1547 Y195.9739 Z-0.7937 F800
G1 X269.1458 Y195.9394 Z-0.7937 F800
G1 X269.1255 Y195.9387 Z-0.7937 F800
G1 X268.1091 Y195.9024 Z-0.7937 F800
G1 X268.0877 Y195.9016 Z-0.7937 F800
G1 X267.0662 Y195.8634 Z-0.7937 F800
G1 X267.0436 Y195.8625 Z-0.7937 F800
G1 X266.0197 Y195.8225 Z-0.7937 F800
G1 X265.9956 Y195.8215 Z-0.7937 F800
G1 X264.9717 Y195.7795 Z-0.7937 F800
G1 X264.9461 Y195.7785 Z-0.7937 F800
G1 X263.9247 Y195.7346 Z-0.7937 F800
G1 X263.8974 Y195.7334 Z-0.7937 F800
G1 X262.8810 Y195.6876 Z-0.7937 F800
G1 X262.8517 Y195.6862 Z-0.7937 F800
G1 X261.8428 Y195.6385 Z-0.7937 F800
G1 X261.8112 Y195.6370 Z-0.7937 F800
G1 X260.8123 Y195.5873 Z-0.7937 F800
G1 X260.7782 Y195.5855 Z-0.7937 F800
G1 X259.7919 Y195.5339 Z-0.7937 F800
G1 X259.7548 Y195.5319 Z-0.7937 F800
G1 X258.7835 Y195.4782 Z-0.7937 F800
G1 X258.7432 Y195.4759 Z-0.7937 F800
G1 X257.7894 Y195.4203 Z-0.7937 F800
G1 X257.7452 Y195.4176 Z-0.7937 F800
G1 X257.6236 Y195.4101 Z-0.7937 F800
G0 Z5.000
G0 X259.3575 Y196.7819 Z5.0000
G1 Z-0.7937 F300
G1 X259.4456 Y196.9975 Z-0.7937 F800
G1 X259.5846 Y197.2941 Z-0.7937 F800
G1 X259.7162 Y197.5395 Z-0.7937 F800
G1 X259.8353 Y197.7339 Z-0.7937 F800
G1 X259.9373 Y197.8798 Z-0.7937 F800
G1 X260.0190 Y197.9819 Z-0.7937 F800
G1 X260.0790 Y198.0474 Z-0.7937 F800
G1 X260.1187 Y198.0849 Z-0.7937 F800
G1 X260.1430 Y198.1048 Z-0.7937 F800
G1 X260.1608 Y198.1173 Z-0.7937 F800
G1 X260.1850 Y198.1315 Z-0.7937 F800
G1 X260.2317 Y198.1544 Z-0.7937 F800
G1 X260.3196 Y198.1893 Z-0.7937 F800
G1 X260.4681 Y198.2356 Z-0.7937 F800
G1 X260.6963 Y198.2885 Z-0.7937 F800
G1 X261.0214 Y198.3395 Z-0.7937 F800
G1 X261.4577 Y198.3774 Z-0.7937 F800
G1 X262.0166 Y198.3892 Z-0.7937 F800
G1 X262.7062 Y198.3611 Z-0.7937 F800
G1 X263.5759 Y198.2747 Z-0.7937 F800
G1 X264.5544 Y198.1296 Z-0.7937 F800
G1 X265.4744 Y197.9524 Z-0.7937 F800
G1 X266.2885 Y197.7570 Z-0.7937 F800
G1 X267.0019 Y197.5497 Z-0.7937 F800
G1 X267.6210 Y197.3362 Z-0.7937 F800
G1 X268.0320 Y197.1704 Z-0.7937 F800
G1 X267.0188 Y197.1325 Z-0.7937 F800
G1 X266.9939 Y197.1316 Z-0.7937 F800
G1 X265.9700 Y197.0915 Z-0.7937 F800
G1 X265.9436 Y197.0904 Z-0.7937 F800
G1 X264.9197 Y197.0485 Z-0.7937 F800
G1 X264.8916 Y197.0473 Z-0.7937 F800
G1 X263.8702 Y197.0034 Z-0.7937 F800
G1 X263.8402 Y197.0021 Z-0.7937 F800
G1 X262.8238 Y196.9563 Z-0.7937 F800
G1 X262.7916 Y196.9548 Z-0.7937 F800
G1 X261.7827 Y196.9071 Z-0.7937 F800
G1 X261.7481 Y196.9054 Z-0.7937 F800
G1 X260.7492 Y196.8557 Z-0.7937 F800
G1 X260.7118 Y196.8538 Z-0.7937 F800
G1 X259.7254 Y196.8021 Z-0.7937 F800
G1 X259.6848 Y196.7999 Z-0.7937 F800
G1 X259.3575 Y196.7819 Z-0.7937 F800
G0 Z5.000
G0 Z5.000
M5
M2
