( Scrappy - mouth round-over pass (same trajectory as cutout, 1mm steps to 3mm deep) )
( Origin: true bottom-left corner of the 18x12.5in stock )
( Zero the machine at that corner before running this file )
G21 ( mm )
G90 ( absolute )
M3 S12000 ( ignored if spindle speed is set manually )
G0 Z5.000
( Inside profile, 3 Z pass(es) of 1.0000mm to total depth 3.0000mm )
( -- pass 1/3, Z=-1.0000 -- )
G0 X30.3700 Y104.3200 Z5.0000
G1 Z-1.0000 F300
G1 X30.4668 Y104.3406 Z-1.0000 F800
G1 X30.9531 Y104.4036 Z-1.0000 F800
G1 X31.5561 Y104.4468 Z-1.0000 F800
G1 X32.2614 Y104.4669 Z-1.0000 F800
G1 X33.0581 Y104.4634 Z-1.0000 F800
G1 X33.9380 Y104.4366 Z-1.0000 F800
G1 X34.8936 Y104.3875 Z-1.0000 F800
G1 X35.9188 Y104.3170 Z-1.0000 F800
G1 X37.0076 Y104.2266 Z-1.0000 F800
G1 X38.1546 Y104.1174 Z-1.0000 F800
G1 X39.3543 Y103.9908 Z-1.0000 F800
G1 X40.6017 Y103.8482 Z-1.0000 F800
G1 X41.8917 Y103.6910 Z-1.0000 F800
G1 X43.2194 Y103.5205 Z-1.0000 F800
G1 X44.5799 Y103.3381 Z-1.0000 F800
G1 X45.9684 Y103.1452 Z-1.0000 F800
G1 X47.3801 Y102.9432 Z-1.0000 F800
G1 X48.8101 Y102.7335 Z-1.0000 F800
G1 X50.2538 Y102.5174 Z-1.0000 F800
G1 X51.7064 Y102.2964 Z-1.0000 F800
G1 X53.1631 Y102.0718 Z-1.0000 F800
G1 X54.6194 Y101.8450 Z-1.0000 F800
G1 X56.0705 Y101.6174 Z-1.0000 F800
G1 X57.5117 Y101.3903 Z-1.0000 F800
G1 X58.9386 Y101.1652 Z-1.0000 F800
G1 X60.3464 Y100.9434 Z-1.0000 F800
G1 X61.7287 Y100.7265 Z-1.0000 F800
G1 X61.7305 Y100.7262 Z-1.0000 F800
G1 X63.0836 Y100.5156 Z-1.0000 F800
G1 X63.0863 Y100.5152 Z-1.0000 F800
G1 X64.4055 Y100.3121 Z-1.0000 F800
G1 X64.4091 Y100.3115 Z-1.0000 F800
G1 X65.6897 Y100.1174 Z-1.0000 F800
G1 X65.6944 Y100.1167 Z-1.0000 F800
G1 X66.9318 Y99.9329 Z-1.0000 F800
G1 X66.9378 Y99.9320 Z-1.0000 F800
G1 X68.1273 Y99.7600 Z-1.0000 F800
G1 X68.1347 Y99.7589 Z-1.0000 F800
G1 X69.2717 Y99.6000 Z-1.0000 F800
G1 X69.2810 Y99.5987 Z-1.0000 F800
G1 X70.3607 Y99.4542 Z-1.0000 F800
G1 X70.3722 Y99.4527 Z-1.0000 F800
G1 X71.3900 Y99.3241 Z-1.0000 F800
G1 X71.4044 Y99.3223 Z-1.0000 F800
G1 X72.3557 Y99.2110 Z-1.0000 F800
G1 X72.3739 Y99.2089 Z-1.0000 F800
G1 X73.2539 Y99.1162 Z-1.0000 F800
G1 X73.2772 Y99.1139 Z-1.0000 F800
G1 X74.0813 Y99.0412 Z-1.0000 F800
G1 X74.1119 Y99.0387 Z-1.0000 F800
G1 X74.8354 Y98.9873 Z-1.0000 F800
G1 X74.8768 Y98.9849 Z-1.0000 F800
G1 X75.5150 Y98.9564 Z-1.0000 F800
G1 X75.5732 Y98.9548 Z-1.0000 F800
G1 X76.1215 Y98.9504 Z-1.0000 F800
G1 X76.2081 Y98.9521 Z-1.0000 F800
G1 X76.6618 Y98.9732 Z-1.0000 F800
G1 X76.8012 Y98.9858 Z-1.0000 F800
G1 X77.1557 Y99.0339 Z-1.0000 F800
G1 X77.2289 Y99.0468 Z-1.0000 F800
G1 X77.3056 Y98.9729 Z-1.0000 F800
G1 X77.5450 Y98.7011 Z-1.0000 F800
G1 X77.8271 Y98.3401 Z-1.0000 F800
G1 X78.1418 Y97.8991 Z-1.0000 F800
G1 X78.4830 Y97.3858 Z-1.0000 F800
G1 X78.8468 Y96.8066 Z-1.0000 F800
G1 X79.2307 Y96.1671 Z-1.0000 F800
G1 X79.6325 Y95.4725 Z-1.0000 F800
G1 X80.0507 Y94.7272 Z-1.0000 F800
G1 X80.4839 Y93.9359 Z-1.0000 F800
G1 X80.9310 Y93.1027 Z-1.0000 F800
G1 X81.3909 Y92.2318 Z-1.0000 F800
G1 X81.8625 Y91.3272 Z-1.0000 F800
G1 X82.3450 Y90.3929 Z-1.0000 F800
G1 X82.8375 Y89.4327 Z-1.0000 F800
G1 X83.3390 Y88.4506 Z-1.0000 F800
G1 X83.8489 Y87.4502 Z-1.0000 F800
G1 X84.3664 Y86.4350 Z-1.0000 F800
G1 X84.8892 Y85.4117 Z-1.0000 F800
G1 X84.8905 Y85.4092 Z-1.0000 F800
G1 X85.4186 Y84.3803 Z-1.0000 F800
G1 X85.4205 Y84.3765 Z-1.0000 F800
G1 X85.9530 Y83.3458 Z-1.0000 F800
G1 X85.9555 Y83.3408 Z-1.0000 F800
G1 X86.4916 Y82.3119 Z-1.0000 F800
G1 X86.4949 Y82.3057 Z-1.0000 F800
G1 X87.0338 Y81.2823 Z-1.0000 F800
G1 X87.0378 Y81.2748 Z-1.0000 F800
G1 X87.5788 Y80.2607 Z-1.0000 F800
G1 X87.5836 Y80.2518 Z-1.0000 F800
G1 X88.1258 Y79.2508 Z-1.0000 F800
G1 X88.1315 Y79.2404 Z-1.0000 F800
G1 X88.6742 Y78.2562 Z-1.0000 F800
G1 X88.6810 Y78.2441 Z-1.0000 F800
G1 X89.2234 Y77.2804 Z-1.0000 F800
G1 X89.2313 Y77.2665 Z-1.0000 F800
G1 X89.7726 Y76.3270 Z-1.0000 F800
G1 X89.7819 Y76.3111 Z-1.0000 F800
G1 X90.3213 Y75.3996 Z-1.0000 F800
G1 X90.3323 Y75.3813 Z-1.0000 F800
G1 X90.8690 Y74.5016 Z-1.0000 F800
G1 X90.8820 Y74.4807 Z-1.0000 F800
G1 X91.4153 Y73.6364 Z-1.0000 F800
G1 X91.4308 Y73.6124 Z-1.0000 F800
G1 X91.9598 Y72.8073 Z-1.0000 F800
G1 X91.9783 Y72.7798 Z-1.0000 F800
G1 X92.5022 Y72.0176 Z-1.0000 F800
G1 X92.5246 Y71.9859 Z-1.0000 F800
G1 X93.0427 Y71.2704 Z-1.0000 F800
G1 X93.0701 Y71.2337 Z-1.0000 F800
G1 X93.5816 Y70.5687 Z-1.0000 F800
G1 X93.6155 Y70.5262 Z-1.0000 F800
G1 X94.1195 Y69.9153 Z-1.0000 F800
G1 X94.1621 Y69.8658 Z-1.0000 F800
G1 X94.6579 Y69.3128 Z-1.0000 F800
G1 X94.7121 Y69.2553 Z-1.0000 F800
G1 X95.1990 Y68.7639 Z-1.0000 F800
G1 X95.2693 Y68.6971 Z-1.0000 F800
G1 X95.7463 Y68.2711 Z-1.0000 F800
G1 X95.8390 Y68.1944 Z-1.0000 F800
G1 X96.3055 Y67.8374 Z-1.0000 F800
G1 X96.4295 Y67.7515 Z-1.0000 F800
G1 X96.8846 Y67.4674 Z-1.0000 F800
G1 X97.0517 Y67.3765 Z-1.0000 F800
G1 X97.4947 Y67.1689 Z-1.0000 F800
G1 X97.6046 Y67.1224 Z-1.0000 F800
G1 X97.7177 Y67.0842 Z-1.0000 F800
G1 X98.1478 Y66.9569 Z-1.0000 F800
G1 X98.2897 Y66.9219 Z-1.0000 F800
G1 X98.4343 Y66.9001 Z-1.0000 F800
G1 X98.8505 Y66.8569 Z-1.0000 F800
G1 X99.0279 Y66.8484 Z-1.0000 F800
G1 X99.2050 Y66.8598 Z-1.0000 F800
G1 X99.6228 Y66.9103 Z-1.0000 F800
G1 X99.7866 Y66.9388 Z-1.0000 F800
G1 X99.9465 Y66.9844 Z-1.0000 F800
G1 X100.3809 Y67.1331 Z-1.0000 F800
G1 X100.5031 Y67.1806 Z-1.0000 F800
G1 X100.6208 Y67.2380 Z-1.0000 F800
G1 X101.0708 Y67.4808 Z-1.0000 F800
G1 X101.2418 Y67.5876 Z-1.0000 F800
G1 X101.7062 Y67.9206 Z-1.0000 F800
G1 X101.8279 Y68.0171 Z-1.0000 F800
G1 X102.3057 Y68.4361 Z-1.0000 F800
G1 X102.3938 Y68.5195 Z-1.0000 F800
G1 X102.8840 Y69.0204 Z-1.0000 F800
G1 X102.9492 Y69.0912 Z-1.0000 F800
G1 X103.4508 Y69.6700 Z-1.0000 F800
G1 X103.5002 Y69.7301 Z-1.0000 F800
G1 X104.0120 Y70.3827 Z-1.0000 F800
G1 X104.0504 Y70.4338 Z-1.0000 F800
G1 X104.5713 Y71.1562 Z-1.0000 F800
G1 X104.6017 Y71.2000 Z-1.0000 F800
G1 X105.1307 Y71.9882 Z-1.0000 F800
G1 X105.1553 Y72.0259 Z-1.0000 F800
G1 X105.6913 Y72.8757 Z-1.0000 F800
G1 X105.7115 Y72.9086 Z-1.0000 F800
G1 X106.2534 Y73.8160 Z-1.0000 F800
G1 X106.2702 Y73.8448 Z-1.0000 F800
G1 X106.8171 Y74.8057 Z-1.0000 F800
G1 X106.8313 Y74.8311 Z-1.0000 F800
G1 X107.3820 Y75.8415 Z-1.0000 F800
G1 X107.3941 Y75.8641 Z-1.0000 F800
G1 X107.9476 Y76.9198 Z-1.0000 F800
G1 X107.9580 Y76.9401 Z-1.0000 F800
G1 X108.5132 Y78.0372 Z-1.0000 F800
G1 X108.5223 Y78.0555 Z-1.0000 F800
G1 X109.0780 Y79.1897 Z-1.0000 F800
G1 X109.0860 Y79.2063 Z-1.0000 F800
G1 X109.6414 Y80.3738 Z-1.0000 F800
G1 X109.6485 Y80.3889 Z-1.0000 F800
G1 X110.2023 Y81.5855 Z-1.0000 F800
G1 X110.2087 Y81.5994 Z-1.0000 F800
G1 X110.7599 Y82.8210 Z-1.0000 F800
G1 X110.7656 Y82.8338 Z-1.0000 F800
G1 X111.3133 Y84.0764 Z-1.0000 F800
G1 X111.3184 Y84.0882 Z-1.0000 F800
G1 X111.8614 Y85.3478 Z-1.0000 F800
G1 X111.8661 Y85.3588 Z-1.0000 F800
G1 X112.4033 Y86.6312 Z-1.0000 F800
G1 X112.4075 Y86.6415 Z-1.0000 F800
G1 X112.9379 Y87.9227 Z-1.0000 F800
G1 X112.9419 Y87.9324 Z-1.0000 F800
G1 X113.4643 Y89.2183 Z-1.0000 F800
G1 X113.4680 Y89.2274 Z-1.0000 F800
G1 X113.9815 Y90.5141 Z-1.0000 F800
G1 X113.9849 Y90.5227 Z-1.0000 F800
G1 X114.4884 Y91.8060 Z-1.0000 F800
G1 X114.4916 Y91.8142 Z-1.0000 F800
G1 X114.9840 Y93.0900 Z-1.0000 F800
G1 X114.9870 Y93.0979 Z-1.0000 F800
G1 X115.4673 Y94.3621 Z-1.0000 F800
G1 X115.4701 Y94.3697 Z-1.0000 F800
G1 X115.9372 Y95.6184 Z-1.0000 F800
G1 X115.9399 Y95.6258 Z-1.0000 F800
G1 X116.3927 Y96.8548 Z-1.0000 F800
G1 X116.3953 Y96.8621 Z-1.0000 F800
G1 X116.8327 Y98.0674 Z-1.0000 F800
G1 X116.8352 Y98.0745 Z-1.0000 F800
G1 X117.2562 Y99.2520 Z-1.0000 F800
G1 X117.2587 Y99.2591 Z-1.0000 F800
G1 X117.6622 Y100.4048 Z-1.0000 F800
G1 X117.6647 Y100.4119 Z-1.0000 F800
G1 X118.0496 Y101.5217 Z-1.0000 F800
G1 X118.0521 Y101.5289 Z-1.0000 F800
G1 X118.4175 Y102.5987 Z-1.0000 F800
G1 X118.4200 Y102.6061 Z-1.0000 F800
G1 X118.7646 Y103.6319 Z-1.0000 F800
G1 X118.7672 Y103.6396 Z-1.0000 F800
G1 X119.0901 Y104.6172 Z-1.0000 F800
G1 X119.0928 Y104.6255 Z-1.0000 F800
G1 X119.3929 Y105.5509 Z-1.0000 F800
G1 X119.3957 Y105.5598 Z-1.0000 F800
G1 X119.6720 Y106.4291 Z-1.0000 F800
G1 X119.6751 Y106.4389 Z-1.0000 F800
G1 X119.9263 Y107.2479 Z-1.0000 F800
G1 X119.9298 Y107.2591 Z-1.0000 F800
G1 X120.1551 Y108.0037 Z-1.0000 F800
G1 X120.1590 Y108.0168 Z-1.0000 F800
G1 X120.3572 Y108.6930 Z-1.0000 F800
G1 X120.3618 Y108.7091 Z-1.0000 F800
G1 X120.5319 Y109.3127 Z-1.0000 F800
G1 X120.5375 Y109.3333 Z-1.0000 F800
G1 X120.6784 Y109.8605 Z-1.0000 F800
G1 X120.6856 Y109.8886 Z-1.0000 F800
G1 X120.7826 Y110.2801 Z-1.0000 F800
G1 X121.5117 Y110.4302 Z-1.0000 F800
G1 X122.7972 Y110.6170 Z-1.0000 F800
G1 X124.4530 Y110.8013 Z-1.0000 F800
G1 X126.4477 Y110.9798 Z-1.0000 F800
G1 X128.7581 Y111.1514 Z-1.0000 F800
G1 X131.3643 Y111.3159 Z-1.0000 F800
G1 X134.2475 Y111.4731 Z-1.0000 F800
G1 X137.3897 Y111.6231 Z-1.0000 F800
G1 X140.7735 Y111.7660 Z-1.0000 F800
G1 X144.3814 Y111.9018 Z-1.0000 F800
G1 X148.1961 Y112.0308 Z-1.0000 F800
G1 X152.2005 Y112.1530 Z-1.0000 F800
G1 X156.3775 Y112.2686 Z-1.0000 F800
G1 X160.7100 Y112.3778 Z-1.0000 F800
G1 X165.1811 Y112.4807 Z-1.0000 F800
G1 X169.7736 Y112.5774 Z-1.0000 F800
G1 X174.4705 Y112.6681 Z-1.0000 F800
G1 X179.2550 Y112.7530 Z-1.0000 F800
G1 X184.1100 Y112.8323 Z-1.0000 F800
G1 X189.0185 Y112.9060 Z-1.0000 F800
G1 X193.9636 Y112.9743 Z-1.0000 F800
G1 X198.9283 Y113.0375 Z-1.0000 F800
G1 X203.8956 Y113.0956 Z-1.0000 F800
G1 X208.8487 Y113.1488 Z-1.0000 F800
G1 X213.7704 Y113.1973 Z-1.0000 F800
G1 X218.6439 Y113.2412 Z-1.0000 F800
G1 X223.4523 Y113.2806 Z-1.0000 F800
G1 X228.1785 Y113.3159 Z-1.0000 F800
G1 X232.8056 Y113.3470 Z-1.0000 F800
G1 X237.3167 Y113.3741 Z-1.0000 F800
G1 X241.6948 Y113.3975 Z-1.0000 F800
G1 X245.9230 Y113.4173 Z-1.0000 F800
G1 X249.9842 Y113.4336 Z-1.0000 F800
G1 X253.8616 Y113.4465 Z-1.0000 F800
G1 X257.5382 Y113.4563 Z-1.0000 F800
G1 X260.9970 Y113.4631 Z-1.0000 F800
G1 X264.2210 Y113.4671 Z-1.0000 F800
G1 X267.1934 Y113.4684 Z-1.0000 F800
G1 X269.8969 Y113.4672 Z-1.0000 F800
G1 X272.3147 Y113.4636 Z-1.0000 F800
G1 X274.4295 Y113.4578 Z-1.0000 F800
G1 X276.2242 Y113.4499 Z-1.0000 F800
G1 X277.6808 Y113.4402 Z-1.0000 F800
G1 X278.7802 Y113.4288 Z-1.0000 F800
G1 X279.3263 Y113.4191 Z-1.0000 F800
G1 X279.4757 Y113.2240 Z-1.0000 F800
G1 X279.7307 Y112.8510 Z-1.0000 F800
G1 X280.0283 Y112.3799 Z-1.0000 F800
G1 X280.3614 Y111.8211 Z-1.0000 F800
G1 X280.7257 Y111.1824 Z-1.0000 F800
G1 X281.1184 Y110.4702 Z-1.0000 F800
G1 X281.5371 Y109.6902 Z-1.0000 F800
G1 X281.9802 Y108.8477 Z-1.0000 F800
G1 X282.4458 Y107.9475 Z-1.0000 F800
G1 X282.9324 Y106.9944 Z-1.0000 F800
G1 X283.4388 Y105.9930 Z-1.0000 F800
G1 X283.9635 Y104.9478 Z-1.0000 F800
G1 X284.5051 Y103.8633 Z-1.0000 F800
G1 X285.0624 Y102.7438 Z-1.0000 F800
G1 X285.6342 Y101.5937 Z-1.0000 F800
G1 X286.2192 Y100.4170 Z-1.0000 F800
G1 X286.8153 Y99.2202 Z-1.0000 F800
G1 X286.8162 Y99.2185 Z-1.0000 F800
G1 X287.4226 Y98.0049 Z-1.0000 F800
G1 X287.4239 Y98.0023 Z-1.0000 F800
G1 X288.0392 Y96.7762 Z-1.0000 F800
G1 X288.0409 Y96.7728 Z-1.0000 F800
G1 X288.6641 Y95.5385 Z-1.0000 F800
G1 X288.6662 Y95.5344 Z-1.0000 F800
G1 X289.2960 Y94.2961 Z-1.0000 F800
G1 X289.2986 Y94.2911 Z-1.0000 F800
G1 X289.9337 Y93.0531 Z-1.0000 F800
G1 X289.9368 Y93.0472 Z-1.0000 F800
G1 X290.5761 Y91.8139 Z-1.0000 F800
G1 X290.5796 Y91.8071 Z-1.0000 F800
G1 X291.2218 Y90.5826 Z-1.0000 F800
G1 X291.2259 Y90.5748 Z-1.0000 F800
G1 X291.8699 Y89.3634 Z-1.0000 F800
G1 X291.8746 Y89.3546 Z-1.0000 F800
G1 X292.5190 Y88.1606 Z-1.0000 F800
G1 X292.5245 Y88.1506 Z-1.0000 F800
G1 X293.1681 Y86.9783 Z-1.0000 F800
G1 X293.1744 Y86.9669 Z-1.0000 F800
G1 X293.8161 Y85.8207 Z-1.0000 F800
G1 X293.8234 Y85.8078 Z-1.0000 F800
G1 X294.4618 Y84.6917 Z-1.0000 F800
G1 X294.4703 Y84.6772 Z-1.0000 F800
G1 X295.1043 Y83.5956 Z-1.0000 F800
G1 X295.1141 Y83.5791 Z-1.0000 F800
G1 X295.7426 Y82.5364 Z-1.0000 F800
G1 X295.7541 Y82.5176 Z-1.0000 F800
G1 X296.3756 Y81.5179 Z-1.0000 F800
G1 X296.3892 Y81.4964 Z-1.0000 F800
G1 X297.0026 Y80.5441 Z-1.0000 F800
G1 X297.0188 Y80.5195 Z-1.0000 F800
G1 X297.6230 Y79.6188 Z-1.0000 F800
G1 X297.6424 Y79.5904 Z-1.0000 F800
G1 X298.2360 Y78.7456 Z-1.0000 F800
G1 X298.2598 Y78.7127 Z-1.0000 F800
G1 X298.8416 Y77.9280 Z-1.0000 F800
G1 X298.8710 Y77.8896 Z-1.0000 F800
G1 X299.4399 Y77.1694 Z-1.0000 F800
G1 X299.4769 Y77.1243 Z-1.0000 F800
G1 X300.0315 Y76.4728 Z-1.0000 F800
G1 X300.0790 Y76.4195 Z-1.0000 F800
G1 X300.6183 Y75.8410 Z-1.0000 F800
G1 X300.6806 Y75.7778 Z-1.0000 F800
G1 X301.2032 Y75.2765 Z-1.0000 F800
G1 X301.2871 Y75.2016 Z-1.0000 F800
G1 X301.7918 Y74.7819 Z-1.0000 F800
G1 X301.9074 Y74.6944 Z-1.0000 F800
G1 X302.3930 Y74.3605 Z-1.0000 F800
G1 X302.5556 Y74.2625 Z-1.0000 F800
G1 X303.0209 Y74.0187 Z-1.0000 F800
G1 X303.1341 Y73.9650 Z-1.0000 F800
G1 X303.2511 Y73.9204 Z-1.0000 F800
G1 X303.6948 Y73.7710 Z-1.0000 F800
G1 X303.8512 Y73.7271 Z-1.0000 F800
G1 X304.0113 Y73.6995 Z-1.0000 F800
G1 X304.4323 Y73.6487 Z-1.0000 F800
G1 X304.6086 Y73.6374 Z-1.0000 F800
G1 X304.7852 Y73.6457 Z-1.0000 F800
G1 X305.1927 Y73.6877 Z-1.0000 F800
G1 X305.3451 Y73.7109 Z-1.0000 F800
G1 X305.4945 Y73.7489 Z-1.0000 F800
G1 X305.8988 Y73.8726 Z-1.0000 F800
G1 X306.0257 Y73.9174 Z-1.0000 F800
G1 X306.1483 Y73.9728 Z-1.0000 F800
G1 X306.5493 Y74.1748 Z-1.0000 F800
G1 X306.7419 Y74.2895 Z-1.0000 F800
G1 X307.1396 Y74.5662 Z-1.0000 F800
G1 X307.2833 Y74.6790 Z-1.0000 F800
G1 X307.6775 Y75.0269 Z-1.0000 F800
G1 X307.7837 Y75.1299 Z-1.0000 F800
G1 X308.1743 Y75.5454 Z-1.0000 F800
G1 X308.2532 Y75.6360 Z-1.0000 F800
G1 X308.6401 Y76.1157 Z-1.0000 F800
G1 X308.6994 Y76.1940 Z-1.0000 F800
G1 X309.0827 Y76.7344 Z-1.0000 F800
G1 X309.1279 Y76.8017 Z-1.0000 F800
G1 X309.5073 Y77.3992 Z-1.0000 F800
G1 X309.5424 Y77.4571 Z-1.0000 F800
G1 X309.9180 Y78.1082 Z-1.0000 F800
G1 X309.9455 Y78.1581 Z-1.0000 F800
G1 X310.3172 Y78.8593 Z-1.0000 F800
G1 X310.3392 Y78.9024 Z-1.0000 F800
G1 X310.7068 Y79.6503 Z-1.0000 F800
G1 X310.7246 Y79.6877 Z-1.0000 F800
G1 X311.0881 Y80.4786 Z-1.0000 F800
G1 X311.1026 Y80.5112 Z-1.0000 F800
G1 X311.4620 Y81.3417 Z-1.0000 F800
G1 X311.4739 Y81.3702 Z-1.0000 F800
G1 X311.8290 Y82.2368 Z-1.0000 F800
G1 X311.8390 Y82.2618 Z-1.0000 F800
G1 X312.1898 Y83.1610 Z-1.0000 F800
G1 X312.1981 Y83.1830 Z-1.0000 F800
G1 X312.5444 Y84.1112 Z-1.0000 F800
G1 X312.5515 Y84.1305 Z-1.0000 F800
G1 X312.8933 Y85.0843 Z-1.0000 F800
G1 X312.8993 Y85.1013 Z-1.0000 F800
G1 X313.2366 Y86.0771 Z-1.0000 F800
G1 X313.2417 Y86.0921 Z-1.0000 F800
G1 X313.5742 Y87.0863 Z-1.0000 F800
G1 X313.5786 Y87.0995 Z-1.0000 F800
G1 X313.9064 Y88.1088 Z-1.0000 F800
G1 X313.9101 Y88.1202 Z-1.0000 F800
G1 X314.2331 Y89.1410 Z-1.0000 F800
G1 X314.2362 Y89.1510 Z-1.0000 F800
G1 X314.5544 Y90.1797 Z-1.0000 F800
G1 X314.5570 Y90.1882 Z-1.0000 F800
G1 X314.8702 Y91.2214 Z-1.0000 F800
G1 X314.8723 Y91.2286 Z-1.0000 F800
G1 X315.1804 Y92.2627 Z-1.0000 F800
G1 X315.1822 Y92.2687 Z-1.0000 F800
G1 X315.4852 Y93.3002 Z-1.0000 F800
G1 X315.4865 Y93.3049 Z-1.0000 F800
G1 X315.7843 Y94.3304 Z-1.0000 F800
G1 X315.7853 Y94.3339 Z-1.0000 F800
G1 X316.0778 Y95.3498 Z-1.0000 F800
G1 X316.0785 Y95.3520 Z-1.0000 F800
G1 X316.3659 Y96.3558 Z-1.0000 F800
G1 X316.6475 Y97.3419 Z-1.0000 F800
G1 X316.9233 Y98.3069 Z-1.0000 F800
G1 X317.1932 Y99.2468 Z-1.0000 F800
G1 X317.4569 Y100.1580 Z-1.0000 F800
G1 X317.7142 Y101.0367 Z-1.0000 F800
G1 X317.9651 Y101.8792 Z-1.0000 F800
G1 X318.2093 Y102.6815 Z-1.0000 F800
G1 X318.4465 Y103.4397 Z-1.0000 F800
G1 X318.6762 Y104.1496 Z-1.0000 F800
G1 X318.8981 Y104.8068 Z-1.0000 F800
G1 X319.1113 Y105.4063 Z-1.0000 F800
G1 X319.3145 Y105.9428 Z-1.0000 F800
G1 X319.5059 Y106.4098 Z-1.0000 F800
G1 X319.6819 Y106.7993 Z-1.0000 F800
G1 X319.8361 Y107.1002 Z-1.0000 F800
G1 X319.9097 Y107.2221 Z-1.0000 F800
G1 X320.0416 Y107.2487 Z-1.0000 F800
G1 X320.4767 Y107.3292 Z-1.0000 F800
G1 X321.0256 Y107.4256 Z-1.0000 F800
G1 X321.6793 Y107.5361 Z-1.0000 F800
G1 X322.4311 Y107.6599 Z-1.0000 F800
G1 X323.2748 Y107.7961 Z-1.0000 F800
G1 X324.2048 Y107.9437 Z-1.0000 F800
G1 X325.2156 Y108.1021 Z-1.0000 F800
G1 X326.3018 Y108.2705 Z-1.0000 F800
G1 X327.4580 Y108.4481 Z-1.0000 F800
G1 X328.6789 Y108.6342 Z-1.0000 F800
G1 X329.9592 Y108.8281 Z-1.0000 F800
G1 X331.2937 Y109.0291 Z-1.0000 F800
G1 X332.6770 Y109.2363 Z-1.0000 F800
G1 X334.1041 Y109.4492 Z-1.0000 F800
G1 X335.5695 Y109.6668 Z-1.0000 F800
G1 X337.0682 Y109.8887 Z-1.0000 F800
G1 X338.5947 Y110.1139 Z-1.0000 F800
G1 X340.1440 Y110.3418 Z-1.0000 F800
G1 X341.7107 Y110.5717 Z-1.0000 F800
G1 X343.2897 Y110.8028 Z-1.0000 F800
G1 X344.8757 Y111.0344 Z-1.0000 F800
G1 X346.4635 Y111.2658 Z-1.0000 F800
G1 X348.0479 Y111.4962 Z-1.0000 F800
G1 X349.6235 Y111.7250 Z-1.0000 F800
G1 X351.1853 Y111.9514 Z-1.0000 F800
G1 X352.7280 Y112.1746 Z-1.0000 F800
G1 X354.2464 Y112.3941 Z-1.0000 F800
G1 X355.7351 Y112.6089 Z-1.0000 F800
G1 X357.1891 Y112.8185 Z-1.0000 F800
G1 X358.6031 Y113.0221 Z-1.0000 F800
G1 X359.9718 Y113.2190 Z-1.0000 F800
G1 X361.2901 Y113.4083 Z-1.0000 F800
G1 X362.5527 Y113.5895 Z-1.0000 F800
G1 X363.7544 Y113.7619 Z-1.0000 F800
G1 X364.8899 Y113.9245 Z-1.0000 F800
G1 X365.9541 Y114.0769 Z-1.0000 F800
G1 X366.9418 Y114.2181 Z-1.0000 F800
G1 X367.8476 Y114.3476 Z-1.0000 F800
G1 X368.6664 Y114.4645 Z-1.0000 F800
G1 X368.7440 Y114.4756 Z-1.0000 F800
G1 X368.5083 Y113.8609 Z-1.0000 F800
G1 X367.9973 Y112.5502 Z-1.0000 F800
G1 X367.3924 Y111.0396 Z-1.0000 F800
G1 X366.6881 Y109.3389 Z-1.0000 F800
G1 X365.8793 Y107.4583 Z-1.0000 F800
G1 X364.9611 Y105.4085 Z-1.0000 F800
G1 X363.9284 Y103.2003 Z-1.0000 F800
G1 X362.7763 Y100.8446 Z-1.0000 F800
G1 X361.4999 Y98.3522 Z-1.0000 F800
G1 X360.0943 Y95.7341 Z-1.0000 F800
G1 X358.5547 Y93.0015 Z-1.0000 F800
G1 X356.8761 Y90.1652 Z-1.0000 F800
G1 X355.0537 Y87.2362 Z-1.0000 F800
G1 X353.0826 Y84.2257 Z-1.0000 F800
G1 X350.9580 Y81.1445 Z-1.0000 F800
G1 X348.6750 Y78.0037 Z-1.0000 F800
G1 X346.2287 Y74.8143 Z-1.0000 F800
G1 X343.6142 Y71.5873 Z-1.0000 F800
G1 X340.8267 Y68.3337 Z-1.0000 F800
G1 X337.8612 Y65.0643 Z-1.0000 F800
G1 X334.7130 Y61.7902 Z-1.0000 F800
G1 X331.3769 Y58.5224 Z-1.0000 F800
G1 X327.8482 Y55.2717 Z-1.0000 F800
G1 X324.1219 Y52.0491 Z-1.0000 F800
G1 X320.1929 Y48.8655 Z-1.0000 F800
G1 X316.0564 Y45.7319 Z-1.0000 F800
G1 X311.7073 Y42.6592 Z-1.0000 F800
G1 X307.1406 Y39.6583 Z-1.0000 F800
G1 X302.3513 Y36.7401 Z-1.0000 F800
G1 X297.3343 Y33.9156 Z-1.0000 F800
G1 X292.0844 Y31.1957 Z-1.0000 F800
G1 X286.5967 Y28.5915 Z-1.0000 F800
G1 X280.8659 Y26.1138 Z-1.0000 F800
G1 X274.8870 Y23.7738 Z-1.0000 F800
G1 X268.6549 Y21.5823 Z-1.0000 F800
G1 X262.1643 Y19.5506 Z-1.0000 F800
G1 X255.4102 Y17.6895 Z-1.0000 F800
G1 X248.3875 Y16.0104 Z-1.0000 F800
G1 X241.0909 Y14.5241 Z-1.0000 F800
G1 X233.5155 Y13.2420 Z-1.0000 F800
G1 X225.6561 Y12.1751 Z-1.0000 F800
G1 X217.5077 Y11.3346 Z-1.0000 F800
G1 X209.0651 Y10.7316 Z-1.0000 F800
G1 X200.3226 Y10.3774 Z-1.0000 F800
G1 X191.5754 Y10.2783 Z-1.0000 F800
G1 X183.1208 Y10.4264 Z-1.0000 F800
G1 X174.9549 Y10.8112 Z-1.0000 F800
G1 X167.0731 Y11.4223 Z-1.0000 F800
G1 X159.4706 Y12.2492 Z-1.0000 F800
G1 X152.1427 Y13.2815 Z-1.0000 F800
G1 X145.0848 Y14.5086 Z-1.0000 F800
G1 X138.2921 Y15.9203 Z-1.0000 F800
G1 X131.7599 Y17.5060 Z-1.0000 F800
G1 X125.4833 Y19.2554 Z-1.0000 F800
G1 X119.4578 Y21.1582 Z-1.0000 F800
G1 X113.6785 Y23.2039 Z-1.0000 F800
G1 X108.1405 Y25.3822 Z-1.0000 F800
G1 X102.8393 Y27.6828 Z-1.0000 F800
G1 X97.7700 Y30.0954 Z-1.0000 F800
G1 X92.9278 Y32.6097 Z-1.0000 F800
G1 X88.3080 Y35.2155 Z-1.0000 F800
G1 X83.9060 Y37.9025 Z-1.0000 F800
G1 X79.7169 Y40.6604 Z-1.0000 F800
G1 X75.7362 Y43.4791 Z-1.0000 F800
G1 X71.9590 Y46.3484 Z-1.0000 F800
G1 X68.3808 Y49.2579 Z-1.0000 F800
G1 X64.9970 Y52.1975 Z-1.0000 F800
G1 X61.8029 Y55.1569 Z-1.0000 F800
G1 X58.7939 Y58.1260 Z-1.0000 F800
G1 X55.9655 Y61.0945 Z-1.0000 F800
G1 X53.3130 Y64.0521 Z-1.0000 F800
G1 X50.8320 Y66.9885 Z-1.0000 F800
G1 X48.5179 Y69.8936 Z-1.0000 F800
G1 X46.3662 Y72.7571 Z-1.0000 F800
G1 X44.3723 Y75.5685 Z-1.0000 F800
G1 X42.5317 Y78.3177 Z-1.0000 F800
G1 X40.8400 Y80.9942 Z-1.0000 F800
G1 X39.2926 Y83.5878 Z-1.0000 F800
G1 X37.8851 Y86.0880 Z-1.0000 F800
G1 X36.6129 Y88.4844 Z-1.0000 F800
G1 X35.4716 Y90.7666 Z-1.0000 F800
G1 X34.4567 Y92.9240 Z-1.0000 F800
G1 X33.5638 Y94.9461 Z-1.0000 F800
G1 X32.7884 Y96.8223 Z-1.0000 F800
G1 X32.1260 Y98.5416 Z-1.0000 F800
G1 X31.5724 Y100.0929 Z-1.0000 F800
G1 X31.1232 Y101.4644 Z-1.0000 F800
G1 X30.7743 Y102.6434 Z-1.0000 F800
G1 X30.5219 Y103.6143 Z-1.0000 F800
G1 X30.3700 Y104.3200 Z-1.0000 F800
G0 Z5.000
( -- pass 2/3, Z=-2.0000 -- )
G0 X30.3700 Y104.3200 Z5.0000
G1 Z-2.0000 F300
G1 X30.4668 Y104.3406 Z-2.0000 F800
G1 X30.9531 Y104.4036 Z-2.0000 F800
G1 X31.5561 Y104.4468 Z-2.0000 F800
G1 X32.2614 Y104.4669 Z-2.0000 F800
G1 X33.0581 Y104.4634 Z-2.0000 F800
G1 X33.9380 Y104.4366 Z-2.0000 F800
G1 X34.8936 Y104.3875 Z-2.0000 F800
G1 X35.9188 Y104.3170 Z-2.0000 F800
G1 X37.0076 Y104.2266 Z-2.0000 F800
G1 X38.1546 Y104.1174 Z-2.0000 F800
G1 X39.3543 Y103.9908 Z-2.0000 F800
G1 X40.6017 Y103.8482 Z-2.0000 F800
G1 X41.8917 Y103.6910 Z-2.0000 F800
G1 X43.2194 Y103.5205 Z-2.0000 F800
G1 X44.5799 Y103.3381 Z-2.0000 F800
G1 X45.9684 Y103.1452 Z-2.0000 F800
G1 X47.3801 Y102.9432 Z-2.0000 F800
G1 X48.8101 Y102.7335 Z-2.0000 F800
G1 X50.2538 Y102.5174 Z-2.0000 F800
G1 X51.7064 Y102.2964 Z-2.0000 F800
G1 X53.1631 Y102.0718 Z-2.0000 F800
G1 X54.6194 Y101.8450 Z-2.0000 F800
G1 X56.0705 Y101.6174 Z-2.0000 F800
G1 X57.5117 Y101.3903 Z-2.0000 F800
G1 X58.9386 Y101.1652 Z-2.0000 F800
G1 X60.3464 Y100.9434 Z-2.0000 F800
G1 X61.7287 Y100.7265 Z-2.0000 F800
G1 X61.7305 Y100.7262 Z-2.0000 F800
G1 X63.0836 Y100.5156 Z-2.0000 F800
G1 X63.0863 Y100.5152 Z-2.0000 F800
G1 X64.4055 Y100.3121 Z-2.0000 F800
G1 X64.4091 Y100.3115 Z-2.0000 F800
G1 X65.6897 Y100.1174 Z-2.0000 F800
G1 X65.6944 Y100.1167 Z-2.0000 F800
G1 X66.9318 Y99.9329 Z-2.0000 F800
G1 X66.9378 Y99.9320 Z-2.0000 F800
G1 X68.1273 Y99.7600 Z-2.0000 F800
G1 X68.1347 Y99.7589 Z-2.0000 F800
G1 X69.2717 Y99.6000 Z-2.0000 F800
G1 X69.2810 Y99.5987 Z-2.0000 F800
G1 X70.3607 Y99.4542 Z-2.0000 F800
G1 X70.3722 Y99.4527 Z-2.0000 F800
G1 X71.3900 Y99.3241 Z-2.0000 F800
G1 X71.4044 Y99.3223 Z-2.0000 F800
G1 X72.3557 Y99.2110 Z-2.0000 F800
G1 X72.3739 Y99.2089 Z-2.0000 F800
G1 X73.2539 Y99.1162 Z-2.0000 F800
G1 X73.2772 Y99.1139 Z-2.0000 F800
G1 X74.0813 Y99.0412 Z-2.0000 F800
G1 X74.1119 Y99.0387 Z-2.0000 F800
G1 X74.8354 Y98.9873 Z-2.0000 F800
G1 X74.8768 Y98.9849 Z-2.0000 F800
G1 X75.5150 Y98.9564 Z-2.0000 F800
G1 X75.5732 Y98.9548 Z-2.0000 F800
G1 X76.1215 Y98.9504 Z-2.0000 F800
G1 X76.2081 Y98.9521 Z-2.0000 F800
G1 X76.6618 Y98.9732 Z-2.0000 F800
G1 X76.8012 Y98.9858 Z-2.0000 F800
G1 X77.1557 Y99.0339 Z-2.0000 F800
G1 X77.2289 Y99.0468 Z-2.0000 F800
G1 X77.3056 Y98.9729 Z-2.0000 F800
G1 X77.5450 Y98.7011 Z-2.0000 F800
G1 X77.8271 Y98.3401 Z-2.0000 F800
G1 X78.1418 Y97.8991 Z-2.0000 F800
G1 X78.4830 Y97.3858 Z-2.0000 F800
G1 X78.8468 Y96.8066 Z-2.0000 F800
G1 X79.2307 Y96.1671 Z-2.0000 F800
G1 X79.6325 Y95.4725 Z-2.0000 F800
G1 X80.0507 Y94.7272 Z-2.0000 F800
G1 X80.4839 Y93.9359 Z-2.0000 F800
G1 X80.9310 Y93.1027 Z-2.0000 F800
G1 X81.3909 Y92.2318 Z-2.0000 F800
G1 X81.8625 Y91.3272 Z-2.0000 F800
G1 X82.3450 Y90.3929 Z-2.0000 F800
G1 X82.8375 Y89.4327 Z-2.0000 F800
G1 X83.3390 Y88.4506 Z-2.0000 F800
G1 X83.8489 Y87.4502 Z-2.0000 F800
G1 X84.3664 Y86.4350 Z-2.0000 F800
G1 X84.8892 Y85.4117 Z-2.0000 F800
G1 X84.8905 Y85.4092 Z-2.0000 F800
G1 X85.4186 Y84.3803 Z-2.0000 F800
G1 X85.4205 Y84.3765 Z-2.0000 F800
G1 X85.9530 Y83.3458 Z-2.0000 F800
G1 X85.9555 Y83.3408 Z-2.0000 F800
G1 X86.4916 Y82.3119 Z-2.0000 F800
G1 X86.4949 Y82.3057 Z-2.0000 F800
G1 X87.0338 Y81.2823 Z-2.0000 F800
G1 X87.0378 Y81.2748 Z-2.0000 F800
G1 X87.5788 Y80.2607 Z-2.0000 F800
G1 X87.5836 Y80.2518 Z-2.0000 F800
G1 X88.1258 Y79.2508 Z-2.0000 F800
G1 X88.1315 Y79.2404 Z-2.0000 F800
G1 X88.6742 Y78.2562 Z-2.0000 F800
G1 X88.6810 Y78.2441 Z-2.0000 F800
G1 X89.2234 Y77.2804 Z-2.0000 F800
G1 X89.2313 Y77.2665 Z-2.0000 F800
G1 X89.7726 Y76.3270 Z-2.0000 F800
G1 X89.7819 Y76.3111 Z-2.0000 F800
G1 X90.3213 Y75.3996 Z-2.0000 F800
G1 X90.3323 Y75.3813 Z-2.0000 F800
G1 X90.8690 Y74.5016 Z-2.0000 F800
G1 X90.8820 Y74.4807 Z-2.0000 F800
G1 X91.4153 Y73.6364 Z-2.0000 F800
G1 X91.4308 Y73.6124 Z-2.0000 F800
G1 X91.9598 Y72.8073 Z-2.0000 F800
G1 X91.9783 Y72.7798 Z-2.0000 F800
G1 X92.5022 Y72.0176 Z-2.0000 F800
G1 X92.5246 Y71.9859 Z-2.0000 F800
G1 X93.0427 Y71.2704 Z-2.0000 F800
G1 X93.0701 Y71.2337 Z-2.0000 F800
G1 X93.5816 Y70.5687 Z-2.0000 F800
G1 X93.6155 Y70.5262 Z-2.0000 F800
G1 X94.1195 Y69.9153 Z-2.0000 F800
G1 X94.1621 Y69.8658 Z-2.0000 F800
G1 X94.6579 Y69.3128 Z-2.0000 F800
G1 X94.7121 Y69.2553 Z-2.0000 F800
G1 X95.1990 Y68.7639 Z-2.0000 F800
G1 X95.2693 Y68.6971 Z-2.0000 F800
G1 X95.7463 Y68.2711 Z-2.0000 F800
G1 X95.8390 Y68.1944 Z-2.0000 F800
G1 X96.3055 Y67.8374 Z-2.0000 F800
G1 X96.4295 Y67.7515 Z-2.0000 F800
G1 X96.8846 Y67.4674 Z-2.0000 F800
G1 X97.0517 Y67.3765 Z-2.0000 F800
G1 X97.4947 Y67.1689 Z-2.0000 F800
G1 X97.6046 Y67.1224 Z-2.0000 F800
G1 X97.7177 Y67.0842 Z-2.0000 F800
G1 X98.1478 Y66.9569 Z-2.0000 F800
G1 X98.2897 Y66.9219 Z-2.0000 F800
G1 X98.4343 Y66.9001 Z-2.0000 F800
G1 X98.8505 Y66.8569 Z-2.0000 F800
G1 X99.0279 Y66.8484 Z-2.0000 F800
G1 X99.2050 Y66.8598 Z-2.0000 F800
G1 X99.6228 Y66.9103 Z-2.0000 F800
G1 X99.7866 Y66.9388 Z-2.0000 F800
G1 X99.9465 Y66.9844 Z-2.0000 F800
G1 X100.3809 Y67.1331 Z-2.0000 F800
G1 X100.5031 Y67.1806 Z-2.0000 F800
G1 X100.6208 Y67.2380 Z-2.0000 F800
G1 X101.0708 Y67.4808 Z-2.0000 F800
G1 X101.2418 Y67.5876 Z-2.0000 F800
G1 X101.7062 Y67.9206 Z-2.0000 F800
G1 X101.8279 Y68.0171 Z-2.0000 F800
G1 X102.3057 Y68.4361 Z-2.0000 F800
G1 X102.3938 Y68.5195 Z-2.0000 F800
G1 X102.8840 Y69.0204 Z-2.0000 F800
G1 X102.9492 Y69.0912 Z-2.0000 F800
G1 X103.4508 Y69.6700 Z-2.0000 F800
G1 X103.5002 Y69.7301 Z-2.0000 F800
G1 X104.0120 Y70.3827 Z-2.0000 F800
G1 X104.0504 Y70.4338 Z-2.0000 F800
G1 X104.5713 Y71.1562 Z-2.0000 F800
G1 X104.6017 Y71.2000 Z-2.0000 F800
G1 X105.1307 Y71.9882 Z-2.0000 F800
G1 X105.1553 Y72.0259 Z-2.0000 F800
G1 X105.6913 Y72.8757 Z-2.0000 F800
G1 X105.7115 Y72.9086 Z-2.0000 F800
G1 X106.2534 Y73.8160 Z-2.0000 F800
G1 X106.2702 Y73.8448 Z-2.0000 F800
G1 X106.8171 Y74.8057 Z-2.0000 F800
G1 X106.8313 Y74.8311 Z-2.0000 F800
G1 X107.3820 Y75.8415 Z-2.0000 F800
G1 X107.3941 Y75.8641 Z-2.0000 F800
G1 X107.9476 Y76.9198 Z-2.0000 F800
G1 X107.9580 Y76.9401 Z-2.0000 F800
G1 X108.5132 Y78.0372 Z-2.0000 F800
G1 X108.5223 Y78.0555 Z-2.0000 F800
G1 X109.0780 Y79.1897 Z-2.0000 F800
G1 X109.0860 Y79.2063 Z-2.0000 F800
G1 X109.6414 Y80.3738 Z-2.0000 F800
G1 X109.6485 Y80.3889 Z-2.0000 F800
G1 X110.2023 Y81.5855 Z-2.0000 F800
G1 X110.2087 Y81.5994 Z-2.0000 F800
G1 X110.7599 Y82.8210 Z-2.0000 F800
G1 X110.7656 Y82.8338 Z-2.0000 F800
G1 X111.3133 Y84.0764 Z-2.0000 F800
G1 X111.3184 Y84.0882 Z-2.0000 F800
G1 X111.8614 Y85.3478 Z-2.0000 F800
G1 X111.8661 Y85.3588 Z-2.0000 F800
G1 X112.4033 Y86.6312 Z-2.0000 F800
G1 X112.4075 Y86.6415 Z-2.0000 F800
G1 X112.9379 Y87.9227 Z-2.0000 F800
G1 X112.9419 Y87.9324 Z-2.0000 F800
G1 X113.4643 Y89.2183 Z-2.0000 F800
G1 X113.4680 Y89.2274 Z-2.0000 F800
G1 X113.9815 Y90.5141 Z-2.0000 F800
G1 X113.9849 Y90.5227 Z-2.0000 F800
G1 X114.4884 Y91.8060 Z-2.0000 F800
G1 X114.4916 Y91.8142 Z-2.0000 F800
G1 X114.9840 Y93.0900 Z-2.0000 F800
G1 X114.9870 Y93.0979 Z-2.0000 F800
G1 X115.4673 Y94.3621 Z-2.0000 F800
G1 X115.4701 Y94.3697 Z-2.0000 F800
G1 X115.9372 Y95.6184 Z-2.0000 F800
G1 X115.9399 Y95.6258 Z-2.0000 F800
G1 X116.3927 Y96.8548 Z-2.0000 F800
G1 X116.3953 Y96.8621 Z-2.0000 F800
G1 X116.8327 Y98.0674 Z-2.0000 F800
G1 X116.8352 Y98.0745 Z-2.0000 F800
G1 X117.2562 Y99.2520 Z-2.0000 F800
G1 X117.2587 Y99.2591 Z-2.0000 F800
G1 X117.6622 Y100.4048 Z-2.0000 F800
G1 X117.6647 Y100.4119 Z-2.0000 F800
G1 X118.0496 Y101.5217 Z-2.0000 F800
G1 X118.0521 Y101.5289 Z-2.0000 F800
G1 X118.4175 Y102.5987 Z-2.0000 F800
G1 X118.4200 Y102.6061 Z-2.0000 F800
G1 X118.7646 Y103.6319 Z-2.0000 F800
G1 X118.7672 Y103.6396 Z-2.0000 F800
G1 X119.0901 Y104.6172 Z-2.0000 F800
G1 X119.0928 Y104.6255 Z-2.0000 F800
G1 X119.3929 Y105.5509 Z-2.0000 F800
G1 X119.3957 Y105.5598 Z-2.0000 F800
G1 X119.6720 Y106.4291 Z-2.0000 F800
G1 X119.6751 Y106.4389 Z-2.0000 F800
G1 X119.9263 Y107.2479 Z-2.0000 F800
G1 X119.9298 Y107.2591 Z-2.0000 F800
G1 X120.1551 Y108.0037 Z-2.0000 F800
G1 X120.1590 Y108.0168 Z-2.0000 F800
G1 X120.3572 Y108.6930 Z-2.0000 F800
G1 X120.3618 Y108.7091 Z-2.0000 F800
G1 X120.5319 Y109.3127 Z-2.0000 F800
G1 X120.5375 Y109.3333 Z-2.0000 F800
G1 X120.6784 Y109.8605 Z-2.0000 F800
G1 X120.6856 Y109.8886 Z-2.0000 F800
G1 X120.7826 Y110.2801 Z-2.0000 F800
G1 X121.5117 Y110.4302 Z-2.0000 F800
G1 X122.7972 Y110.6170 Z-2.0000 F800
G1 X124.4530 Y110.8013 Z-2.0000 F800
G1 X126.4477 Y110.9798 Z-2.0000 F800
G1 X128.7581 Y111.1514 Z-2.0000 F800
G1 X131.3643 Y111.3159 Z-2.0000 F800
G1 X134.2475 Y111.4731 Z-2.0000 F800
G1 X137.3897 Y111.6231 Z-2.0000 F800
G1 X140.7735 Y111.7660 Z-2.0000 F800
G1 X144.3814 Y111.9018 Z-2.0000 F800
G1 X148.1961 Y112.0308 Z-2.0000 F800
G1 X152.2005 Y112.1530 Z-2.0000 F800
G1 X156.3775 Y112.2686 Z-2.0000 F800
G1 X160.7100 Y112.3778 Z-2.0000 F800
G1 X165.1811 Y112.4807 Z-2.0000 F800
G1 X169.7736 Y112.5774 Z-2.0000 F800
G1 X174.4705 Y112.6681 Z-2.0000 F800
G1 X179.2550 Y112.7530 Z-2.0000 F800
G1 X184.1100 Y112.8323 Z-2.0000 F800
G1 X189.0185 Y112.9060 Z-2.0000 F800
G1 X193.9636 Y112.9743 Z-2.0000 F800
G1 X198.9283 Y113.0375 Z-2.0000 F800
G1 X203.8956 Y113.0956 Z-2.0000 F800
G1 X208.8487 Y113.1488 Z-2.0000 F800
G1 X213.7704 Y113.1973 Z-2.0000 F800
G1 X218.6439 Y113.2412 Z-2.0000 F800
G1 X223.4523 Y113.2806 Z-2.0000 F800
G1 X228.1785 Y113.3159 Z-2.0000 F800
G1 X232.8056 Y113.3470 Z-2.0000 F800
G1 X237.3167 Y113.3741 Z-2.0000 F800
G1 X241.6948 Y113.3975 Z-2.0000 F800
G1 X245.9230 Y113.4173 Z-2.0000 F800
G1 X249.9842 Y113.4336 Z-2.0000 F800
G1 X253.8616 Y113.4465 Z-2.0000 F800
G1 X257.5382 Y113.4563 Z-2.0000 F800
G1 X260.9970 Y113.4631 Z-2.0000 F800
G1 X264.2210 Y113.4671 Z-2.0000 F800
G1 X267.1934 Y113.4684 Z-2.0000 F800
G1 X269.8969 Y113.4672 Z-2.0000 F800
G1 X272.3147 Y113.4636 Z-2.0000 F800
G1 X274.4295 Y113.4578 Z-2.0000 F800
G1 X276.2242 Y113.4499 Z-2.0000 F800
G1 X277.6808 Y113.4402 Z-2.0000 F800
G1 X278.7802 Y113.4288 Z-2.0000 F800
G1 X279.3263 Y113.4191 Z-2.0000 F800
G1 X279.4757 Y113.2240 Z-2.0000 F800
G1 X279.7307 Y112.8510 Z-2.0000 F800
G1 X280.0283 Y112.3799 Z-2.0000 F800
G1 X280.3614 Y111.8211 Z-2.0000 F800
G1 X280.7257 Y111.1824 Z-2.0000 F800
G1 X281.1184 Y110.4702 Z-2.0000 F800
G1 X281.5371 Y109.6902 Z-2.0000 F800
G1 X281.9802 Y108.8477 Z-2.0000 F800
G1 X282.4458 Y107.9475 Z-2.0000 F800
G1 X282.9324 Y106.9944 Z-2.0000 F800
G1 X283.4388 Y105.9930 Z-2.0000 F800
G1 X283.9635 Y104.9478 Z-2.0000 F800
G1 X284.5051 Y103.8633 Z-2.0000 F800
G1 X285.0624 Y102.7438 Z-2.0000 F800
G1 X285.6342 Y101.5937 Z-2.0000 F800
G1 X286.2192 Y100.4170 Z-2.0000 F800
G1 X286.8153 Y99.2202 Z-2.0000 F800
G1 X286.8162 Y99.2185 Z-2.0000 F800
G1 X287.4226 Y98.0049 Z-2.0000 F800
G1 X287.4239 Y98.0023 Z-2.0000 F800
G1 X288.0392 Y96.7762 Z-2.0000 F800
G1 X288.0409 Y96.7728 Z-2.0000 F800
G1 X288.6641 Y95.5385 Z-2.0000 F800
G1 X288.6662 Y95.5344 Z-2.0000 F800
G1 X289.2960 Y94.2961 Z-2.0000 F800
G1 X289.2986 Y94.2911 Z-2.0000 F800
G1 X289.9337 Y93.0531 Z-2.0000 F800
G1 X289.9368 Y93.0472 Z-2.0000 F800
G1 X290.5761 Y91.8139 Z-2.0000 F800
G1 X290.5796 Y91.8071 Z-2.0000 F800
G1 X291.2218 Y90.5826 Z-2.0000 F800
G1 X291.2259 Y90.5748 Z-2.0000 F800
G1 X291.8699 Y89.3634 Z-2.0000 F800
G1 X291.8746 Y89.3546 Z-2.0000 F800
G1 X292.5190 Y88.1606 Z-2.0000 F800
G1 X292.5245 Y88.1506 Z-2.0000 F800
G1 X293.1681 Y86.9783 Z-2.0000 F800
G1 X293.1744 Y86.9669 Z-2.0000 F800
G1 X293.8161 Y85.8207 Z-2.0000 F800
G1 X293.8234 Y85.8078 Z-2.0000 F800
G1 X294.4618 Y84.6917 Z-2.0000 F800
G1 X294.4703 Y84.6772 Z-2.0000 F800
G1 X295.1043 Y83.5956 Z-2.0000 F800
G1 X295.1141 Y83.5791 Z-2.0000 F800
G1 X295.7426 Y82.5364 Z-2.0000 F800
G1 X295.7541 Y82.5176 Z-2.0000 F800
G1 X296.3756 Y81.5179 Z-2.0000 F800
G1 X296.3892 Y81.4964 Z-2.0000 F800
G1 X297.0026 Y80.5441 Z-2.0000 F800
G1 X297.0188 Y80.5195 Z-2.0000 F800
G1 X297.6230 Y79.6188 Z-2.0000 F800
G1 X297.6424 Y79.5904 Z-2.0000 F800
G1 X298.2360 Y78.7456 Z-2.0000 F800
G1 X298.2598 Y78.7127 Z-2.0000 F800
G1 X298.8416 Y77.9280 Z-2.0000 F800
G1 X298.8710 Y77.8896 Z-2.0000 F800
G1 X299.4399 Y77.1694 Z-2.0000 F800
G1 X299.4769 Y77.1243 Z-2.0000 F800
G1 X300.0315 Y76.4728 Z-2.0000 F800
G1 X300.0790 Y76.4195 Z-2.0000 F800
G1 X300.6183 Y75.8410 Z-2.0000 F800
G1 X300.6806 Y75.7778 Z-2.0000 F800
G1 X301.2032 Y75.2765 Z-2.0000 F800
G1 X301.2871 Y75.2016 Z-2.0000 F800
G1 X301.7918 Y74.7819 Z-2.0000 F800
G1 X301.9074 Y74.6944 Z-2.0000 F800
G1 X302.3930 Y74.3605 Z-2.0000 F800
G1 X302.5556 Y74.2625 Z-2.0000 F800
G1 X303.0209 Y74.0187 Z-2.0000 F800
G1 X303.1341 Y73.9650 Z-2.0000 F800
G1 X303.2511 Y73.9204 Z-2.0000 F800
G1 X303.6948 Y73.7710 Z-2.0000 F800
G1 X303.8512 Y73.7271 Z-2.0000 F800
G1 X304.0113 Y73.6995 Z-2.0000 F800
G1 X304.4323 Y73.6487 Z-2.0000 F800
G1 X304.6086 Y73.6374 Z-2.0000 F800
G1 X304.7852 Y73.6457 Z-2.0000 F800
G1 X305.1927 Y73.6877 Z-2.0000 F800
G1 X305.3451 Y73.7109 Z-2.0000 F800
G1 X305.4945 Y73.7489 Z-2.0000 F800
G1 X305.8988 Y73.8726 Z-2.0000 F800
G1 X306.0257 Y73.9174 Z-2.0000 F800
G1 X306.1483 Y73.9728 Z-2.0000 F800
G1 X306.5493 Y74.1748 Z-2.0000 F800
G1 X306.7419 Y74.2895 Z-2.0000 F800
G1 X307.1396 Y74.5662 Z-2.0000 F800
G1 X307.2833 Y74.6790 Z-2.0000 F800
G1 X307.6775 Y75.0269 Z-2.0000 F800
G1 X307.7837 Y75.1299 Z-2.0000 F800
G1 X308.1743 Y75.5454 Z-2.0000 F800
G1 X308.2532 Y75.6360 Z-2.0000 F800
G1 X308.6401 Y76.1157 Z-2.0000 F800
G1 X308.6994 Y76.1940 Z-2.0000 F800
G1 X309.0827 Y76.7344 Z-2.0000 F800
G1 X309.1279 Y76.8017 Z-2.0000 F800
G1 X309.5073 Y77.3992 Z-2.0000 F800
G1 X309.5424 Y77.4571 Z-2.0000 F800
G1 X309.9180 Y78.1082 Z-2.0000 F800
G1 X309.9455 Y78.1581 Z-2.0000 F800
G1 X310.3172 Y78.8593 Z-2.0000 F800
G1 X310.3392 Y78.9024 Z-2.0000 F800
G1 X310.7068 Y79.6503 Z-2.0000 F800
G1 X310.7246 Y79.6877 Z-2.0000 F800
G1 X311.0881 Y80.4786 Z-2.0000 F800
G1 X311.1026 Y80.5112 Z-2.0000 F800
G1 X311.4620 Y81.3417 Z-2.0000 F800
G1 X311.4739 Y81.3702 Z-2.0000 F800
G1 X311.8290 Y82.2368 Z-2.0000 F800
G1 X311.8390 Y82.2618 Z-2.0000 F800
G1 X312.1898 Y83.1610 Z-2.0000 F800
G1 X312.1981 Y83.1830 Z-2.0000 F800
G1 X312.5444 Y84.1112 Z-2.0000 F800
G1 X312.5515 Y84.1305 Z-2.0000 F800
G1 X312.8933 Y85.0843 Z-2.0000 F800
G1 X312.8993 Y85.1013 Z-2.0000 F800
G1 X313.2366 Y86.0771 Z-2.0000 F800
G1 X313.2417 Y86.0921 Z-2.0000 F800
G1 X313.5742 Y87.0863 Z-2.0000 F800
G1 X313.5786 Y87.0995 Z-2.0000 F800
G1 X313.9064 Y88.1088 Z-2.0000 F800
G1 X313.9101 Y88.1202 Z-2.0000 F800
G1 X314.2331 Y89.1410 Z-2.0000 F800
G1 X314.2362 Y89.1510 Z-2.0000 F800
G1 X314.5544 Y90.1797 Z-2.0000 F800
G1 X314.5570 Y90.1882 Z-2.0000 F800
G1 X314.8702 Y91.2214 Z-2.0000 F800
G1 X314.8723 Y91.2286 Z-2.0000 F800
G1 X315.1804 Y92.2627 Z-2.0000 F800
G1 X315.1822 Y92.2687 Z-2.0000 F800
G1 X315.4852 Y93.3002 Z-2.0000 F800
G1 X315.4865 Y93.3049 Z-2.0000 F800
G1 X315.7843 Y94.3304 Z-2.0000 F800
G1 X315.7853 Y94.3339 Z-2.0000 F800
G1 X316.0778 Y95.3498 Z-2.0000 F800
G1 X316.0785 Y95.3520 Z-2.0000 F800
G1 X316.3659 Y96.3558 Z-2.0000 F800
G1 X316.6475 Y97.3419 Z-2.0000 F800
G1 X316.9233 Y98.3069 Z-2.0000 F800
G1 X317.1932 Y99.2468 Z-2.0000 F800
G1 X317.4569 Y100.1580 Z-2.0000 F800
G1 X317.7142 Y101.0367 Z-2.0000 F800
G1 X317.9651 Y101.8792 Z-2.0000 F800
G1 X318.2093 Y102.6815 Z-2.0000 F800
G1 X318.4465 Y103.4397 Z-2.0000 F800
G1 X318.6762 Y104.1496 Z-2.0000 F800
G1 X318.8981 Y104.8068 Z-2.0000 F800
G1 X319.1113 Y105.4063 Z-2.0000 F800
G1 X319.3145 Y105.9428 Z-2.0000 F800
G1 X319.5059 Y106.4098 Z-2.0000 F800
G1 X319.6819 Y106.7993 Z-2.0000 F800
G1 X319.8361 Y107.1002 Z-2.0000 F800
G1 X319.9097 Y107.2221 Z-2.0000 F800
G1 X320.0416 Y107.2487 Z-2.0000 F800
G1 X320.4767 Y107.3292 Z-2.0000 F800
G1 X321.0256 Y107.4256 Z-2.0000 F800
G1 X321.6793 Y107.5361 Z-2.0000 F800
G1 X322.4311 Y107.6599 Z-2.0000 F800
G1 X323.2748 Y107.7961 Z-2.0000 F800
G1 X324.2048 Y107.9437 Z-2.0000 F800
G1 X325.2156 Y108.1021 Z-2.0000 F800
G1 X326.3018 Y108.2705 Z-2.0000 F800
G1 X327.4580 Y108.4481 Z-2.0000 F800
G1 X328.6789 Y108.6342 Z-2.0000 F800
G1 X329.9592 Y108.8281 Z-2.0000 F800
G1 X331.2937 Y109.0291 Z-2.0000 F800
G1 X332.6770 Y109.2363 Z-2.0000 F800
G1 X334.1041 Y109.4492 Z-2.0000 F800
G1 X335.5695 Y109.6668 Z-2.0000 F800
G1 X337.0682 Y109.8887 Z-2.0000 F800
G1 X338.5947 Y110.1139 Z-2.0000 F800
G1 X340.1440 Y110.3418 Z-2.0000 F800
G1 X341.7107 Y110.5717 Z-2.0000 F800
G1 X343.2897 Y110.8028 Z-2.0000 F800
G1 X344.8757 Y111.0344 Z-2.0000 F800
G1 X346.4635 Y111.2658 Z-2.0000 F800
G1 X348.0479 Y111.4962 Z-2.0000 F800
G1 X349.6235 Y111.7250 Z-2.0000 F800
G1 X351.1853 Y111.9514 Z-2.0000 F800
G1 X352.7280 Y112.1746 Z-2.0000 F800
G1 X354.2464 Y112.3941 Z-2.0000 F800
G1 X355.7351 Y112.6089 Z-2.0000 F800
G1 X357.1891 Y112.8185 Z-2.0000 F800
G1 X358.6031 Y113.0221 Z-2.0000 F800
G1 X359.9718 Y113.2190 Z-2.0000 F800
G1 X361.2901 Y113.4083 Z-2.0000 F800
G1 X362.5527 Y113.5895 Z-2.0000 F800
G1 X363.7544 Y113.7619 Z-2.0000 F800
G1 X364.8899 Y113.9245 Z-2.0000 F800
G1 X365.9541 Y114.0769 Z-2.0000 F800
G1 X366.9418 Y114.2181 Z-2.0000 F800
G1 X367.8476 Y114.3476 Z-2.0000 F800
G1 X368.6664 Y114.4645 Z-2.0000 F800
G1 X368.7440 Y114.4756 Z-2.0000 F800
G1 X368.5083 Y113.8609 Z-2.0000 F800
G1 X367.9973 Y112.5502 Z-2.0000 F800
G1 X367.3924 Y111.0396 Z-2.0000 F800
G1 X366.6881 Y109.3389 Z-2.0000 F800
G1 X365.8793 Y107.4583 Z-2.0000 F800
G1 X364.9611 Y105.4085 Z-2.0000 F800
G1 X363.9284 Y103.2003 Z-2.0000 F800
G1 X362.7763 Y100.8446 Z-2.0000 F800
G1 X361.4999 Y98.3522 Z-2.0000 F800
G1 X360.0943 Y95.7341 Z-2.0000 F800
G1 X358.5547 Y93.0015 Z-2.0000 F800
G1 X356.8761 Y90.1652 Z-2.0000 F800
G1 X355.0537 Y87.2362 Z-2.0000 F800
G1 X353.0826 Y84.2257 Z-2.0000 F800
G1 X350.9580 Y81.1445 Z-2.0000 F800
G1 X348.6750 Y78.0037 Z-2.0000 F800
G1 X346.2287 Y74.8143 Z-2.0000 F800
G1 X343.6142 Y71.5873 Z-2.0000 F800
G1 X340.8267 Y68.3337 Z-2.0000 F800
G1 X337.8612 Y65.0643 Z-2.0000 F800
G1 X334.7130 Y61.7902 Z-2.0000 F800
G1 X331.3769 Y58.5224 Z-2.0000 F800
G1 X327.8482 Y55.2717 Z-2.0000 F800
G1 X324.1219 Y52.0491 Z-2.0000 F800
G1 X320.1929 Y48.8655 Z-2.0000 F800
G1 X316.0564 Y45.7319 Z-2.0000 F800
G1 X311.7073 Y42.6592 Z-2.0000 F800
G1 X307.1406 Y39.6583 Z-2.0000 F800
G1 X302.3513 Y36.7401 Z-2.0000 F800
G1 X297.3343 Y33.9156 Z-2.0000 F800
G1 X292.0844 Y31.1957 Z-2.0000 F800
G1 X286.5967 Y28.5915 Z-2.0000 F800
G1 X280.8659 Y26.1138 Z-2.0000 F800
G1 X274.8870 Y23.7738 Z-2.0000 F800
G1 X268.6549 Y21.5823 Z-2.0000 F800
G1 X262.1643 Y19.5506 Z-2.0000 F800
G1 X255.4102 Y17.6895 Z-2.0000 F800
G1 X248.3875 Y16.0104 Z-2.0000 F800
G1 X241.0909 Y14.5241 Z-2.0000 F800
G1 X233.5155 Y13.2420 Z-2.0000 F800
G1 X225.6561 Y12.1751 Z-2.0000 F800
G1 X217.5077 Y11.3346 Z-2.0000 F800
G1 X209.0651 Y10.7316 Z-2.0000 F800
G1 X200.3226 Y10.3774 Z-2.0000 F800
G1 X191.5754 Y10.2783 Z-2.0000 F800
G1 X183.1208 Y10.4264 Z-2.0000 F800
G1 X174.9549 Y10.8112 Z-2.0000 F800
G1 X167.0731 Y11.4223 Z-2.0000 F800
G1 X159.4706 Y12.2492 Z-2.0000 F800
G1 X152.1427 Y13.2815 Z-2.0000 F800
G1 X145.0848 Y14.5086 Z-2.0000 F800
G1 X138.2921 Y15.9203 Z-2.0000 F800
G1 X131.7599 Y17.5060 Z-2.0000 F800
G1 X125.4833 Y19.2554 Z-2.0000 F800
G1 X119.4578 Y21.1582 Z-2.0000 F800
G1 X113.6785 Y23.2039 Z-2.0000 F800
G1 X108.1405 Y25.3822 Z-2.0000 F800
G1 X102.8393 Y27.6828 Z-2.0000 F800
G1 X97.7700 Y30.0954 Z-2.0000 F800
G1 X92.9278 Y32.6097 Z-2.0000 F800
G1 X88.3080 Y35.2155 Z-2.0000 F800
G1 X83.9060 Y37.9025 Z-2.0000 F800
G1 X79.7169 Y40.6604 Z-2.0000 F800
G1 X75.7362 Y43.4791 Z-2.0000 F800
G1 X71.9590 Y46.3484 Z-2.0000 F800
G1 X68.3808 Y49.2579 Z-2.0000 F800
G1 X64.9970 Y52.1975 Z-2.0000 F800
G1 X61.8029 Y55.1569 Z-2.0000 F800
G1 X58.7939 Y58.1260 Z-2.0000 F800
G1 X55.9655 Y61.0945 Z-2.0000 F800
G1 X53.3130 Y64.0521 Z-2.0000 F800
G1 X50.8320 Y66.9885 Z-2.0000 F800
G1 X48.5179 Y69.8936 Z-2.0000 F800
G1 X46.3662 Y72.7571 Z-2.0000 F800
G1 X44.3723 Y75.5685 Z-2.0000 F800
G1 X42.5317 Y78.3177 Z-2.0000 F800
G1 X40.8400 Y80.9942 Z-2.0000 F800
G1 X39.2926 Y83.5878 Z-2.0000 F800
G1 X37.8851 Y86.0880 Z-2.0000 F800
G1 X36.6129 Y88.4844 Z-2.0000 F800
G1 X35.4716 Y90.7666 Z-2.0000 F800
G1 X34.4567 Y92.9240 Z-2.0000 F800
G1 X33.5638 Y94.9461 Z-2.0000 F800
G1 X32.7884 Y96.8223 Z-2.0000 F800
G1 X32.1260 Y98.5416 Z-2.0000 F800
G1 X31.5724 Y100.0929 Z-2.0000 F800
G1 X31.1232 Y101.4644 Z-2.0000 F800
G1 X30.7743 Y102.6434 Z-2.0000 F800
G1 X30.5219 Y103.6143 Z-2.0000 F800
G1 X30.3700 Y104.3200 Z-2.0000 F800
G0 Z5.000
( -- pass 3/3, Z=-3.0000 -- )
G0 X30.3700 Y104.3200 Z5.0000
G1 Z-3.0000 F300
G1 X30.4668 Y104.3406 Z-3.0000 F800
G1 X30.9531 Y104.4036 Z-3.0000 F800
G1 X31.5561 Y104.4468 Z-3.0000 F800
G1 X32.2614 Y104.4669 Z-3.0000 F800
G1 X33.0581 Y104.4634 Z-3.0000 F800
G1 X33.9380 Y104.4366 Z-3.0000 F800
G1 X34.8936 Y104.3875 Z-3.0000 F800
G1 X35.9188 Y104.3170 Z-3.0000 F800
G1 X37.0076 Y104.2266 Z-3.0000 F800
G1 X38.1546 Y104.1174 Z-3.0000 F800
G1 X39.3543 Y103.9908 Z-3.0000 F800
G1 X40.6017 Y103.8482 Z-3.0000 F800
G1 X41.8917 Y103.6910 Z-3.0000 F800
G1 X43.2194 Y103.5205 Z-3.0000 F800
G1 X44.5799 Y103.3381 Z-3.0000 F800
G1 X45.9684 Y103.1452 Z-3.0000 F800
G1 X47.3801 Y102.9432 Z-3.0000 F800
G1 X48.8101 Y102.7335 Z-3.0000 F800
G1 X50.2538 Y102.5174 Z-3.0000 F800
G1 X51.7064 Y102.2964 Z-3.0000 F800
G1 X53.1631 Y102.0718 Z-3.0000 F800
G1 X54.6194 Y101.8450 Z-3.0000 F800
G1 X56.0705 Y101.6174 Z-3.0000 F800
G1 X57.5117 Y101.3903 Z-3.0000 F800
G1 X58.9386 Y101.1652 Z-3.0000 F800
G1 X60.3464 Y100.9434 Z-3.0000 F800
G1 X61.7287 Y100.7265 Z-3.0000 F800
G1 X61.7305 Y100.7262 Z-3.0000 F800
G1 X63.0836 Y100.5156 Z-3.0000 F800
G1 X63.0863 Y100.5152 Z-3.0000 F800
G1 X64.4055 Y100.3121 Z-3.0000 F800
G1 X64.4091 Y100.3115 Z-3.0000 F800
G1 X65.6897 Y100.1174 Z-3.0000 F800
G1 X65.6944 Y100.1167 Z-3.0000 F800
G1 X66.9318 Y99.9329 Z-3.0000 F800
G1 X66.9378 Y99.9320 Z-3.0000 F800
G1 X68.1273 Y99.7600 Z-3.0000 F800
G1 X68.1347 Y99.7589 Z-3.0000 F800
G1 X69.2717 Y99.6000 Z-3.0000 F800
G1 X69.2810 Y99.5987 Z-3.0000 F800
G1 X70.3607 Y99.4542 Z-3.0000 F800
G1 X70.3722 Y99.4527 Z-3.0000 F800
G1 X71.3900 Y99.3241 Z-3.0000 F800
G1 X71.4044 Y99.3223 Z-3.0000 F800
G1 X72.3557 Y99.2110 Z-3.0000 F800
G1 X72.3739 Y99.2089 Z-3.0000 F800
G1 X73.2539 Y99.1162 Z-3.0000 F800
G1 X73.2772 Y99.1139 Z-3.0000 F800
G1 X74.0813 Y99.0412 Z-3.0000 F800
G1 X74.1119 Y99.0387 Z-3.0000 F800
G1 X74.8354 Y98.9873 Z-3.0000 F800
G1 X74.8768 Y98.9849 Z-3.0000 F800
G1 X75.5150 Y98.9564 Z-3.0000 F800
G1 X75.5732 Y98.9548 Z-3.0000 F800
G1 X76.1215 Y98.9504 Z-3.0000 F800
G1 X76.2081 Y98.9521 Z-3.0000 F800
G1 X76.6618 Y98.9732 Z-3.0000 F800
G1 X76.8012 Y98.9858 Z-3.0000 F800
G1 X77.1557 Y99.0339 Z-3.0000 F800
G1 X77.2289 Y99.0468 Z-3.0000 F800
G1 X77.3056 Y98.9729 Z-3.0000 F800
G1 X77.5450 Y98.7011 Z-3.0000 F800
G1 X77.8271 Y98.3401 Z-3.0000 F800
G1 X78.1418 Y97.8991 Z-3.0000 F800
G1 X78.4830 Y97.3858 Z-3.0000 F800
G1 X78.8468 Y96.8066 Z-3.0000 F800
G1 X79.2307 Y96.1671 Z-3.0000 F800
G1 X79.6325 Y95.4725 Z-3.0000 F800
G1 X80.0507 Y94.7272 Z-3.0000 F800
G1 X80.4839 Y93.9359 Z-3.0000 F800
G1 X80.9310 Y93.1027 Z-3.0000 F800
G1 X81.3909 Y92.2318 Z-3.0000 F800
G1 X81.8625 Y91.3272 Z-3.0000 F800
G1 X82.3450 Y90.3929 Z-3.0000 F800
G1 X82.8375 Y89.4327 Z-3.0000 F800
G1 X83.3390 Y88.4506 Z-3.0000 F800
G1 X83.8489 Y87.4502 Z-3.0000 F800
G1 X84.3664 Y86.4350 Z-3.0000 F800
G1 X84.8892 Y85.4117 Z-3.0000 F800
G1 X84.8905 Y85.4092 Z-3.0000 F800
G1 X85.4186 Y84.3803 Z-3.0000 F800
G1 X85.4205 Y84.3765 Z-3.0000 F800
G1 X85.9530 Y83.3458 Z-3.0000 F800
G1 X85.9555 Y83.3408 Z-3.0000 F800
G1 X86.4916 Y82.3119 Z-3.0000 F800
G1 X86.4949 Y82.3057 Z-3.0000 F800
G1 X87.0338 Y81.2823 Z-3.0000 F800
G1 X87.0378 Y81.2748 Z-3.0000 F800
G1 X87.5788 Y80.2607 Z-3.0000 F800
G1 X87.5836 Y80.2518 Z-3.0000 F800
G1 X88.1258 Y79.2508 Z-3.0000 F800
G1 X88.1315 Y79.2404 Z-3.0000 F800
G1 X88.6742 Y78.2562 Z-3.0000 F800
G1 X88.6810 Y78.2441 Z-3.0000 F800
G1 X89.2234 Y77.2804 Z-3.0000 F800
G1 X89.2313 Y77.2665 Z-3.0000 F800
G1 X89.7726 Y76.3270 Z-3.0000 F800
G1 X89.7819 Y76.3111 Z-3.0000 F800
G1 X90.3213 Y75.3996 Z-3.0000 F800
G1 X90.3323 Y75.3813 Z-3.0000 F800
G1 X90.8690 Y74.5016 Z-3.0000 F800
G1 X90.8820 Y74.4807 Z-3.0000 F800
G1 X91.4153 Y73.6364 Z-3.0000 F800
G1 X91.4308 Y73.6124 Z-3.0000 F800
G1 X91.9598 Y72.8073 Z-3.0000 F800
G1 X91.9783 Y72.7798 Z-3.0000 F800
G1 X92.5022 Y72.0176 Z-3.0000 F800
G1 X92.5246 Y71.9859 Z-3.0000 F800
G1 X93.0427 Y71.2704 Z-3.0000 F800
G1 X93.0701 Y71.2337 Z-3.0000 F800
G1 X93.5816 Y70.5687 Z-3.0000 F800
G1 X93.6155 Y70.5262 Z-3.0000 F800
G1 X94.1195 Y69.9153 Z-3.0000 F800
G1 X94.1621 Y69.8658 Z-3.0000 F800
G1 X94.6579 Y69.3128 Z-3.0000 F800
G1 X94.7121 Y69.2553 Z-3.0000 F800
G1 X95.1990 Y68.7639 Z-3.0000 F800
G1 X95.2693 Y68.6971 Z-3.0000 F800
G1 X95.7463 Y68.2711 Z-3.0000 F800
G1 X95.8390 Y68.1944 Z-3.0000 F800
G1 X96.3055 Y67.8374 Z-3.0000 F800
G1 X96.4295 Y67.7515 Z-3.0000 F800
G1 X96.8846 Y67.4674 Z-3.0000 F800
G1 X97.0517 Y67.3765 Z-3.0000 F800
G1 X97.4947 Y67.1689 Z-3.0000 F800
G1 X97.6046 Y67.1224 Z-3.0000 F800
G1 X97.7177 Y67.0842 Z-3.0000 F800
G1 X98.1478 Y66.9569 Z-3.0000 F800
G1 X98.2897 Y66.9219 Z-3.0000 F800
G1 X98.4343 Y66.9001 Z-3.0000 F800
G1 X98.8505 Y66.8569 Z-3.0000 F800
G1 X99.0279 Y66.8484 Z-3.0000 F800
G1 X99.2050 Y66.8598 Z-3.0000 F800
G1 X99.6228 Y66.9103 Z-3.0000 F800
G1 X99.7866 Y66.9388 Z-3.0000 F800
G1 X99.9465 Y66.9844 Z-3.0000 F800
G1 X100.3809 Y67.1331 Z-3.0000 F800
G1 X100.5031 Y67.1806 Z-3.0000 F800
G1 X100.6208 Y67.2380 Z-3.0000 F800
G1 X101.0708 Y67.4808 Z-3.0000 F800
G1 X101.2418 Y67.5876 Z-3.0000 F800
G1 X101.7062 Y67.9206 Z-3.0000 F800
G1 X101.8279 Y68.0171 Z-3.0000 F800
G1 X102.3057 Y68.4361 Z-3.0000 F800
G1 X102.3938 Y68.5195 Z-3.0000 F800
G1 X102.8840 Y69.0204 Z-3.0000 F800
G1 X102.9492 Y69.0912 Z-3.0000 F800
G1 X103.4508 Y69.6700 Z-3.0000 F800
G1 X103.5002 Y69.7301 Z-3.0000 F800
G1 X104.0120 Y70.3827 Z-3.0000 F800
G1 X104.0504 Y70.4338 Z-3.0000 F800
G1 X104.5713 Y71.1562 Z-3.0000 F800
G1 X104.6017 Y71.2000 Z-3.0000 F800
G1 X105.1307 Y71.9882 Z-3.0000 F800
G1 X105.1553 Y72.0259 Z-3.0000 F800
G1 X105.6913 Y72.8757 Z-3.0000 F800
G1 X105.7115 Y72.9086 Z-3.0000 F800
G1 X106.2534 Y73.8160 Z-3.0000 F800
G1 X106.2702 Y73.8448 Z-3.0000 F800
G1 X106.8171 Y74.8057 Z-3.0000 F800
G1 X106.8313 Y74.8311 Z-3.0000 F800
G1 X107.3820 Y75.8415 Z-3.0000 F800
G1 X107.3941 Y75.8641 Z-3.0000 F800
G1 X107.9476 Y76.9198 Z-3.0000 F800
G1 X107.9580 Y76.9401 Z-3.0000 F800
G1 X108.5132 Y78.0372 Z-3.0000 F800
G1 X108.5223 Y78.0555 Z-3.0000 F800
G1 X109.0780 Y79.1897 Z-3.0000 F800
G1 X109.0860 Y79.2063 Z-3.0000 F800
G1 X109.6414 Y80.3738 Z-3.0000 F800
G1 X109.6485 Y80.3889 Z-3.0000 F800
G1 X110.2023 Y81.5855 Z-3.0000 F800
G1 X110.2087 Y81.5994 Z-3.0000 F800
G1 X110.7599 Y82.8210 Z-3.0000 F800
G1 X110.7656 Y82.8338 Z-3.0000 F800
G1 X111.3133 Y84.0764 Z-3.0000 F800
G1 X111.3184 Y84.0882 Z-3.0000 F800
G1 X111.8614 Y85.3478 Z-3.0000 F800
G1 X111.8661 Y85.3588 Z-3.0000 F800
G1 X112.4033 Y86.6312 Z-3.0000 F800
G1 X112.4075 Y86.6415 Z-3.0000 F800
G1 X112.9379 Y87.9227 Z-3.0000 F800
G1 X112.9419 Y87.9324 Z-3.0000 F800
G1 X113.4643 Y89.2183 Z-3.0000 F800
G1 X113.4680 Y89.2274 Z-3.0000 F800
G1 X113.9815 Y90.5141 Z-3.0000 F800
G1 X113.9849 Y90.5227 Z-3.0000 F800
G1 X114.4884 Y91.8060 Z-3.0000 F800
G1 X114.4916 Y91.8142 Z-3.0000 F800
G1 X114.9840 Y93.0900 Z-3.0000 F800
G1 X114.9870 Y93.0979 Z-3.0000 F800
G1 X115.4673 Y94.3621 Z-3.0000 F800
G1 X115.4701 Y94.3697 Z-3.0000 F800
G1 X115.9372 Y95.6184 Z-3.0000 F800
G1 X115.9399 Y95.6258 Z-3.0000 F800
G1 X116.3927 Y96.8548 Z-3.0000 F800
G1 X116.3953 Y96.8621 Z-3.0000 F800
G1 X116.8327 Y98.0674 Z-3.0000 F800
G1 X116.8352 Y98.0745 Z-3.0000 F800
G1 X117.2562 Y99.2520 Z-3.0000 F800
G1 X117.2587 Y99.2591 Z-3.0000 F800
G1 X117.6622 Y100.4048 Z-3.0000 F800
G1 X117.6647 Y100.4119 Z-3.0000 F800
G1 X118.0496 Y101.5217 Z-3.0000 F800
G1 X118.0521 Y101.5289 Z-3.0000 F800
G1 X118.4175 Y102.5987 Z-3.0000 F800
G1 X118.4200 Y102.6061 Z-3.0000 F800
G1 X118.7646 Y103.6319 Z-3.0000 F800
G1 X118.7672 Y103.6396 Z-3.0000 F800
G1 X119.0901 Y104.6172 Z-3.0000 F800
G1 X119.0928 Y104.6255 Z-3.0000 F800
G1 X119.3929 Y105.5509 Z-3.0000 F800
G1 X119.3957 Y105.5598 Z-3.0000 F800
G1 X119.6720 Y106.4291 Z-3.0000 F800
G1 X119.6751 Y106.4389 Z-3.0000 F800
G1 X119.9263 Y107.2479 Z-3.0000 F800
G1 X119.9298 Y107.2591 Z-3.0000 F800
G1 X120.1551 Y108.0037 Z-3.0000 F800
G1 X120.1590 Y108.0168 Z-3.0000 F800
G1 X120.3572 Y108.6930 Z-3.0000 F800
G1 X120.3618 Y108.7091 Z-3.0000 F800
G1 X120.5319 Y109.3127 Z-3.0000 F800
G1 X120.5375 Y109.3333 Z-3.0000 F800
G1 X120.6784 Y109.8605 Z-3.0000 F800
G1 X120.6856 Y109.8886 Z-3.0000 F800
G1 X120.7826 Y110.2801 Z-3.0000 F800
G1 X121.5117 Y110.4302 Z-3.0000 F800
G1 X122.7972 Y110.6170 Z-3.0000 F800
G1 X124.4530 Y110.8013 Z-3.0000 F800
G1 X126.4477 Y110.9798 Z-3.0000 F800
G1 X128.7581 Y111.1514 Z-3.0000 F800
G1 X131.3643 Y111.3159 Z-3.0000 F800
G1 X134.2475 Y111.4731 Z-3.0000 F800
G1 X137.3897 Y111.6231 Z-3.0000 F800
G1 X140.7735 Y111.7660 Z-3.0000 F800
G1 X144.3814 Y111.9018 Z-3.0000 F800
G1 X148.1961 Y112.0308 Z-3.0000 F800
G1 X152.2005 Y112.1530 Z-3.0000 F800
G1 X156.3775 Y112.2686 Z-3.0000 F800
G1 X160.7100 Y112.3778 Z-3.0000 F800
G1 X165.1811 Y112.4807 Z-3.0000 F800
G1 X169.7736 Y112.5774 Z-3.0000 F800
G1 X174.4705 Y112.6681 Z-3.0000 F800
G1 X179.2550 Y112.7530 Z-3.0000 F800
G1 X184.1100 Y112.8323 Z-3.0000 F800
G1 X189.0185 Y112.9060 Z-3.0000 F800
G1 X193.9636 Y112.9743 Z-3.0000 F800
G1 X198.9283 Y113.0375 Z-3.0000 F800
G1 X203.8956 Y113.0956 Z-3.0000 F800
G1 X208.8487 Y113.1488 Z-3.0000 F800
G1 X213.7704 Y113.1973 Z-3.0000 F800
G1 X218.6439 Y113.2412 Z-3.0000 F800
G1 X223.4523 Y113.2806 Z-3.0000 F800
G1 X228.1785 Y113.3159 Z-3.0000 F800
G1 X232.8056 Y113.3470 Z-3.0000 F800
G1 X237.3167 Y113.3741 Z-3.0000 F800
G1 X241.6948 Y113.3975 Z-3.0000 F800
G1 X245.9230 Y113.4173 Z-3.0000 F800
G1 X249.9842 Y113.4336 Z-3.0000 F800
G1 X253.8616 Y113.4465 Z-3.0000 F800
G1 X257.5382 Y113.4563 Z-3.0000 F800
G1 X260.9970 Y113.4631 Z-3.0000 F800
G1 X264.2210 Y113.4671 Z-3.0000 F800
G1 X267.1934 Y113.4684 Z-3.0000 F800
G1 X269.8969 Y113.4672 Z-3.0000 F800
G1 X272.3147 Y113.4636 Z-3.0000 F800
G1 X274.4295 Y113.4578 Z-3.0000 F800
G1 X276.2242 Y113.4499 Z-3.0000 F800
G1 X277.6808 Y113.4402 Z-3.0000 F800
G1 X278.7802 Y113.4288 Z-3.0000 F800
G1 X279.3263 Y113.4191 Z-3.0000 F800
G1 X279.4757 Y113.2240 Z-3.0000 F800
G1 X279.7307 Y112.8510 Z-3.0000 F800
G1 X280.0283 Y112.3799 Z-3.0000 F800
G1 X280.3614 Y111.8211 Z-3.0000 F800
G1 X280.7257 Y111.1824 Z-3.0000 F800
G1 X281.1184 Y110.4702 Z-3.0000 F800
G1 X281.5371 Y109.6902 Z-3.0000 F800
G1 X281.9802 Y108.8477 Z-3.0000 F800
G1 X282.4458 Y107.9475 Z-3.0000 F800
G1 X282.9324 Y106.9944 Z-3.0000 F800
G1 X283.4388 Y105.9930 Z-3.0000 F800
G1 X283.9635 Y104.9478 Z-3.0000 F800
G1 X284.5051 Y103.8633 Z-3.0000 F800
G1 X285.0624 Y102.7438 Z-3.0000 F800
G1 X285.6342 Y101.5937 Z-3.0000 F800
G1 X286.2192 Y100.4170 Z-3.0000 F800
G1 X286.8153 Y99.2202 Z-3.0000 F800
G1 X286.8162 Y99.2185 Z-3.0000 F800
G1 X287.4226 Y98.0049 Z-3.0000 F800
G1 X287.4239 Y98.0023 Z-3.0000 F800
G1 X288.0392 Y96.7762 Z-3.0000 F800
G1 X288.0409 Y96.7728 Z-3.0000 F800
G1 X288.6641 Y95.5385 Z-3.0000 F800
G1 X288.6662 Y95.5344 Z-3.0000 F800
G1 X289.2960 Y94.2961 Z-3.0000 F800
G1 X289.2986 Y94.2911 Z-3.0000 F800
G1 X289.9337 Y93.0531 Z-3.0000 F800
G1 X289.9368 Y93.0472 Z-3.0000 F800
G1 X290.5761 Y91.8139 Z-3.0000 F800
G1 X290.5796 Y91.8071 Z-3.0000 F800
G1 X291.2218 Y90.5826 Z-3.0000 F800
G1 X291.2259 Y90.5748 Z-3.0000 F800
G1 X291.8699 Y89.3634 Z-3.0000 F800
G1 X291.8746 Y89.3546 Z-3.0000 F800
G1 X292.5190 Y88.1606 Z-3.0000 F800
G1 X292.5245 Y88.1506 Z-3.0000 F800
G1 X293.1681 Y86.9783 Z-3.0000 F800
G1 X293.1744 Y86.9669 Z-3.0000 F800
G1 X293.8161 Y85.8207 Z-3.0000 F800
G1 X293.8234 Y85.8078 Z-3.0000 F800
G1 X294.4618 Y84.6917 Z-3.0000 F800
G1 X294.4703 Y84.6772 Z-3.0000 F800
G1 X295.1043 Y83.5956 Z-3.0000 F800
G1 X295.1141 Y83.5791 Z-3.0000 F800
G1 X295.7426 Y82.5364 Z-3.0000 F800
G1 X295.7541 Y82.5176 Z-3.0000 F800
G1 X296.3756 Y81.5179 Z-3.0000 F800
G1 X296.3892 Y81.4964 Z-3.0000 F800
G1 X297.0026 Y80.5441 Z-3.0000 F800
G1 X297.0188 Y80.5195 Z-3.0000 F800
G1 X297.6230 Y79.6188 Z-3.0000 F800
G1 X297.6424 Y79.5904 Z-3.0000 F800
G1 X298.2360 Y78.7456 Z-3.0000 F800
G1 X298.2598 Y78.7127 Z-3.0000 F800
G1 X298.8416 Y77.9280 Z-3.0000 F800
G1 X298.8710 Y77.8896 Z-3.0000 F800
G1 X299.4399 Y77.1694 Z-3.0000 F800
G1 X299.4769 Y77.1243 Z-3.0000 F800
G1 X300.0315 Y76.4728 Z-3.0000 F800
G1 X300.0790 Y76.4195 Z-3.0000 F800
G1 X300.6183 Y75.8410 Z-3.0000 F800
G1 X300.6806 Y75.7778 Z-3.0000 F800
G1 X301.2032 Y75.2765 Z-3.0000 F800
G1 X301.2871 Y75.2016 Z-3.0000 F800
G1 X301.7918 Y74.7819 Z-3.0000 F800
G1 X301.9074 Y74.6944 Z-3.0000 F800
G1 X302.3930 Y74.3605 Z-3.0000 F800
G1 X302.5556 Y74.2625 Z-3.0000 F800
G1 X303.0209 Y74.0187 Z-3.0000 F800
G1 X303.1341 Y73.9650 Z-3.0000 F800
G1 X303.2511 Y73.9204 Z-3.0000 F800
G1 X303.6948 Y73.7710 Z-3.0000 F800
G1 X303.8512 Y73.7271 Z-3.0000 F800
G1 X304.0113 Y73.6995 Z-3.0000 F800
G1 X304.4323 Y73.6487 Z-3.0000 F800
G1 X304.6086 Y73.6374 Z-3.0000 F800
G1 X304.7852 Y73.6457 Z-3.0000 F800
G1 X305.1927 Y73.6877 Z-3.0000 F800
G1 X305.3451 Y73.7109 Z-3.0000 F800
G1 X305.4945 Y73.7489 Z-3.0000 F800
G1 X305.8988 Y73.8726 Z-3.0000 F800
G1 X306.0257 Y73.9174 Z-3.0000 F800
G1 X306.1483 Y73.9728 Z-3.0000 F800
G1 X306.5493 Y74.1748 Z-3.0000 F800
G1 X306.7419 Y74.2895 Z-3.0000 F800
G1 X307.1396 Y74.5662 Z-3.0000 F800
G1 X307.2833 Y74.6790 Z-3.0000 F800
G1 X307.6775 Y75.0269 Z-3.0000 F800
G1 X307.7837 Y75.1299 Z-3.0000 F800
G1 X308.1743 Y75.5454 Z-3.0000 F800
G1 X308.2532 Y75.6360 Z-3.0000 F800
G1 X308.6401 Y76.1157 Z-3.0000 F800
G1 X308.6994 Y76.1940 Z-3.0000 F800
G1 X309.0827 Y76.7344 Z-3.0000 F800
G1 X309.1279 Y76.8017 Z-3.0000 F800
G1 X309.5073 Y77.3992 Z-3.0000 F800
G1 X309.5424 Y77.4571 Z-3.0000 F800
G1 X309.9180 Y78.1082 Z-3.0000 F800
G1 X309.9455 Y78.1581 Z-3.0000 F800
G1 X310.3172 Y78.8593 Z-3.0000 F800
G1 X310.3392 Y78.9024 Z-3.0000 F800
G1 X310.7068 Y79.6503 Z-3.0000 F800
G1 X310.7246 Y79.6877 Z-3.0000 F800
G1 X311.0881 Y80.4786 Z-3.0000 F800
G1 X311.1026 Y80.5112 Z-3.0000 F800
G1 X311.4620 Y81.3417 Z-3.0000 F800
G1 X311.4739 Y81.3702 Z-3.0000 F800
G1 X311.8290 Y82.2368 Z-3.0000 F800
G1 X311.8390 Y82.2618 Z-3.0000 F800
G1 X312.1898 Y83.1610 Z-3.0000 F800
G1 X312.1981 Y83.1830 Z-3.0000 F800
G1 X312.5444 Y84.1112 Z-3.0000 F800
G1 X312.5515 Y84.1305 Z-3.0000 F800
G1 X312.8933 Y85.0843 Z-3.0000 F800
G1 X312.8993 Y85.1013 Z-3.0000 F800
G1 X313.2366 Y86.0771 Z-3.0000 F800
G1 X313.2417 Y86.0921 Z-3.0000 F800
G1 X313.5742 Y87.0863 Z-3.0000 F800
G1 X313.5786 Y87.0995 Z-3.0000 F800
G1 X313.9064 Y88.1088 Z-3.0000 F800
G1 X313.9101 Y88.1202 Z-3.0000 F800
G1 X314.2331 Y89.1410 Z-3.0000 F800
G1 X314.2362 Y89.1510 Z-3.0000 F800
G1 X314.5544 Y90.1797 Z-3.0000 F800
G1 X314.5570 Y90.1882 Z-3.0000 F800
G1 X314.8702 Y91.2214 Z-3.0000 F800
G1 X314.8723 Y91.2286 Z-3.0000 F800
G1 X315.1804 Y92.2627 Z-3.0000 F800
G1 X315.1822 Y92.2687 Z-3.0000 F800
G1 X315.4852 Y93.3002 Z-3.0000 F800
G1 X315.4865 Y93.3049 Z-3.0000 F800
G1 X315.7843 Y94.3304 Z-3.0000 F800
G1 X315.7853 Y94.3339 Z-3.0000 F800
G1 X316.0778 Y95.3498 Z-3.0000 F800
G1 X316.0785 Y95.3520 Z-3.0000 F800
G1 X316.3659 Y96.3558 Z-3.0000 F800
G1 X316.6475 Y97.3419 Z-3.0000 F800
G1 X316.9233 Y98.3069 Z-3.0000 F800
G1 X317.1932 Y99.2468 Z-3.0000 F800
G1 X317.4569 Y100.1580 Z-3.0000 F800
G1 X317.7142 Y101.0367 Z-3.0000 F800
G1 X317.9651 Y101.8792 Z-3.0000 F800
G1 X318.2093 Y102.6815 Z-3.0000 F800
G1 X318.4465 Y103.4397 Z-3.0000 F800
G1 X318.6762 Y104.1496 Z-3.0000 F800
G1 X318.8981 Y104.8068 Z-3.0000 F800
G1 X319.1113 Y105.4063 Z-3.0000 F800
G1 X319.3145 Y105.9428 Z-3.0000 F800
G1 X319.5059 Y106.4098 Z-3.0000 F800
G1 X319.6819 Y106.7993 Z-3.0000 F800
G1 X319.8361 Y107.1002 Z-3.0000 F800
G1 X319.9097 Y107.2221 Z-3.0000 F800
G1 X320.0416 Y107.2487 Z-3.0000 F800
G1 X320.4767 Y107.3292 Z-3.0000 F800
G1 X321.0256 Y107.4256 Z-3.0000 F800
G1 X321.6793 Y107.5361 Z-3.0000 F800
G1 X322.4311 Y107.6599 Z-3.0000 F800
G1 X323.2748 Y107.7961 Z-3.0000 F800
G1 X324.2048 Y107.9437 Z-3.0000 F800
G1 X325.2156 Y108.1021 Z-3.0000 F800
G1 X326.3018 Y108.2705 Z-3.0000 F800
G1 X327.4580 Y108.4481 Z-3.0000 F800
G1 X328.6789 Y108.6342 Z-3.0000 F800
G1 X329.9592 Y108.8281 Z-3.0000 F800
G1 X331.2937 Y109.0291 Z-3.0000 F800
G1 X332.6770 Y109.2363 Z-3.0000 F800
G1 X334.1041 Y109.4492 Z-3.0000 F800
G1 X335.5695 Y109.6668 Z-3.0000 F800
G1 X337.0682 Y109.8887 Z-3.0000 F800
G1 X338.5947 Y110.1139 Z-3.0000 F800
G1 X340.1440 Y110.3418 Z-3.0000 F800
G1 X341.7107 Y110.5717 Z-3.0000 F800
G1 X343.2897 Y110.8028 Z-3.0000 F800
G1 X344.8757 Y111.0344 Z-3.0000 F800
G1 X346.4635 Y111.2658 Z-3.0000 F800
G1 X348.0479 Y111.4962 Z-3.0000 F800
G1 X349.6235 Y111.7250 Z-3.0000 F800
G1 X351.1853 Y111.9514 Z-3.0000 F800
G1 X352.7280 Y112.1746 Z-3.0000 F800
G1 X354.2464 Y112.3941 Z-3.0000 F800
G1 X355.7351 Y112.6089 Z-3.0000 F800
G1 X357.1891 Y112.8185 Z-3.0000 F800
G1 X358.6031 Y113.0221 Z-3.0000 F800
G1 X359.9718 Y113.2190 Z-3.0000 F800
G1 X361.2901 Y113.4083 Z-3.0000 F800
G1 X362.5527 Y113.5895 Z-3.0000 F800
G1 X363.7544 Y113.7619 Z-3.0000 F800
G1 X364.8899 Y113.9245 Z-3.0000 F800
G1 X365.9541 Y114.0769 Z-3.0000 F800
G1 X366.9418 Y114.2181 Z-3.0000 F800
G1 X367.8476 Y114.3476 Z-3.0000 F800
G1 X368.6664 Y114.4645 Z-3.0000 F800
G1 X368.7440 Y114.4756 Z-3.0000 F800
G1 X368.5083 Y113.8609 Z-3.0000 F800
G1 X367.9973 Y112.5502 Z-3.0000 F800
G1 X367.3924 Y111.0396 Z-3.0000 F800
G1 X366.6881 Y109.3389 Z-3.0000 F800
G1 X365.8793 Y107.4583 Z-3.0000 F800
G1 X364.9611 Y105.4085 Z-3.0000 F800
G1 X363.9284 Y103.2003 Z-3.0000 F800
G1 X362.7763 Y100.8446 Z-3.0000 F800
G1 X361.4999 Y98.3522 Z-3.0000 F800
G1 X360.0943 Y95.7341 Z-3.0000 F800
G1 X358.5547 Y93.0015 Z-3.0000 F800
G1 X356.8761 Y90.1652 Z-3.0000 F800
G1 X355.0537 Y87.2362 Z-3.0000 F800
G1 X353.0826 Y84.2257 Z-3.0000 F800
G1 X350.9580 Y81.1445 Z-3.0000 F800
G1 X348.6750 Y78.0037 Z-3.0000 F800
G1 X346.2287 Y74.8143 Z-3.0000 F800
G1 X343.6142 Y71.5873 Z-3.0000 F800
G1 X340.8267 Y68.3337 Z-3.0000 F800
G1 X337.8612 Y65.0643 Z-3.0000 F800
G1 X334.7130 Y61.7902 Z-3.0000 F800
G1 X331.3769 Y58.5224 Z-3.0000 F800
G1 X327.8482 Y55.2717 Z-3.0000 F800
G1 X324.1219 Y52.0491 Z-3.0000 F800
G1 X320.1929 Y48.8655 Z-3.0000 F800
G1 X316.0564 Y45.7319 Z-3.0000 F800
G1 X311.7073 Y42.6592 Z-3.0000 F800
G1 X307.1406 Y39.6583 Z-3.0000 F800
G1 X302.3513 Y36.7401 Z-3.0000 F800
G1 X297.3343 Y33.9156 Z-3.0000 F800
G1 X292.0844 Y31.1957 Z-3.0000 F800
G1 X286.5967 Y28.5915 Z-3.0000 F800
G1 X280.8659 Y26.1138 Z-3.0000 F800
G1 X274.8870 Y23.7738 Z-3.0000 F800
G1 X268.6549 Y21.5823 Z-3.0000 F800
G1 X262.1643 Y19.5506 Z-3.0000 F800
G1 X255.4102 Y17.6895 Z-3.0000 F800
G1 X248.3875 Y16.0104 Z-3.0000 F800
G1 X241.0909 Y14.5241 Z-3.0000 F800
G1 X233.5155 Y13.2420 Z-3.0000 F800
G1 X225.6561 Y12.1751 Z-3.0000 F800
G1 X217.5077 Y11.3346 Z-3.0000 F800
G1 X209.0651 Y10.7316 Z-3.0000 F800
G1 X200.3226 Y10.3774 Z-3.0000 F800
G1 X191.5754 Y10.2783 Z-3.0000 F800
G1 X183.1208 Y10.4264 Z-3.0000 F800
G1 X174.9549 Y10.8112 Z-3.0000 F800
G1 X167.0731 Y11.4223 Z-3.0000 F800
G1 X159.4706 Y12.2492 Z-3.0000 F800
G1 X152.1427 Y13.2815 Z-3.0000 F800
G1 X145.0848 Y14.5086 Z-3.0000 F800
G1 X138.2921 Y15.9203 Z-3.0000 F800
G1 X131.7599 Y17.5060 Z-3.0000 F800
G1 X125.4833 Y19.2554 Z-3.0000 F800
G1 X119.4578 Y21.1582 Z-3.0000 F800
G1 X113.6785 Y23.2039 Z-3.0000 F800
G1 X108.1405 Y25.3822 Z-3.0000 F800
G1 X102.8393 Y27.6828 Z-3.0000 F800
G1 X97.7700 Y30.0954 Z-3.0000 F800
G1 X92.9278 Y32.6097 Z-3.0000 F800
G1 X88.3080 Y35.2155 Z-3.0000 F800
G1 X83.9060 Y37.9025 Z-3.0000 F800
G1 X79.7169 Y40.6604 Z-3.0000 F800
G1 X75.7362 Y43.4791 Z-3.0000 F800
G1 X71.9590 Y46.3484 Z-3.0000 F800
G1 X68.3808 Y49.2579 Z-3.0000 F800
G1 X64.9970 Y52.1975 Z-3.0000 F800
G1 X61.8029 Y55.1569 Z-3.0000 F800
G1 X58.7939 Y58.1260 Z-3.0000 F800
G1 X55.9655 Y61.0945 Z-3.0000 F800
G1 X53.3130 Y64.0521 Z-3.0000 F800
G1 X50.8320 Y66.9885 Z-3.0000 F800
G1 X48.5179 Y69.8936 Z-3.0000 F800
G1 X46.3662 Y72.7571 Z-3.0000 F800
G1 X44.3723 Y75.5685 Z-3.0000 F800
G1 X42.5317 Y78.3177 Z-3.0000 F800
G1 X40.8400 Y80.9942 Z-3.0000 F800
G1 X39.2926 Y83.5878 Z-3.0000 F800
G1 X37.8851 Y86.0880 Z-3.0000 F800
G1 X36.6129 Y88.4844 Z-3.0000 F800
G1 X35.4716 Y90.7666 Z-3.0000 F800
G1 X34.4567 Y92.9240 Z-3.0000 F800
G1 X33.5638 Y94.9461 Z-3.0000 F800
G1 X32.7884 Y96.8223 Z-3.0000 F800
G1 X32.1260 Y98.5416 Z-3.0000 F800
G1 X31.5724 Y100.0929 Z-3.0000 F800
G1 X31.1232 Y101.4644 Z-3.0000 F800
G1 X30.7743 Y102.6434 Z-3.0000 F800
G1 X30.5219 Y103.6143 Z-3.0000 F800
G1 X30.3700 Y104.3200 Z-3.0000 F800
G0 Z5.000
G0 Z5.000
M5
M2
