( Eyebrows - cutout (outside offset, through-cut with tabs) )
( Origin: true bottom-left corner of the 18x12.5in stock )
( Zero the machine at that corner before running this file )
G21 ( mm )
G90 ( absolute )
M3 S12000 ( ignored if spindle speed is set manually )
G0 Z5.000

( -- pass 11/14, target Z=-10.3714 -- )
( eyebrow 1/2 )
G0 X67.9829 Y168.1164 Z5.0000
G1 Z-10.3714 F300
G1 X71.6911 Y167.3054 Z-10.3714 F300
G1 X71.7375 Y167.2937 Z-10.3714 F300
G1 X75.3239 Y166.2658 Z-10.3714 F300
G1 X75.3690 Y166.2513 Z-10.3714 F300
G1 X78.8354 Y165.0161 Z-10.3714 F300
G1 X78.8787 Y164.9991 Z-10.3714 F300
G1 X82.2270 Y163.5662 Z-10.3714 F300
G1 X82.2681 Y163.5471 Z-10.3714 F300
G1 X85.5002 Y161.9262 Z-10.3714 F300
G1 X85.5389 Y161.9053 Z-10.3714 F300
G1 X88.6566 Y160.1059 Z-10.3714 F300
G1 X88.6926 Y160.0838 Z-10.3714 F300
G1 X91.6979 Y158.1155 Z-10.3714 F300
G1 X91.7312 Y158.0924 Z-10.3714 F300
G1 X94.6259 Y155.9650 Z-10.3714 F300
G1 X94.6563 Y155.9413 Z-10.3714 F300
G1 X97.4423 Y153.6643 Z-10.3714 F300
G1 X97.4701 Y153.6404 Z-10.3714 F300
G1 X100.1493 Y151.2233 Z-10.3714 F300
G1 X100.1744 Y151.1995 Z-10.3714 F300
G1 X102.7487 Y148.6521 Z-10.3714 F300
G1 X102.7714 Y148.6286 Z-10.3714 F300
G1 X105.2425 Y145.9603 Z-10.3714 F300
G1 X105.2630 Y145.9373 Z-10.3714 F300
G1 X107.6329 Y143.1579 Z-10.3714 F300
G1 X107.6513 Y143.1355 Z-10.3714 F300
G1 X109.9219 Y140.2545 Z-10.3714 F300
G1 X109.9384 Y140.2329 Z-10.3714 F300
G1 X112.1116 Y137.2600 Z-10.3714 F300
G1 X112.1263 Y137.2391 Z-10.3714 F300
G1 X114.2040 Y134.1839 Z-10.3714 F300
G1 X114.2171 Y134.1638 Z-10.3714 F300
G1 X116.2011 Y131.0359 Z-10.3714 F300
G1 X116.2129 Y131.0167 Z-10.3714 F300
G1 X118.1051 Y127.8256 Z-10.3714 F300
G1 X118.1156 Y127.8073 Z-10.3714 F300
G1 X119.9178 Y124.5627 Z-10.3714 F300
G1 X119.9273 Y124.5452 Z-10.3714 F300
G1 X121.6415 Y121.2567 Z-10.3714 F300
G1 X121.6499 Y121.2400 Z-10.3714 F300
G1 X123.2780 Y117.9173 Z-10.3714 F300
G1 X123.2855 Y117.9014 Z-10.3714 F300
G1 X124.8293 Y114.5541 Z-10.3714 F300
G1 X124.8361 Y114.5389 Z-10.3714 F300
G1 X126.2974 Y111.1765 Z-10.3714 F300
G1 X126.3035 Y111.1621 Z-10.3714 F300
G1 X127.6843 Y107.7942 Z-10.3714 F300
G1 X127.6898 Y107.7805 Z-10.3714 F300
G1 X128.9920 Y104.4168 Z-10.3714 F300
G1 X128.9969 Y104.4037 Z-10.3714 F300
G1 X130.2223 Y101.0538 Z-10.3714 F300
G1 X130.2267 Y101.0413 Z-10.3714 F300
G1 X131.3772 Y97.7149 Z-10.3714 F300
G1 X131.3812 Y97.7029 Z-10.3714 F300
G1 X132.4587 Y94.4095 Z-10.3714 F300
G1 X132.4623 Y94.3981 Z-10.3714 F300
G1 X133.4687 Y91.1473 Z-10.3714 F300
G1 X133.4719 Y91.1363 Z-10.3714 F300
G1 X134.4090 Y87.9378 Z-10.3714 F300
G1 X134.4120 Y87.9273 Z-10.3714 F300
G1 X135.2817 Y84.7906 Z-10.3714 F300
G1 X135.2844 Y84.7805 Z-10.3714 F300
G1 X136.0885 Y81.7153 Z-10.3714 F300
G1 X136.0910 Y81.7056 Z-10.3714 F300
G1 X136.8315 Y78.7214 Z-10.3714 F300
G1 X136.8338 Y78.7121 Z-10.3714 F300
G1 X137.5125 Y75.8186 Z-10.3714 F300
G1 X137.5146 Y75.8096 Z-10.3714 F300
G1 X138.1335 Y73.0164 Z-10.3714 F300
G1 X138.1354 Y73.0076 Z-10.3714 F300
G1 X138.6963 Y70.3244 Z-10.3714 F300
G1 X138.6980 Y70.3158 Z-10.3714 F300
G1 X139.2028 Y67.7521 Z-10.3714 F300
G1 X139.2044 Y67.7437 Z-10.3714 F300
G1 X139.6550 Y65.3091 Z-10.3714 F300
G1 X139.6564 Y65.3008 Z-10.3714 F300
G1 X140.0546 Y63.0050 Z-10.3714 F300
G1 X140.0560 Y62.9967 Z-10.3714 F300
G1 X140.4037 Y60.8493 Z-10.3714 F300
G1 X140.4050 Y60.8409 Z-10.3714 F300
G1 X140.7041 Y58.8514 Z-10.3714 F300
G1 X140.7053 Y58.8428 Z-10.3714 F300
G1 X140.9577 Y57.0210 Z-10.3714 F300
G1 X140.9589 Y57.0120 Z-10.3714 F300
G1 X141.1664 Y55.3673 Z-10.3714 F300
G1 X141.1675 Y55.3575 Z-10.3714 F300
G1 X141.3320 Y53.8997 Z-10.3714 F300
G1 X141.3332 Y53.8886 Z-10.3714 F300
G1 X141.4566 Y52.6272 Z-10.3714 F300
G1 X141.4578 Y52.6138 Z-10.3714 F300
G1 X141.5420 Y51.5584 Z-10.3714 F300
G1 X141.5432 Y51.5405 Z-10.3714 F300
G1 X141.5901 Y50.7008 Z-10.3714 F300
G1 X141.5912 Y50.6729 Z-10.3714 F300
G1 X141.6026 Y50.0585 Z-10.3714 F300
G1 X141.6025 Y50.0263 Z-10.3714 F300
G1 X141.5906 Y49.5365 Z-10.3714 F300
G1 X141.5898 Y49.5167 Z-10.3714 F300
G1 X141.5658 Y49.0441 Z-10.3714 F300
G1 X141.5645 Y49.0238 Z-10.3714 F300
G1 X141.5290 Y48.5682 Z-10.3714 F300
G1 X141.5271 Y48.5475 Z-10.3714 F300
G1 X141.4806 Y48.1086 Z-10.3714 F300
G1 X141.4780 Y48.0874 Z-10.3714 F300
G1 X141.4211 Y47.6649 Z-10.3714 F300
G1 X141.4178 Y47.6432 Z-10.3714 F300
G1 X141.3509 Y47.2368 Z-10.3714 F300
G1 X141.3469 Y47.2148 Z-10.3714 F300
G1 X141.2706 Y46.8242 Z-10.3714 F300
G1 X141.2659 Y46.8019 Z-10.3714 F300
G1 X141.1806 Y46.4268 Z-10.3714 F300
G1 X141.1751 Y46.4042 Z-10.3714 F300
G1 X141.0815 Y46.0442 Z-10.3714 F300
G1 X141.0752 Y46.0215 Z-10.3714 F300
G1 X140.9738 Y45.6764 Z-10.3714 F300
G1 X140.9667 Y45.6536 Z-10.3714 F300
G1 X140.8580 Y45.3231 Z-10.3714 F300
G1 X140.8500 Y45.3002 Z-10.3714 F300
G1 X140.7345 Y44.9840 Z-10.3714 F300
G1 X140.7257 Y44.9611 Z-10.3714 F300
G1 X140.6040 Y44.6589 Z-10.3714 F300
G1 X140.5944 Y44.6361 Z-10.3714 F300
G1 X140.4669 Y44.3476 Z-10.3714 F300
G1 X140.4565 Y44.3250 Z-10.3714 F300
G1 X140.3239 Y44.0499 Z-10.3714 F300
G1 X140.3126 Y44.0275 Z-10.3714 F300
G1 X140.1753 Y43.7655 Z-10.3714 F300
G1 X140.1633 Y43.7434 Z-10.3714 F300
G1 X140.0220 Y43.4942 Z-10.3714 F300
G1 X140.0092 Y43.4726 Z-10.3714 F300
G1 X139.8642 Y43.2359 Z-10.3714 F300
G1 X139.8508 Y43.2148 Z-10.3714 F300
G1 X139.7028 Y42.9902 Z-10.3714 F300
G1 X139.6887 Y42.9696 Z-10.3714 F300
G1 X139.5382 Y42.7570 Z-10.3714 F300
G1 X139.5235 Y42.7370 Z-10.3714 F300
G1 X139.3710 Y42.5359 Z-10.3714 F300
G1 X139.3558 Y42.5166 Z-10.3714 F300
G1 X139.2018 Y42.3269 Z-10.3714 F300
G1 X139.1862 Y42.3083 Z-10.3714 F300
G1 X139.0312 Y42.1295 Z-10.3714 F300
G1 X139.0152 Y42.1116 Z-10.3714 F300
G1 X138.8599 Y41.9435 Z-10.3714 F300
G1 X138.8436 Y41.9264 Z-10.3714 F300
G1 X138.6883 Y41.7687 Z-10.3714 F300
G1 X138.6718 Y41.7524 Z-10.3714 F300
G1 X138.5172 Y41.6048 Z-10.3714 F300
G1 X138.5004 Y41.5893 Z-10.3714 F300
G1 X138.3470 Y41.4515 Z-10.3714 F300
G1 X138.3302 Y41.4368 Z-10.3714 F300
G1 X138.1784 Y41.3085 Z-10.3714 F300
G1 X138.1616 Y41.2946 Z-10.3714 F300
G1 X138.0121 Y41.1754 Z-10.3714 F300
G1 X137.9952 Y41.1624 Z-10.3714 F300
G1 X137.8485 Y41.0521 Z-10.3714 F300
G1 X137.8316 Y41.0398 Z-10.3714 F300
G1 X137.6882 Y40.9381 Z-10.3714 F300
G1 X137.6715 Y40.9266 Z-10.3714 F300
G1 X137.5319 Y40.8332 Z-10.3714 F300
G1 X137.5153 Y40.8224 Z-10.3714 F300
G1 X137.3801 Y40.7370 Z-10.3714 F300
G1 X137.3637 Y40.7269 Z-10.3714 F300
G1 X137.2333 Y40.6492 Z-10.3714 F300
G1 X137.2172 Y40.6398 Z-10.3714 F300
G1 X137.0922 Y40.5695 Z-10.3714 F300
G1 X137.0763 Y40.5608 Z-10.3714 F300
G1 X136.9573 Y40.4975 Z-10.3714 F300
G1 X136.9417 Y40.4895 Z-10.3714 F300
G1 X136.8292 Y40.4330 Z-10.3714 F300
G1 X136.8139 Y40.4255 Z-10.3714 F300
G1 X136.7083 Y40.3755 Z-10.3714 F300
G1 X136.6933 Y40.3686 Z-10.3714 F300
G1 X136.5954 Y40.3248 Z-10.3714 F300
G1 X136.5807 Y40.3184 Z-10.3714 F300
G1 X136.4908 Y40.2805 Z-10.3714 F300
G1 X136.4764 Y40.2747 Z-10.3714 F300
G1 X136.3951 Y40.2423 Z-10.3714 F300
G1 X136.3811 Y40.2369 Z-10.3714 F300
G1 X136.3089 Y40.2099 Z-10.3714 F300
G1 X136.2953 Y40.2049 Z-10.3714 F300
G1 X136.2328 Y40.1829 Z-10.3714 F300
G1 X136.2195 Y40.1783 Z-10.3714 F300
G1 X136.1672 Y40.1609 Z-10.3714 F300
G1 X136.1543 Y40.1568 Z-10.3714 F300
G1 X136.1127 Y40.1438 Z-10.3714 F300
G1 X136.1002 Y40.1400 Z-10.3714 F300
G1 X136.0698 Y40.1311 Z-10.3714 F300
G1 X136.0578 Y40.1277 Z-10.3714 F300
G1 X136.0411 Y40.1231 Z-10.3714 F300
G1 X92.9343 Y26.8136 Z-10.3714 F300
G1 X92.8619 Y26.7951 Z-10.3714 F300
G1 X92.7880 Y26.7839 Z-10.3714 F300
G1 X92.7134 Y26.7802 Z-10.3714 F300
G1 X92.6388 Y26.7839 Z-10.3714 F300
G1 X92.5649 Y26.7949 Z-10.3714 F300
G1 X92.4925 Y26.8133 Z-10.3714 F300
G1 X92.4223 Y26.8388 Z-10.3714 F300
G1 X92.3549 Y26.8712 Z-10.3714 F300
G1 X92.2911 Y26.9101 Z-10.3714 F300
G1 X92.2315 Y26.9551 Z-10.3714 F300
G1 X92.1767 Y27.0059 Z-10.3714 F300
G1 X92.1272 Y27.0618 Z-10.3714 F300
G1 X92.0835 Y27.1225 Z-10.3714 F300
G1 X92.0461 Y27.1871 Z-10.3714 F300
G1 X92.0153 Y27.2552 Z-10.3714 F300
G1 X91.9914 Y27.3259 Z-10.3714 F300
G1 X91.9746 Y27.3988 Z-10.3714 F300
G1 X67.0843 Y167.2523 Z-10.3714 F300
G1 X67.0750 Y167.3253 Z-10.3714 F300
G1 X67.0728 Y167.3988 Z-10.3714 F300
G1 X67.0779 Y167.4722 Z-10.3714 F300
G1 X67.0902 Y167.5447 Z-10.3714 F300
G1 X67.1095 Y167.6157 Z-10.3714 F300
G1 X67.1356 Y167.6845 Z-10.3714 F300
G1 X67.1684 Y167.7503 Z-10.3714 F300
G1 X67.2074 Y167.8126 Z-10.3714 F300
G1 X67.2524 Y167.8708 Z-10.3714 F300
G1 X67.3029 Y167.9244 Z-10.3714 F300
G1 X67.3583 Y167.9727 Z-10.3714 F300
G1 X67.4182 Y168.0153 Z-10.3714 F300
G1 X67.4820 Y168.0519 Z-10.3714 F300
G1 X67.5491 Y168.0821 Z-10.3714 F300
G1 X67.6189 Y168.1055 Z-10.3714 F300
G1 X67.6905 Y168.1220 Z-10.3714 F300
G1 X67.7635 Y168.1314 Z-10.3714 F300
G1 X67.8370 Y168.1336 Z-10.3714 F300
G1 X67.9104 Y168.1286 Z-10.3714 F300
G1 X67.9829 Y168.1164 Z-10.3714 F300
G0 Z5.000
( eyebrow 2/2 )
G0 X0.1602 Y-0.7327 Z5.0000
G1 Z-10.3714 F300
G1 X0.0877 Y-0.7449 Z-10.3714 F300
G1 X0.0143 Y-0.7499 Z-10.3714 F300
G1 X-0.0592 Y-0.7477 Z-10.3714 F300
G1 X-0.1322 Y-0.7383 Z-10.3714 F300
G1 X-0.2038 Y-0.7218 Z-10.3714 F300
G1 X-0.2736 Y-0.6983 Z-10.3714 F300
G1 X-0.3406 Y-0.6682 Z-10.3714 F300
G1 X-0.4045 Y-0.6316 Z-10.3714 F300
G1 X-0.4644 Y-0.5889 Z-10.3714 F300
G1 X-0.5198 Y-0.5406 Z-10.3714 F300
G1 X-0.5703 Y-0.4871 Z-10.3714 F300
G1 X-0.6153 Y-0.4289 Z-10.3714 F300
G1 X-0.6543 Y-0.3666 Z-10.3714 F300
G1 X-0.6871 Y-0.3007 Z-10.3714 F300
G1 X-0.7132 Y-0.2320 Z-10.3714 F300
G1 X-0.7325 Y-0.1610 Z-10.3714 F300
G1 X-0.7448 Y-0.0884 Z-10.3714 F300
G1 X-0.7498 Y-0.0151 Z-10.3714 F300
G1 X-0.7477 Y0.0585 Z-10.3714 F300
G1 X-0.7384 Y0.1314 Z-10.3714 F300
G1 X24.1519 Y139.9850 Z-10.3714 F300
G1 X24.1687 Y140.0578 Z-10.3714 F300
G1 X24.1926 Y140.1286 Z-10.3714 F300
G1 X24.2234 Y140.1966 Z-10.3714 F300
G1 X24.2608 Y140.2613 Z-10.3714 F300
G1 X24.3045 Y140.3219 Z-10.3714 F300
G1 X24.3540 Y140.3779 Z-10.3714 F300
G1 X24.4089 Y140.4286 Z-10.3714 F300
G1 X24.4685 Y140.4737 Z-10.3714 F300
G1 X24.5322 Y140.5126 Z-10.3714 F300
G1 X24.5996 Y140.5449 Z-10.3714 F300
G1 X24.6698 Y140.5704 Z-10.3714 F300
G1 X24.7422 Y140.5888 Z-10.3714 F300
G1 X24.8161 Y140.5999 Z-10.3714 F300
G1 X24.8907 Y140.6036 Z-10.3714 F300
G1 X24.9653 Y140.5998 Z-10.3714 F300
G1 X25.0392 Y140.5887 Z-10.3714 F300
G1 X25.1116 Y140.5702 Z-10.3714 F300
G1 X68.2184 Y127.2606 Z-10.3714 F300
G1 X68.2351 Y127.2560 Z-10.3714 F300
G1 X68.2471 Y127.2526 Z-10.3714 F300
G1 X68.2775 Y127.2437 Z-10.3714 F300
G1 X68.2900 Y127.2399 Z-10.3714 F300
G1 X68.3316 Y127.2269 Z-10.3714 F300
G1 X68.3445 Y127.2228 Z-10.3714 F300
G1 X68.3969 Y127.2054 Z-10.3714 F300
G1 X68.4101 Y127.2009 Z-10.3714 F300
G1 X68.4727 Y127.1788 Z-10.3714 F300
G1 X68.4863 Y127.1739 Z-10.3714 F300
G1 X68.5585 Y127.1468 Z-10.3714 F300
G1 X68.5724 Y127.1414 Z-10.3714 F300
G1 X68.6538 Y127.1091 Z-10.3714 F300
G1 X68.6681 Y127.1032 Z-10.3714 F300
G1 X68.7580 Y127.0653 Z-10.3714 F300
G1 X68.7727 Y127.0589 Z-10.3714 F300
G1 X68.8707 Y127.0151 Z-10.3714 F300
G1 X68.8857 Y127.0082 Z-10.3714 F300
G1 X68.9912 Y126.9582 Z-10.3714 F300
G1 X69.0065 Y126.9508 Z-10.3714 F300
G1 X69.1190 Y126.8943 Z-10.3714 F300
G1 X69.1346 Y126.8862 Z-10.3714 F300
G1 X69.2536 Y126.8230 Z-10.3714 F300
G1 X69.2695 Y126.8143 Z-10.3714 F300
G1 X69.3945 Y126.7439 Z-10.3714 F300
G1 X69.4106 Y126.7345 Z-10.3714 F300
G1 X69.5410 Y126.6568 Z-10.3714 F300
G1 X69.5574 Y126.6468 Z-10.3714 F300
G1 X69.6926 Y126.5613 Z-10.3714 F300
G1 X69.7092 Y126.5506 Z-10.3714 F300
G1 X69.8488 Y126.4572 Z-10.3714 F300
G1 X69.8655 Y126.4456 Z-10.3714 F300
G1 X70.0089 Y126.3439 Z-10.3714 F300
G1 X70.0258 Y126.3317 Z-10.3714 F300
G1 X70.1725 Y126.2214 Z-10.3714 F300
G1 X70.1894 Y126.2083 Z-10.3714 F300
G1 X70.3389 Y126.0891 Z-10.3714 F300
G1 X70.3558 Y126.0753 Z-10.3714 F300
G1 X70.5075 Y125.9469 Z-10.3714 F300
G1 X70.5243 Y125.9323 Z-10.3714 F300
G1 X70.6778 Y125.7944 Z-10.3714 F300
G1 X70.6945 Y125.7789 Z-10.3714 F300
G1 X70.8491 Y125.6313 Z-10.3714 F300
G1 X70.8656 Y125.6150 Z-10.3714 F300
G1 X71.0209 Y125.4573 Z-10.3714 F300
G1 X71.0372 Y125.4402 Z-10.3714 F300
G1 X71.1926 Y125.2721 Z-10.3714 F300
G1 X71.2085 Y125.2543 Z-10.3714 F300
G1 X71.3635 Y125.0755 Z-10.3714 F300
G1 X71.3791 Y125.0569 Z-10.3714 F300
G1 X71.5331 Y124.8671 Z-10.3714 F300
G1 X71.5483 Y124.8478 Z-10.3714 F300
G1 X71.7008 Y124.6467 Z-10.3714 F300
G1 X71.7155 Y124.6268 Z-10.3714 F300
G1 X71.8660 Y124.4141 Z-10.3714 F300
G1 X71.8801 Y124.3935 Z-10.3714 F300
G1 X72.0281 Y124.1690 Z-10.3714 F300
G1 X72.0416 Y124.1479 Z-10.3714 F300
G1 X72.1865 Y123.9111 Z-10.3714 F300
G1 X72.1993 Y123.8895 Z-10.3714 F300
G1 X72.3407 Y123.6403 Z-10.3714 F300
G1 X72.3527 Y123.6183 Z-10.3714 F300
G1 X72.4899 Y123.3563 Z-10.3714 F300
G1 X72.5012 Y123.3339 Z-10.3714 F300
G1 X72.6338 Y123.0588 Z-10.3714 F300
G1 X72.6442 Y123.0362 Z-10.3714 F300
G1 X72.7717 Y122.7477 Z-10.3714 F300
G1 X72.7813 Y122.7249 Z-10.3714 F300
G1 X72.9030 Y122.4227 Z-10.3714 F300
G1 X72.9118 Y122.3998 Z-10.3714 F300
G1 X73.0273 Y122.0836 Z-10.3714 F300
G1 X73.0353 Y122.0607 Z-10.3714 F300
G1 X73.1440 Y121.7302 Z-10.3714 F300
G1 X73.1511 Y121.7073 Z-10.3714 F300
G1 X73.2525 Y121.3623 Z-10.3714 F300
G1 X73.2588 Y121.3395 Z-10.3714 F300
G1 X73.3524 Y120.9796 Z-10.3714 F300
G1 X73.3579 Y120.9570 Z-10.3714 F300
G1 X73.4432 Y120.5819 Z-10.3714 F300
G1 X73.4479 Y120.5596 Z-10.3714 F300
G1 X73.5242 Y120.1689 Z-10.3714 F300
G1 X73.5282 Y120.1469 Z-10.3714 F300
G1 X73.5951 Y119.7405 Z-10.3714 F300
G1 X73.5984 Y119.7189 Z-10.3714 F300
G1 X73.6554 Y119.2964 Z-10.3714 F300
G1 X73.6579 Y119.2752 Z-10.3714 F300
G1 X73.7044 Y118.8363 Z-10.3714 F300
G1 X73.7063 Y118.8155 Z-10.3714 F300
G1 X73.7419 Y118.3599 Z-10.3714 F300
G1 X73.7432 Y118.3396 Z-10.3714 F300
G1 X73.7671 Y117.8671 Z-10.3714 F300
G1 X73.7679 Y117.8473 Z-10.3714 F300
G1 X73.7798 Y117.3574 Z-10.3714 F300
G1 X73.7799 Y117.3253 Z-10.3714 F300
G1 X73.7685 Y116.7108 Z-10.3714 F300
G1 X73.7674 Y116.6829 Z-10.3714 F300
G1 X73.7206 Y115.8432 Z-10.3714 F300
G1 X73.7194 Y115.8253 Z-10.3714 F300
G1 X73.6351 Y114.7700 Z-10.3714 F300
G1 X73.6340 Y114.7566 Z-10.3714 F300
G1 X73.5105 Y113.4952 Z-10.3714 F300
G1 X73.5094 Y113.4841 Z-10.3714 F300
G1 X73.3448 Y112.0262 Z-10.3714 F300
G1 X73.3437 Y112.0165 Z-10.3714 F300
G1 X73.1362 Y110.3718 Z-10.3714 F300
G1 X73.1350 Y110.3628 Z-10.3714 F300
G1 X72.8826 Y108.5409 Z-10.3714 F300
G1 X72.8814 Y108.5323 Z-10.3714 F300
G1 X72.5823 Y106.5428 Z-10.3714 F300
G1 X72.5810 Y106.5345 Z-10.3714 F300
G1 X72.2333 Y104.3870 Z-10.3714 F300
G1 X72.2319 Y104.3787 Z-10.3714 F300
G1 X71.8338 Y102.0829 Z-10.3714 F300
G1 X71.8323 Y102.0746 Z-10.3714 F300
G1 X71.3817 Y99.6400 Z-10.3714 F300
G1 X71.3801 Y99.6316 Z-10.3714 F300
G1 X70.8754 Y97.0679 Z-10.3714 F300
G1 X70.8736 Y97.0593 Z-10.3714 F300
G1 X70.3127 Y94.3761 Z-10.3714 F300
G1 X70.3108 Y94.3673 Z-10.3714 F300
G1 X69.6919 Y91.5742 Z-10.3714 F300
G1 X69.6899 Y91.5651 Z-10.3714 F300
G1 X69.0111 Y88.6716 Z-10.3714 F300
G1 X69.0088 Y88.6623 Z-10.3714 F300
G1 X68.2683 Y85.6781 Z-10.3714 F300
G1 X68.2658 Y85.6685 Z-10.3714 F300
G1 X67.4617 Y82.6032 Z-10.3714 F300
G1 X67.4590 Y82.5932 Z-10.3714 F300
G1 X66.5893 Y79.4565 Z-10.3714 F300
G1 X66.5863 Y79.4460 Z-10.3714 F300
G1 X65.6493 Y76.2474 Z-10.3714 F300
G1 X65.6460 Y76.2365 Z-10.3714 F300
G1 X64.6397 Y72.9857 Z-10.3714 F300
G1 X64.6360 Y72.9743 Z-10.3714 F300
G1 X63.5586 Y69.6808 Z-10.3714 F300
G1 X63.5545 Y69.6689 Z-10.3714 F300
G1 X62.4041 Y66.3424 Z-10.3714 F300
G1 X62.3996 Y66.3299 Z-10.3714 F300
G1 X61.1742 Y62.9800 Z-10.3714 F300
G1 X61.1693 Y62.9669 Z-10.3714 F300
G1 X59.8671 Y59.6033 Z-10.3714 F300
G1 X59.8616 Y59.5895 Z-10.3714 F300
G1 X58.4808 Y56.2217 Z-10.3714 F300
G1 X58.4747 Y56.2072 Z-10.3714 F300
G1 X57.0134 Y52.8448 Z-10.3714 F300
G1 X57.0066 Y52.8297 Z-10.3714 F300
G1 X55.4628 Y49.4823 Z-10.3714 F300
G1 X55.4553 Y49.4664 Z-10.3714 F300
G1 X53.8272 Y46.1437 Z-10.3714 F300
G1 X53.8188 Y46.1270 Z-10.3714 F300
G1 X52.1046 Y42.8386 Z-10.3714 F300
G1 X52.0952 Y42.8211 Z-10.3714 F300
G1 X50.2929 Y39.5765 Z-10.3714 F300
G1 X50.2824 Y39.5582 Z-10.3714 F300
G1 X48.3902 Y36.3671 Z-10.3714 F300
G1 X48.3784 Y36.3479 Z-10.3714 F300
G1 X46.3944 Y33.2199 Z-10.3714 F300
G1 X46.3813 Y33.1999 Z-10.3714 F300
G1 X44.3036 Y30.1446 Z-10.3714 F300
G1 X44.2889 Y30.1238 Z-10.3714 F300
G1 X42.1157 Y27.1509 Z-10.3714 F300
G1 X42.0992 Y27.1292 Z-10.3714 F300
G1 X39.8286 Y24.2482 Z-10.3714 F300
G1 X39.8102 Y24.2259 Z-10.3714 F300
G1 X37.4403 Y21.4464 Z-10.3714 F300
G1 X37.4198 Y21.4234 Z-10.3714 F300
G1 X34.9487 Y18.7552 Z-10.3714 F300
G1 X34.9260 Y18.7317 Z-10.3714 F300
G1 X32.3518 Y16.1842 Z-10.3714 F300
G1 X32.3266 Y16.1604 Z-10.3714 F300
G1 X29.6474 Y13.7433 Z-10.3714 F300
G1 X29.6197 Y13.7195 Z-10.3714 F300
G1 X26.8337 Y11.4424 Z-10.3714 F300
G1 X26.8032 Y11.4188 Z-10.3714 F300
G1 X23.9085 Y9.2913 Z-10.3714 F300
G1 X23.8752 Y9.2682 Z-10.3714 F300
G1 X20.8700 Y7.3000 Z-10.3714 F300
G1 X20.8339 Y7.2778 Z-10.3714 F300
G1 X17.7162 Y5.4784 Z-10.3714 F300
G1 X17.6775 Y5.4576 Z-10.3714 F300
G1 X14.4455 Y3.8366 Z-10.3714 F300
G1 X14.4043 Y3.8175 Z-10.3714 F300
G1 X11.0560 Y2.3846 Z-10.3714 F300
G1 X11.0127 Y2.3677 Z-10.3714 F300
G1 X7.5463 Y1.1325 Z-10.3714 F300
G1 X7.5012 Y1.1180 Z-10.3714 F300
G1 X3.9148 Y0.0900 Z-10.3714 F300
G1 X3.8684 Y0.0783 Z-10.3714 F300
G1 X0.1602 Y-0.7327 Z-10.3714 F300
G0 Z5.000
( -- pass 12/14, target Z=-11.3143 -- )
( eyebrow 1/2 )
G0 X67.9829 Y168.1164 Z5.0000
G1 Z-11.3143 F300
G1 X71.6911 Y167.3054 Z-11.3143 F300
G1 X71.7375 Y167.2937 Z-11.3143 F300
G1 X75.3239 Y166.2658 Z-11.3143 F300
G1 X75.3690 Y166.2513 Z-11.3143 F300
G1 X78.8354 Y165.0161 Z-11.3143 F300
G1 X78.8787 Y164.9991 Z-11.3143 F300
G1 X82.2270 Y163.5662 Z-11.3143 F300
G1 X82.2681 Y163.5471 Z-11.3143 F300
G1 X85.5002 Y161.9262 Z-11.3143 F300
G1 X85.5389 Y161.9053 Z-11.3143 F300
G1 X88.6566 Y160.1059 Z-11.3143 F300
G1 X88.6926 Y160.0838 Z-11.3143 F300
G1 X91.6979 Y158.1155 Z-11.3143 F300
G1 X91.7312 Y158.0924 Z-11.3143 F300
G1 X94.6259 Y155.9650 Z-11.3143 F300
G1 X94.6563 Y155.9413 Z-11.3143 F300
G1 X97.4423 Y153.6643 Z-11.3143 F300
G1 X97.4701 Y153.6404 Z-11.3143 F300
G1 X100.1493 Y151.2233 Z-11.3143 F300
G1 X100.1744 Y151.1995 Z-11.3143 F300
G1 X102.7487 Y148.6521 Z-11.3143 F300
G1 X102.7714 Y148.6286 Z-11.3143 F300
G1 X105.2425 Y145.9603 Z-11.3143 F300
G1 X105.2630 Y145.9373 Z-11.3143 F300
G1 X107.6329 Y143.1579 Z-11.3143 F300
G1 X107.6513 Y143.1355 Z-11.3143 F300
G1 X109.9219 Y140.2545 Z-11.3143 F300
G1 X109.9384 Y140.2329 Z-11.3143 F300
G1 X112.1116 Y137.2600 Z-11.3143 F300
G1 X112.1263 Y137.2391 Z-11.3143 F300
G1 X114.2040 Y134.1839 Z-11.3143 F300
G1 X114.2171 Y134.1638 Z-11.3143 F300
G1 X116.2011 Y131.0359 Z-11.3143 F300
G1 X116.2129 Y131.0167 Z-11.3143 F300
G1 X118.1051 Y127.8256 Z-11.3143 F300
G1 X118.1156 Y127.8073 Z-11.3143 F300
G1 X119.9178 Y124.5627 Z-11.3143 F300
G1 X119.9273 Y124.5452 Z-11.3143 F300
G1 X121.6415 Y121.2567 Z-11.3143 F300
G1 X121.6499 Y121.2400 Z-11.3143 F300
G1 X123.2780 Y117.9173 Z-11.3143 F300
G1 X123.2855 Y117.9014 Z-11.3143 F300
G1 X124.8293 Y114.5541 Z-11.3143 F300
G1 X124.8361 Y114.5389 Z-11.3143 F300
G1 X126.2974 Y111.1765 Z-11.3143 F300
G1 X126.3035 Y111.1621 Z-11.3143 F300
G1 X127.6843 Y107.7942 Z-11.3143 F300
G1 X127.6898 Y107.7805 Z-11.3143 F300
G1 X128.9920 Y104.4168 Z-11.3143 F300
G1 X128.9969 Y104.4037 Z-11.3143 F300
G1 X130.2223 Y101.0538 Z-11.3143 F300
G1 X130.2267 Y101.0413 Z-11.3143 F300
G1 X131.3772 Y97.7149 Z-11.3143 F300
G1 X131.3812 Y97.7029 Z-11.3143 F300
G1 X132.4587 Y94.4095 Z-11.3143 F300
G1 X132.4623 Y94.3981 Z-11.3143 F300
G1 X133.4687 Y91.1473 Z-11.3143 F300
G1 X133.4719 Y91.1363 Z-11.3143 F300
G1 X134.4090 Y87.9378 Z-11.3143 F300
G1 X134.4120 Y87.9273 Z-11.3143 F300
G1 X135.2817 Y84.7906 Z-11.3143 F300
G1 X135.2844 Y84.7805 Z-11.3143 F300
G1 X136.0885 Y81.7153 Z-11.3143 F300
G1 X136.0910 Y81.7056 Z-11.3143 F300
G1 X136.8315 Y78.7214 Z-11.3143 F300
G1 X136.8338 Y78.7121 Z-11.3143 F300
G1 X137.5125 Y75.8186 Z-11.3143 F300
G1 X137.5146 Y75.8096 Z-11.3143 F300
G1 X138.1335 Y73.0164 Z-11.3143 F300
G1 X138.1354 Y73.0076 Z-11.3143 F300
G1 X138.6963 Y70.3244 Z-11.3143 F300
G1 X138.6980 Y70.3158 Z-11.3143 F300
G1 X139.2028 Y67.7521 Z-11.3143 F300
G1 X139.2044 Y67.7437 Z-11.3143 F300
G1 X139.6550 Y65.3091 Z-11.3143 F300
G1 X139.6564 Y65.3008 Z-11.3143 F300
G1 X140.0546 Y63.0050 Z-11.3143 F300
G1 X140.0560 Y62.9967 Z-11.3143 F300
G1 X140.4037 Y60.8493 Z-11.3143 F300
G1 X140.4050 Y60.8409 Z-11.3143 F300
G1 X140.7041 Y58.8514 Z-11.3143 F300
G1 X140.7053 Y58.8428 Z-11.3143 F300
G1 X140.9577 Y57.0210 Z-11.3143 F300
G1 X140.9589 Y57.0120 Z-11.3143 F300
G1 X141.1664 Y55.3673 Z-11.3143 F300
G1 X141.1675 Y55.3575 Z-11.3143 F300
G1 X141.3320 Y53.8997 Z-11.3143 F300
G1 X141.3332 Y53.8886 Z-11.3143 F300
G1 X141.4566 Y52.6272 Z-11.3143 F300
G1 X141.4578 Y52.6138 Z-11.3143 F300
G1 X141.5420 Y51.5584 Z-11.3143 F300
G1 X141.5432 Y51.5405 Z-11.3143 F300
G1 X141.5901 Y50.7008 Z-11.3143 F300
G1 X141.5912 Y50.6729 Z-11.3143 F300
G1 X141.6026 Y50.0585 Z-11.3143 F300
G1 X141.6025 Y50.0263 Z-11.3143 F300
G1 X141.5906 Y49.5365 Z-11.3143 F300
G1 X141.5898 Y49.5167 Z-11.3143 F300
G1 X141.5658 Y49.0441 Z-11.3143 F300
G1 X141.5645 Y49.0238 Z-11.3143 F300
G1 X141.5290 Y48.5682 Z-11.3143 F300
G1 X141.5271 Y48.5475 Z-11.3143 F300
G1 X141.4806 Y48.1086 Z-11.3143 F300
G1 X141.4780 Y48.0874 Z-11.3143 F300
G1 X141.4211 Y47.6649 Z-11.3143 F300
G1 X141.4178 Y47.6432 Z-11.3143 F300
G1 X141.3509 Y47.2368 Z-11.3143 F300
G1 X141.3469 Y47.2148 Z-11.3143 F300
G1 X141.2706 Y46.8242 Z-11.3143 F300
G1 X141.2659 Y46.8019 Z-11.3143 F300
G1 X141.1806 Y46.4268 Z-11.3143 F300
G1 X141.1751 Y46.4042 Z-11.3143 F300
G1 X141.0815 Y46.0442 Z-11.3143 F300
G1 X141.0752 Y46.0215 Z-11.3143 F300
G1 X140.9738 Y45.6764 Z-11.3143 F300
G1 X140.9667 Y45.6536 Z-11.3143 F300
G1 X140.8580 Y45.3231 Z-11.3143 F300
G1 X140.8500 Y45.3002 Z-11.3143 F300
G1 X140.7345 Y44.9840 Z-11.3143 F300
G1 X140.7257 Y44.9611 Z-11.3143 F300
G1 X140.6040 Y44.6589 Z-11.3143 F300
G1 X140.5944 Y44.6361 Z-11.3143 F300
G1 X140.4669 Y44.3476 Z-11.3143 F300
G1 X140.4565 Y44.3250 Z-11.3143 F300
G1 X140.3239 Y44.0499 Z-11.3143 F300
G1 X140.3126 Y44.0275 Z-11.3143 F300
G1 X140.1753 Y43.7655 Z-11.3143 F300
G1 X140.1633 Y43.7434 Z-11.3143 F300
G1 X140.0220 Y43.4942 Z-11.3143 F300
G1 X140.0092 Y43.4726 Z-11.3143 F300
G1 X139.8642 Y43.2359 Z-11.3143 F300
G1 X139.8508 Y43.2148 Z-11.3143 F300
G1 X139.7028 Y42.9902 Z-11.3143 F300
G1 X139.6887 Y42.9696 Z-11.3143 F300
G1 X139.5382 Y42.7570 Z-11.3143 F300
G1 X139.5235 Y42.7370 Z-11.3143 F300
G1 X139.3710 Y42.5359 Z-11.3143 F300
G1 X139.3558 Y42.5166 Z-11.3143 F300
G1 X139.2018 Y42.3269 Z-11.3143 F300
G1 X139.1862 Y42.3083 Z-11.3143 F300
G1 X139.0312 Y42.1295 Z-11.3143 F300
G1 X139.0152 Y42.1116 Z-11.3143 F300
G1 X138.8599 Y41.9435 Z-11.3143 F300
G1 X138.8436 Y41.9264 Z-11.3143 F300
G1 X138.6883 Y41.7687 Z-11.3143 F300
G1 X138.6718 Y41.7524 Z-11.3143 F300
G1 X138.5172 Y41.6048 Z-11.3143 F300
G1 X138.5004 Y41.5893 Z-11.3143 F300
G1 X138.3470 Y41.4515 Z-11.3143 F300
G1 X138.3302 Y41.4368 Z-11.3143 F300
G1 X138.1784 Y41.3085 Z-11.3143 F300
G1 X138.1616 Y41.2946 Z-11.3143 F300
G1 X138.0121 Y41.1754 Z-11.3143 F300
G1 X137.9952 Y41.1624 Z-11.3143 F300
G1 X137.8485 Y41.0521 Z-11.3143 F300
G1 X137.8316 Y41.0398 Z-11.3143 F300
G1 X137.6882 Y40.9381 Z-11.3143 F300
G1 X137.6715 Y40.9266 Z-11.3143 F300
G1 X137.5319 Y40.8332 Z-11.3143 F300
G1 X137.5153 Y40.8224 Z-11.3143 F300
G1 X137.3801 Y40.7370 Z-11.3143 F300
G1 X137.3637 Y40.7269 Z-11.3143 F300
G1 X137.2333 Y40.6492 Z-11.3143 F300
G1 X137.2172 Y40.6398 Z-11.3143 F300
G1 X137.0922 Y40.5695 Z-11.3143 F300
G1 X137.0763 Y40.5608 Z-11.3143 F300
G1 X136.9573 Y40.4975 Z-11.3143 F300
G1 X136.9417 Y40.4895 Z-11.3143 F300
G1 X136.8292 Y40.4330 Z-11.3143 F300
G1 X136.8139 Y40.4255 Z-11.3143 F300
G1 X136.7083 Y40.3755 Z-11.3143 F300
G1 X136.6933 Y40.3686 Z-11.3143 F300
G1 X136.5954 Y40.3248 Z-11.3143 F300
G1 X136.5807 Y40.3184 Z-11.3143 F300
G1 X136.4908 Y40.2805 Z-11.3143 F300
G1 X136.4764 Y40.2747 Z-11.3143 F300
G1 X136.3951 Y40.2423 Z-11.3143 F300
G1 X136.3811 Y40.2369 Z-11.3143 F300
G1 X136.3089 Y40.2099 Z-11.3143 F300
G1 X136.2953 Y40.2049 Z-11.3143 F300
G1 X136.2328 Y40.1829 Z-11.3143 F300
G1 X136.2195 Y40.1783 Z-11.3143 F300
G1 X136.1672 Y40.1609 Z-11.3143 F300
G1 X136.1543 Y40.1568 Z-11.3143 F300
G1 X136.1127 Y40.1438 Z-11.3143 F300
G1 X136.1002 Y40.1400 Z-11.3143 F300
G1 X136.0698 Y40.1311 Z-11.3143 F300
G1 X136.0578 Y40.1277 Z-11.3143 F300
G1 X136.0411 Y40.1231 Z-11.3143 F300
G1 X92.9343 Y26.8136 Z-11.3143 F300
G1 X92.8619 Y26.7951 Z-11.3143 F300
G1 X92.7880 Y26.7839 Z-11.3143 F300
G1 X92.7134 Y26.7802 Z-11.3143 F300
G1 X92.6388 Y26.7839 Z-11.3143 F300
G1 X92.5649 Y26.7949 Z-11.3143 F300
G1 X92.4925 Y26.8133 Z-11.3143 F300
G1 X92.4223 Y26.8388 Z-11.3143 F300
G1 X92.3549 Y26.8712 Z-11.3143 F300
G1 X92.2911 Y26.9101 Z-11.3143 F300
G1 X92.2315 Y26.9551 Z-11.3143 F300
G1 X92.1767 Y27.0059 Z-11.3143 F300
G1 X92.1272 Y27.0618 Z-11.3143 F300
G1 X92.0835 Y27.1225 Z-11.3143 F300
G1 X92.0461 Y27.1871 Z-11.3143 F300
G1 X92.0153 Y27.2552 Z-11.3143 F300
G1 X91.9914 Y27.3259 Z-11.3143 F300
G1 X91.9746 Y27.3988 Z-11.3143 F300
G1 X67.0843 Y167.2523 Z-11.3143 F300
G1 X67.0750 Y167.3253 Z-11.3143 F300
G1 X67.0728 Y167.3988 Z-11.3143 F300
G1 X67.0779 Y167.4722 Z-11.3143 F300
G1 X67.0902 Y167.5447 Z-11.3143 F300
G1 X67.1095 Y167.6157 Z-11.3143 F300
G1 X67.1356 Y167.6845 Z-11.3143 F300
G1 X67.1684 Y167.7503 Z-11.3143 F300
G1 X67.2074 Y167.8126 Z-11.3143 F300
G1 X67.2524 Y167.8708 Z-11.3143 F300
G1 X67.3029 Y167.9244 Z-11.3143 F300
G1 X67.3583 Y167.9727 Z-11.3143 F300
G1 X67.4182 Y168.0153 Z-11.3143 F300
G1 X67.4820 Y168.0519 Z-11.3143 F300
G1 X67.5491 Y168.0821 Z-11.3143 F300
G1 X67.6189 Y168.1055 Z-11.3143 F300
G1 X67.6905 Y168.1220 Z-11.3143 F300
G1 X67.7635 Y168.1314 Z-11.3143 F300
G1 X67.8370 Y168.1336 Z-11.3143 F300
G1 X67.9104 Y168.1286 Z-11.3143 F300
G1 X67.9829 Y168.1164 Z-11.3143 F300
G0 Z5.000
( eyebrow 2/2 )
G0 X0.1602 Y-0.7327 Z5.0000
G1 Z-11.3143 F300
G1 X0.0877 Y-0.7449 Z-11.3143 F300
G1 X0.0143 Y-0.7499 Z-11.3143 F300
G1 X-0.0592 Y-0.7477 Z-11.3143 F300
G1 X-0.1322 Y-0.7383 Z-11.3143 F300
G1 X-0.2038 Y-0.7218 Z-11.3143 F300
G1 X-0.2736 Y-0.6983 Z-11.3143 F300
G1 X-0.3406 Y-0.6682 Z-11.3143 F300
G1 X-0.4045 Y-0.6316 Z-11.3143 F300
G1 X-0.4644 Y-0.5889 Z-11.3143 F300
G1 X-0.5198 Y-0.5406 Z-11.3143 F300
G1 X-0.5703 Y-0.4871 Z-11.3143 F300
G1 X-0.6153 Y-0.4289 Z-11.3143 F300
G1 X-0.6543 Y-0.3666 Z-11.3143 F300
G1 X-0.6871 Y-0.3007 Z-11.3143 F300
G1 X-0.7132 Y-0.2320 Z-11.3143 F300
G1 X-0.7325 Y-0.1610 Z-11.3143 F300
G1 X-0.7448 Y-0.0884 Z-11.3143 F300
G1 X-0.7498 Y-0.0151 Z-11.3143 F300
G1 X-0.7477 Y0.0585 Z-11.3143 F300
G1 X-0.7384 Y0.1314 Z-11.3143 F300
G1 X24.1519 Y139.9850 Z-11.3143 F300
G1 X24.1687 Y140.0578 Z-11.3143 F300
G1 X24.1926 Y140.1286 Z-11.3143 F300
G1 X24.2234 Y140.1966 Z-11.3143 F300
G1 X24.2608 Y140.2613 Z-11.3143 F300
G1 X24.3045 Y140.3219 Z-11.3143 F300
G1 X24.3540 Y140.3779 Z-11.3143 F300
G1 X24.4089 Y140.4286 Z-11.3143 F300
G1 X24.4685 Y140.4737 Z-11.3143 F300
G1 X24.5322 Y140.5126 Z-11.3143 F300
G1 X24.5996 Y140.5449 Z-11.3143 F300
G1 X24.6698 Y140.5704 Z-11.3143 F300
G1 X24.7422 Y140.5888 Z-11.3143 F300
G1 X24.8161 Y140.5999 Z-11.3143 F300
G1 X24.8907 Y140.6036 Z-11.3143 F300
G1 X24.9653 Y140.5998 Z-11.3143 F300
G1 X25.0392 Y140.5887 Z-11.3143 F300
G1 X25.1116 Y140.5702 Z-11.3143 F300
G1 X68.2184 Y127.2606 Z-11.3143 F300
G1 X68.2351 Y127.2560 Z-11.3143 F300
G1 X68.2471 Y127.2526 Z-11.3143 F300
G1 X68.2775 Y127.2437 Z-11.3143 F300
G1 X68.2900 Y127.2399 Z-11.3143 F300
G1 X68.3316 Y127.2269 Z-11.3143 F300
G1 X68.3445 Y127.2228 Z-11.3143 F300
G1 X68.3969 Y127.2054 Z-11.3143 F300
G1 X68.4101 Y127.2009 Z-11.3143 F300
G1 X68.4727 Y127.1788 Z-11.3143 F300
G1 X68.4863 Y127.1739 Z-11.3143 F300
G1 X68.5585 Y127.1468 Z-11.3143 F300
G1 X68.5724 Y127.1414 Z-11.3143 F300
G1 X68.6538 Y127.1091 Z-11.3143 F300
G1 X68.6681 Y127.1032 Z-11.3143 F300
G1 X68.7580 Y127.0653 Z-11.3143 F300
G1 X68.7727 Y127.0589 Z-11.3143 F300
G1 X68.8707 Y127.0151 Z-11.3143 F300
G1 X68.8857 Y127.0082 Z-11.3143 F300
G1 X68.9912 Y126.9582 Z-11.3143 F300
G1 X69.0065 Y126.9508 Z-11.3143 F300
G1 X69.1190 Y126.8943 Z-11.3143 F300
G1 X69.1346 Y126.8862 Z-11.3143 F300
G1 X69.2536 Y126.8230 Z-11.3143 F300
G1 X69.2695 Y126.8143 Z-11.3143 F300
G1 X69.3945 Y126.7439 Z-11.3143 F300
G1 X69.4106 Y126.7345 Z-11.3143 F300
G1 X69.5410 Y126.6568 Z-11.3143 F300
G1 X69.5574 Y126.6468 Z-11.3143 F300
G1 X69.6926 Y126.5613 Z-11.3143 F300
G1 X69.7092 Y126.5506 Z-11.3143 F300
G1 X69.8488 Y126.4572 Z-11.3143 F300
G1 X69.8655 Y126.4456 Z-11.3143 F300
G1 X70.0089 Y126.3439 Z-11.3143 F300
G1 X70.0258 Y126.3317 Z-11.3143 F300
G1 X70.1725 Y126.2214 Z-11.3143 F300
G1 X70.1894 Y126.2083 Z-11.3143 F300
G1 X70.3389 Y126.0891 Z-11.3143 F300
G1 X70.3558 Y126.0753 Z-11.3143 F300
G1 X70.5075 Y125.9469 Z-11.3143 F300
G1 X70.5243 Y125.9323 Z-11.3143 F300
G1 X70.6778 Y125.7944 Z-11.3143 F300
G1 X70.6945 Y125.7789 Z-11.3143 F300
G1 X70.8491 Y125.6313 Z-11.3143 F300
G1 X70.8656 Y125.6150 Z-11.3143 F300
G1 X71.0209 Y125.4573 Z-11.3143 F300
G1 X71.0372 Y125.4402 Z-11.3143 F300
G1 X71.1926 Y125.2721 Z-11.3143 F300
G1 X71.2085 Y125.2543 Z-11.3143 F300
G1 X71.3635 Y125.0755 Z-11.3143 F300
G1 X71.3791 Y125.0569 Z-11.3143 F300
G1 X71.5331 Y124.8671 Z-11.3143 F300
G1 X71.5483 Y124.8478 Z-11.3143 F300
G1 X71.7008 Y124.6467 Z-11.3143 F300
G1 X71.7155 Y124.6268 Z-11.3143 F300
G1 X71.8660 Y124.4141 Z-11.3143 F300
G1 X71.8801 Y124.3935 Z-11.3143 F300
G1 X72.0281 Y124.1690 Z-11.3143 F300
G1 X72.0416 Y124.1479 Z-11.3143 F300
G1 X72.1865 Y123.9111 Z-11.3143 F300
G1 X72.1993 Y123.8895 Z-11.3143 F300
G1 X72.3407 Y123.6403 Z-11.3143 F300
G1 X72.3527 Y123.6183 Z-11.3143 F300
G1 X72.4899 Y123.3563 Z-11.3143 F300
G1 X72.5012 Y123.3339 Z-11.3143 F300
G1 X72.6338 Y123.0588 Z-11.3143 F300
G1 X72.6442 Y123.0362 Z-11.3143 F300
G1 X72.7717 Y122.7477 Z-11.3143 F300
G1 X72.7813 Y122.7249 Z-11.3143 F300
G1 X72.9030 Y122.4227 Z-11.3143 F300
G1 X72.9118 Y122.3998 Z-11.3143 F300
G1 X73.0273 Y122.0836 Z-11.3143 F300
G1 X73.0353 Y122.0607 Z-11.3143 F300
G1 X73.1440 Y121.7302 Z-11.3143 F300
G1 X73.1511 Y121.7073 Z-11.3143 F300
G1 X73.2525 Y121.3623 Z-11.3143 F300
G1 X73.2588 Y121.3395 Z-11.3143 F300
G1 X73.3524 Y120.9796 Z-11.3143 F300
G1 X73.3579 Y120.9570 Z-11.3143 F300
G1 X73.4432 Y120.5819 Z-11.3143 F300
G1 X73.4479 Y120.5596 Z-11.3143 F300
G1 X73.5242 Y120.1689 Z-11.3143 F300
G1 X73.5282 Y120.1469 Z-11.3143 F300
G1 X73.5951 Y119.7405 Z-11.3143 F300
G1 X73.5984 Y119.7189 Z-11.3143 F300
G1 X73.6554 Y119.2964 Z-11.3143 F300
G1 X73.6579 Y119.2752 Z-11.3143 F300
G1 X73.7044 Y118.8363 Z-11.3143 F300
G1 X73.7063 Y118.8155 Z-11.3143 F300
G1 X73.7419 Y118.3599 Z-11.3143 F300
G1 X73.7432 Y118.3396 Z-11.3143 F300
G1 X73.7671 Y117.8671 Z-11.3143 F300
G1 X73.7679 Y117.8473 Z-11.3143 F300
G1 X73.7798 Y117.3574 Z-11.3143 F300
G1 X73.7799 Y117.3253 Z-11.3143 F300
G1 X73.7685 Y116.7108 Z-11.3143 F300
G1 X73.7674 Y116.6829 Z-11.3143 F300
G1 X73.7206 Y115.8432 Z-11.3143 F300
G1 X73.7194 Y115.8253 Z-11.3143 F300
G1 X73.6351 Y114.7700 Z-11.3143 F300
G1 X73.6340 Y114.7566 Z-11.3143 F300
G1 X73.5105 Y113.4952 Z-11.3143 F300
G1 X73.5094 Y113.4841 Z-11.3143 F300
G1 X73.3448 Y112.0262 Z-11.3143 F300
G1 X73.3437 Y112.0165 Z-11.3143 F300
G1 X73.1362 Y110.3718 Z-11.3143 F300
G1 X73.1350 Y110.3628 Z-11.3143 F300
G1 X72.8826 Y108.5409 Z-11.3143 F300
G1 X72.8814 Y108.5323 Z-11.3143 F300
G1 X72.5823 Y106.5428 Z-11.3143 F300
G1 X72.5810 Y106.5345 Z-11.3143 F300
G1 X72.2333 Y104.3870 Z-11.3143 F300
G1 X72.2319 Y104.3787 Z-11.3143 F300
G1 X71.8338 Y102.0829 Z-11.3143 F300
G1 X71.8323 Y102.0746 Z-11.3143 F300
G1 X71.3817 Y99.6400 Z-11.3143 F300
G1 X71.3801 Y99.6316 Z-11.3143 F300
G1 X70.8754 Y97.0679 Z-11.3143 F300
G1 X70.8736 Y97.0593 Z-11.3143 F300
G1 X70.3127 Y94.3761 Z-11.3143 F300
G1 X70.3108 Y94.3673 Z-11.3143 F300
G1 X69.6919 Y91.5742 Z-11.3143 F300
G1 X69.6899 Y91.5651 Z-11.3143 F300
G1 X69.0111 Y88.6716 Z-11.3143 F300
G1 X69.0088 Y88.6623 Z-11.3143 F300
G1 X68.2683 Y85.6781 Z-11.3143 F300
G1 X68.2658 Y85.6685 Z-11.3143 F300
G1 X67.4617 Y82.6032 Z-11.3143 F300
G1 X67.4590 Y82.5932 Z-11.3143 F300
G1 X66.5893 Y79.4565 Z-11.3143 F300
G1 X66.5863 Y79.4460 Z-11.3143 F300
G1 X65.6493 Y76.2474 Z-11.3143 F300
G1 X65.6460 Y76.2365 Z-11.3143 F300
G1 X64.6397 Y72.9857 Z-11.3143 F300
G1 X64.6360 Y72.9743 Z-11.3143 F300
G1 X63.5586 Y69.6808 Z-11.3143 F300
G1 X63.5545 Y69.6689 Z-11.3143 F300
G1 X62.4041 Y66.3424 Z-11.3143 F300
G1 X62.3996 Y66.3299 Z-11.3143 F300
G1 X61.1742 Y62.9800 Z-11.3143 F300
G1 X61.1693 Y62.9669 Z-11.3143 F300
G1 X59.8671 Y59.6033 Z-11.3143 F300
G1 X59.8616 Y59.5895 Z-11.3143 F300
G1 X58.4808 Y56.2217 Z-11.3143 F300
G1 X58.4747 Y56.2072 Z-11.3143 F300
G1 X57.0134 Y52.8448 Z-11.3143 F300
G1 X57.0066 Y52.8297 Z-11.3143 F300
G1 X55.4628 Y49.4823 Z-11.3143 F300
G1 X55.4553 Y49.4664 Z-11.3143 F300
G1 X53.8272 Y46.1437 Z-11.3143 F300
G1 X53.8188 Y46.1270 Z-11.3143 F300
G1 X52.1046 Y42.8386 Z-11.3143 F300
G1 X52.0952 Y42.8211 Z-11.3143 F300
G1 X50.2929 Y39.5765 Z-11.3143 F300
G1 X50.2824 Y39.5582 Z-11.3143 F300
G1 X48.3902 Y36.3671 Z-11.3143 F300
G1 X48.3784 Y36.3479 Z-11.3143 F300
G1 X46.3944 Y33.2199 Z-11.3143 F300
G1 X46.3813 Y33.1999 Z-11.3143 F300
G1 X44.3036 Y30.1446 Z-11.3143 F300
G1 X44.2889 Y30.1238 Z-11.3143 F300
G1 X42.1157 Y27.1509 Z-11.3143 F300
G1 X42.0992 Y27.1292 Z-11.3143 F300
G1 X39.8286 Y24.2482 Z-11.3143 F300
G1 X39.8102 Y24.2259 Z-11.3143 F300
G1 X37.4403 Y21.4464 Z-11.3143 F300
G1 X37.4198 Y21.4234 Z-11.3143 F300
G1 X34.9487 Y18.7552 Z-11.3143 F300
G1 X34.9260 Y18.7317 Z-11.3143 F300
G1 X32.3518 Y16.1842 Z-11.3143 F300
G1 X32.3266 Y16.1604 Z-11.3143 F300
G1 X29.6474 Y13.7433 Z-11.3143 F300
G1 X29.6197 Y13.7195 Z-11.3143 F300
G1 X26.8337 Y11.4424 Z-11.3143 F300
G1 X26.8032 Y11.4188 Z-11.3143 F300
G1 X23.9085 Y9.2913 Z-11.3143 F300
G1 X23.8752 Y9.2682 Z-11.3143 F300
G1 X20.8700 Y7.3000 Z-11.3143 F300
G1 X20.8339 Y7.2778 Z-11.3143 F300
G1 X17.7162 Y5.4784 Z-11.3143 F300
G1 X17.6775 Y5.4576 Z-11.3143 F300
G1 X14.4455 Y3.8366 Z-11.3143 F300
G1 X14.4043 Y3.8175 Z-11.3143 F300
G1 X11.0560 Y2.3846 Z-11.3143 F300
G1 X11.0127 Y2.3677 Z-11.3143 F300
G1 X7.5463 Y1.1325 Z-11.3143 F300
G1 X7.5012 Y1.1180 Z-11.3143 F300
G1 X3.9148 Y0.0900 Z-11.3143 F300
G1 X3.8684 Y0.0783 Z-11.3143 F300
G1 X0.1602 Y-0.7327 Z-11.3143 F300
G0 Z5.000
( -- pass 13/14, target Z=-12.2571 -- )
( eyebrow 1/2 )
G0 X67.9829 Y168.1164 Z5.0000
G1 Z-12.2571 F300
G1 X71.6911 Y167.3054 Z-12.2571 F300
G1 X71.7375 Y167.2937 Z-12.2571 F300
G1 X75.3239 Y166.2658 Z-12.2571 F300
G1 X75.3690 Y166.2513 Z-12.2571 F300
G1 X78.8354 Y165.0161 Z-12.2571 F300
G1 X78.8787 Y164.9991 Z-12.2571 F300
G1 X82.2270 Y163.5662 Z-12.2571 F300
G1 X82.2681 Y163.5471 Z-12.2571 F300
G1 X85.5002 Y161.9262 Z-12.2571 F300
G1 X85.5389 Y161.9053 Z-12.2571 F300
G1 X88.6566 Y160.1059 Z-12.2571 F300
G1 X88.6926 Y160.0838 Z-12.2571 F300
G1 X91.6979 Y158.1155 Z-12.2571 F300
G1 X91.7312 Y158.0924 Z-12.2571 F300
G1 X94.6259 Y155.9650 Z-12.2571 F300
G1 X94.6563 Y155.9413 Z-12.2571 F300
G1 X97.4423 Y153.6643 Z-12.2571 F300
G1 X97.4701 Y153.6404 Z-12.2571 F300
G1 X100.1493 Y151.2233 Z-12.2571 F300
G1 X100.1744 Y151.1995 Z-12.2571 F300
G1 X102.7487 Y148.6521 Z-12.2571 F300
G1 X102.7714 Y148.6286 Z-12.2571 F300
G1 X105.2425 Y145.9603 Z-12.2571 F300
G1 X105.2630 Y145.9373 Z-12.2571 F300
G1 X107.6329 Y143.1579 Z-12.2571 F300
G1 X107.6513 Y143.1355 Z-12.2571 F300
G1 X109.9219 Y140.2545 Z-12.2571 F300
G1 X109.9384 Y140.2329 Z-12.2571 F300
G1 X112.1116 Y137.2600 Z-12.2571 F300
G1 X112.1263 Y137.2391 Z-12.2571 F300
G1 X114.2040 Y134.1839 Z-11.7000 F300
G1 X114.2171 Y134.1638 Z-11.7000 F300
G1 X116.2011 Y131.0359 Z-12.2571 F300
G1 X116.2129 Y131.0167 Z-12.2571 F300
G1 X118.1051 Y127.8256 Z-12.2571 F300
G1 X118.1156 Y127.8073 Z-12.2571 F300
G1 X119.9178 Y124.5627 Z-12.2571 F300
G1 X119.9273 Y124.5452 Z-12.2571 F300
G1 X121.6415 Y121.2567 Z-12.2571 F300
G1 X121.6499 Y121.2400 Z-12.2571 F300
G1 X123.2780 Y117.9173 Z-12.2571 F300
G1 X123.2855 Y117.9014 Z-12.2571 F300
G1 X124.8293 Y114.5541 Z-12.2571 F300
G1 X124.8361 Y114.5389 Z-12.2571 F300
G1 X126.2974 Y111.1765 Z-12.2571 F300
G1 X126.3035 Y111.1621 Z-12.2571 F300
G1 X127.6843 Y107.7942 Z-12.2571 F300
G1 X127.6898 Y107.7805 Z-12.2571 F300
G1 X128.9920 Y104.4168 Z-12.2571 F300
G1 X128.9969 Y104.4037 Z-12.2571 F300
G1 X130.2223 Y101.0538 Z-12.2571 F300
G1 X130.2267 Y101.0413 Z-12.2571 F300
G1 X131.3772 Y97.7149 Z-12.2571 F300
G1 X131.3812 Y97.7029 Z-12.2571 F300
G1 X132.4587 Y94.4095 Z-12.2571 F300
G1 X132.4623 Y94.3981 Z-12.2571 F300
G1 X133.4687 Y91.1473 Z-12.2571 F300
G1 X133.4719 Y91.1363 Z-12.2571 F300
G1 X134.4090 Y87.9378 Z-12.2571 F300
G1 X134.4120 Y87.9273 Z-12.2571 F300
G1 X135.2817 Y84.7906 Z-12.2571 F300
G1 X135.2844 Y84.7805 Z-12.2571 F300
G1 X136.0885 Y81.7153 Z-12.2571 F300
G1 X136.0910 Y81.7056 Z-12.2571 F300
G1 X136.8315 Y78.7214 Z-12.2571 F300
G1 X136.8338 Y78.7121 Z-12.2571 F300
G1 X137.5125 Y75.8186 Z-12.2571 F300
G1 X137.5146 Y75.8096 Z-12.2571 F300
G1 X138.1335 Y73.0164 Z-12.2571 F300
G1 X138.1354 Y73.0076 Z-12.2571 F300
G1 X138.6963 Y70.3244 Z-12.2571 F300
G1 X138.6980 Y70.3158 Z-12.2571 F300
G1 X139.2028 Y67.7521 Z-12.2571 F300
G1 X139.2044 Y67.7437 Z-12.2571 F300
G1 X139.6550 Y65.3091 Z-12.2571 F300
G1 X139.6564 Y65.3008 Z-12.2571 F300
G1 X140.0546 Y63.0050 Z-12.2571 F300
G1 X140.0560 Y62.9967 Z-12.2571 F300
G1 X140.4037 Y60.8493 Z-12.2571 F300
G1 X140.4050 Y60.8409 Z-12.2571 F300
G1 X140.7041 Y58.8514 Z-12.2571 F300
G1 X140.7053 Y58.8428 Z-12.2571 F300
G1 X140.9577 Y57.0210 Z-12.2571 F300
G1 X140.9589 Y57.0120 Z-12.2571 F300
G1 X141.1664 Y55.3673 Z-12.2571 F300
G1 X141.1675 Y55.3575 Z-12.2571 F300
G1 X141.3320 Y53.8997 Z-12.2571 F300
G1 X141.3332 Y53.8886 Z-12.2571 F300
G1 X141.4566 Y52.6272 Z-12.2571 F300
G1 X141.4578 Y52.6138 Z-12.2571 F300
G1 X141.5420 Y51.5584 Z-12.2571 F300
G1 X141.5432 Y51.5405 Z-12.2571 F300
G1 X141.5901 Y50.7008 Z-12.2571 F300
G1 X141.5912 Y50.6729 Z-12.2571 F300
G1 X141.6026 Y50.0585 Z-12.2571 F300
G1 X141.6025 Y50.0263 Z-12.2571 F300
G1 X141.5906 Y49.5365 Z-12.2571 F300
G1 X141.5898 Y49.5167 Z-12.2571 F300
G1 X141.5658 Y49.0441 Z-12.2571 F300
G1 X141.5645 Y49.0238 Z-12.2571 F300
G1 X141.5290 Y48.5682 Z-12.2571 F300
G1 X141.5271 Y48.5475 Z-12.2571 F300
G1 X141.4806 Y48.1086 Z-12.2571 F300
G1 X141.4780 Y48.0874 Z-12.2571 F300
G1 X141.4211 Y47.6649 Z-12.2571 F300
G1 X141.4178 Y47.6432 Z-12.2571 F300
G1 X141.3509 Y47.2368 Z-12.2571 F300
G1 X141.3469 Y47.2148 Z-12.2571 F300
G1 X141.2706 Y46.8242 Z-12.2571 F300
G1 X141.2659 Y46.8019 Z-12.2571 F300
G1 X141.1806 Y46.4268 Z-12.2571 F300
G1 X141.1751 Y46.4042 Z-12.2571 F300
G1 X141.0815 Y46.0442 Z-12.2571 F300
G1 X141.0752 Y46.0215 Z-12.2571 F300
G1 X140.9738 Y45.6764 Z-12.2571 F300
G1 X140.9667 Y45.6536 Z-12.2571 F300
G1 X140.8580 Y45.3231 Z-12.2571 F300
G1 X140.8500 Y45.3002 Z-12.2571 F300
G1 X140.7345 Y44.9840 Z-12.2571 F300
G1 X140.7257 Y44.9611 Z-12.2571 F300
G1 X140.6040 Y44.6589 Z-12.2571 F300
G1 X140.5944 Y44.6361 Z-12.2571 F300
G1 X140.4669 Y44.3476 Z-12.2571 F300
G1 X140.4565 Y44.3250 Z-12.2571 F300
G1 X140.3239 Y44.0499 Z-12.2571 F300
G1 X140.3126 Y44.0275 Z-12.2571 F300
G1 X140.1753 Y43.7655 Z-12.2571 F300
G1 X140.1633 Y43.7434 Z-12.2571 F300
G1 X140.0220 Y43.4942 Z-12.2571 F300
G1 X140.0092 Y43.4726 Z-12.2571 F300
G1 X139.8642 Y43.2359 Z-12.2571 F300
G1 X139.8508 Y43.2148 Z-12.2571 F300
G1 X139.7028 Y42.9902 Z-12.2571 F300
G1 X139.6887 Y42.9696 Z-12.2571 F300
G1 X139.5382 Y42.7570 Z-12.2571 F300
G1 X139.5235 Y42.7370 Z-12.2571 F300
G1 X139.3710 Y42.5359 Z-12.2571 F300
G1 X139.3558 Y42.5166 Z-12.2571 F300
G1 X139.2018 Y42.3269 Z-12.2571 F300
G1 X139.1862 Y42.3083 Z-12.2571 F300
G1 X139.0312 Y42.1295 Z-12.2571 F300
G1 X139.0152 Y42.1116 Z-12.2571 F300
G1 X138.8599 Y41.9435 Z-12.2571 F300
G1 X138.8436 Y41.9264 Z-12.2571 F300
G1 X138.6883 Y41.7687 Z-12.2571 F300
G1 X138.6718 Y41.7524 Z-12.2571 F300
G1 X138.5172 Y41.6048 Z-12.2571 F300
G1 X138.5004 Y41.5893 Z-12.2571 F300
G1 X138.3470 Y41.4515 Z-12.2571 F300
G1 X138.3302 Y41.4368 Z-12.2571 F300
G1 X138.1784 Y41.3085 Z-12.2571 F300
G1 X138.1616 Y41.2946 Z-12.2571 F300
G1 X138.0121 Y41.1754 Z-12.2571 F300
G1 X137.9952 Y41.1624 Z-12.2571 F300
G1 X137.8485 Y41.0521 Z-12.2571 F300
G1 X137.8316 Y41.0398 Z-12.2571 F300
G1 X137.6882 Y40.9381 Z-12.2571 F300
G1 X137.6715 Y40.9266 Z-12.2571 F300
G1 X137.5319 Y40.8332 Z-12.2571 F300
G1 X137.5153 Y40.8224 Z-12.2571 F300
G1 X137.3801 Y40.7370 Z-12.2571 F300
G1 X137.3637 Y40.7269 Z-12.2571 F300
G1 X137.2333 Y40.6492 Z-12.2571 F300
G1 X137.2172 Y40.6398 Z-12.2571 F300
G1 X137.0922 Y40.5695 Z-12.2571 F300
G1 X137.0763 Y40.5608 Z-12.2571 F300
G1 X136.9573 Y40.4975 Z-12.2571 F300
G1 X136.9417 Y40.4895 Z-12.2571 F300
G1 X136.8292 Y40.4330 Z-12.2571 F300
G1 X136.8139 Y40.4255 Z-12.2571 F300
G1 X136.7083 Y40.3755 Z-12.2571 F300
G1 X136.6933 Y40.3686 Z-12.2571 F300
G1 X136.5954 Y40.3248 Z-12.2571 F300
G1 X136.5807 Y40.3184 Z-12.2571 F300
G1 X136.4908 Y40.2805 Z-12.2571 F300
G1 X136.4764 Y40.2747 Z-12.2571 F300
G1 X136.3951 Y40.2423 Z-12.2571 F300
G1 X136.3811 Y40.2369 Z-12.2571 F300
G1 X136.3089 Y40.2099 Z-12.2571 F300
G1 X136.2953 Y40.2049 Z-12.2571 F300
G1 X136.2328 Y40.1829 Z-12.2571 F300
G1 X136.2195 Y40.1783 Z-12.2571 F300
G1 X136.1672 Y40.1609 Z-12.2571 F300
G1 X136.1543 Y40.1568 Z-12.2571 F300
G1 X136.1127 Y40.1438 Z-12.2571 F300
G1 X136.1002 Y40.1400 Z-12.2571 F300
G1 X136.0698 Y40.1311 Z-12.2571 F300
G1 X136.0578 Y40.1277 Z-12.2571 F300
G1 X136.0411 Y40.1231 Z-12.2571 F300
G1 X92.9343 Y26.8136 Z-12.2571 F300
G1 X92.8619 Y26.7951 Z-12.2571 F300
G1 X92.7880 Y26.7839 Z-12.2571 F300
G1 X92.7134 Y26.7802 Z-12.2571 F300
G1 X92.6388 Y26.7839 Z-12.2571 F300
G1 X92.5649 Y26.7949 Z-12.2571 F300
G1 X92.4925 Y26.8133 Z-12.2571 F300
G1 X92.4223 Y26.8388 Z-12.2571 F300
G1 X92.3549 Y26.8712 Z-12.2571 F300
G1 X92.2911 Y26.9101 Z-12.2571 F300
G1 X92.2315 Y26.9551 Z-12.2571 F300
G1 X92.1767 Y27.0059 Z-12.2571 F300
G1 X92.1272 Y27.0618 Z-12.2571 F300
G1 X92.0835 Y27.1225 Z-12.2571 F300
G1 X92.0461 Y27.1871 Z-12.2571 F300
G1 X92.0153 Y27.2552 Z-12.2571 F300
G1 X91.9914 Y27.3259 Z-12.2571 F300
G1 X91.9746 Y27.3988 Z-12.2571 F300
G1 X67.0843 Y167.2523 Z-12.2571 F300
G1 X67.0750 Y167.3253 Z-12.2571 F300
G1 X67.0728 Y167.3988 Z-12.2571 F300
G1 X67.0779 Y167.4722 Z-12.2571 F300
G1 X67.0902 Y167.5447 Z-12.2571 F300
G1 X67.1095 Y167.6157 Z-12.2571 F300
G1 X67.1356 Y167.6845 Z-12.2571 F300
G1 X67.1684 Y167.7503 Z-12.2571 F300
G1 X67.2074 Y167.8126 Z-12.2571 F300
G1 X67.2524 Y167.8708 Z-12.2571 F300
G1 X67.3029 Y167.9244 Z-12.2571 F300
G1 X67.3583 Y167.9727 Z-12.2571 F300
G1 X67.4182 Y168.0153 Z-12.2571 F300
G1 X67.4820 Y168.0519 Z-12.2571 F300
G1 X67.5491 Y168.0821 Z-12.2571 F300
G1 X67.6189 Y168.1055 Z-12.2571 F300
G1 X67.6905 Y168.1220 Z-12.2571 F300
G1 X67.7635 Y168.1314 Z-12.2571 F300
G1 X67.8370 Y168.1336 Z-12.2571 F300
G1 X67.9104 Y168.1286 Z-12.2571 F300
G1 X67.9829 Y168.1164 Z-12.2571 F300
G0 Z5.000
( eyebrow 2/2 )
G0 X0.1602 Y-0.7327 Z5.0000
G1 Z-12.2571 F300
G1 X0.0877 Y-0.7449 Z-12.2571 F300
G1 X0.0143 Y-0.7499 Z-12.2571 F300
G1 X-0.0592 Y-0.7477 Z-12.2571 F300
G1 X-0.1322 Y-0.7383 Z-12.2571 F300
G1 X-0.2038 Y-0.7218 Z-12.2571 F300
G1 X-0.2736 Y-0.6983 Z-12.2571 F300
G1 X-0.3406 Y-0.6682 Z-12.2571 F300
G1 X-0.4045 Y-0.6316 Z-12.2571 F300
G1 X-0.4644 Y-0.5889 Z-12.2571 F300
G1 X-0.5198 Y-0.5406 Z-12.2571 F300
G1 X-0.5703 Y-0.4871 Z-12.2571 F300
G1 X-0.6153 Y-0.4289 Z-12.2571 F300
G1 X-0.6543 Y-0.3666 Z-12.2571 F300
G1 X-0.6871 Y-0.3007 Z-12.2571 F300
G1 X-0.7132 Y-0.2320 Z-12.2571 F300
G1 X-0.7325 Y-0.1610 Z-12.2571 F300
G1 X-0.7448 Y-0.0884 Z-12.2571 F300
G1 X-0.7498 Y-0.0151 Z-12.2571 F300
G1 X-0.7477 Y0.0585 Z-12.2571 F300
G1 X-0.7384 Y0.1314 Z-12.2571 F300
G1 X24.1519 Y139.9850 Z-12.2571 F300
G1 X24.1687 Y140.0578 Z-12.2571 F300
G1 X24.1926 Y140.1286 Z-12.2571 F300
G1 X24.2234 Y140.1966 Z-12.2571 F300
G1 X24.2608 Y140.2613 Z-12.2571 F300
G1 X24.3045 Y140.3219 Z-12.2571 F300
G1 X24.3540 Y140.3779 Z-12.2571 F300
G1 X24.4089 Y140.4286 Z-12.2571 F300
G1 X24.4685 Y140.4737 Z-12.2571 F300
G1 X24.5322 Y140.5126 Z-12.2571 F300
G1 X24.5996 Y140.5449 Z-12.2571 F300
G1 X24.6698 Y140.5704 Z-12.2571 F300
G1 X24.7422 Y140.5888 Z-12.2571 F300
G1 X24.8161 Y140.5999 Z-12.2571 F300
G1 X24.8907 Y140.6036 Z-12.2571 F300
G1 X24.9653 Y140.5998 Z-12.2571 F300
G1 X25.0392 Y140.5887 Z-12.2571 F300
G1 X25.1116 Y140.5702 Z-12.2571 F300
G1 X68.2184 Y127.2606 Z-12.2571 F300
G1 X68.2351 Y127.2560 Z-12.2571 F300
G1 X68.2471 Y127.2526 Z-12.2571 F300
G1 X68.2775 Y127.2437 Z-12.2571 F300
G1 X68.2900 Y127.2399 Z-12.2571 F300
G1 X68.3316 Y127.2269 Z-12.2571 F300
G1 X68.3445 Y127.2228 Z-12.2571 F300
G1 X68.3969 Y127.2054 Z-12.2571 F300
G1 X68.4101 Y127.2009 Z-12.2571 F300
G1 X68.4727 Y127.1788 Z-12.2571 F300
G1 X68.4863 Y127.1739 Z-12.2571 F300
G1 X68.5585 Y127.1468 Z-12.2571 F300
G1 X68.5724 Y127.1414 Z-12.2571 F300
G1 X68.6538 Y127.1091 Z-12.2571 F300
G1 X68.6681 Y127.1032 Z-12.2571 F300
G1 X68.7580 Y127.0653 Z-12.2571 F300
G1 X68.7727 Y127.0589 Z-12.2571 F300
G1 X68.8707 Y127.0151 Z-12.2571 F300
G1 X68.8857 Y127.0082 Z-12.2571 F300
G1 X68.9912 Y126.9582 Z-12.2571 F300
G1 X69.0065 Y126.9508 Z-12.2571 F300
G1 X69.1190 Y126.8943 Z-12.2571 F300
G1 X69.1346 Y126.8862 Z-12.2571 F300
G1 X69.2536 Y126.8230 Z-12.2571 F300
G1 X69.2695 Y126.8143 Z-12.2571 F300
G1 X69.3945 Y126.7439 Z-12.2571 F300
G1 X69.4106 Y126.7345 Z-12.2571 F300
G1 X69.5410 Y126.6568 Z-12.2571 F300
G1 X69.5574 Y126.6468 Z-12.2571 F300
G1 X69.6926 Y126.5613 Z-12.2571 F300
G1 X69.7092 Y126.5506 Z-12.2571 F300
G1 X69.8488 Y126.4572 Z-12.2571 F300
G1 X69.8655 Y126.4456 Z-12.2571 F300
G1 X70.0089 Y126.3439 Z-12.2571 F300
G1 X70.0258 Y126.3317 Z-12.2571 F300
G1 X70.1725 Y126.2214 Z-12.2571 F300
G1 X70.1894 Y126.2083 Z-12.2571 F300
G1 X70.3389 Y126.0891 Z-12.2571 F300
G1 X70.3558 Y126.0753 Z-12.2571 F300
G1 X70.5075 Y125.9469 Z-12.2571 F300
G1 X70.5243 Y125.9323 Z-12.2571 F300
G1 X70.6778 Y125.7944 Z-12.2571 F300
G1 X70.6945 Y125.7789 Z-12.2571 F300
G1 X70.8491 Y125.6313 Z-12.2571 F300
G1 X70.8656 Y125.6150 Z-12.2571 F300
G1 X71.0209 Y125.4573 Z-12.2571 F300
G1 X71.0372 Y125.4402 Z-12.2571 F300
G1 X71.1926 Y125.2721 Z-12.2571 F300
G1 X71.2085 Y125.2543 Z-12.2571 F300
G1 X71.3635 Y125.0755 Z-12.2571 F300
G1 X71.3791 Y125.0569 Z-12.2571 F300
G1 X71.5331 Y124.8671 Z-12.2571 F300
G1 X71.5483 Y124.8478 Z-12.2571 F300
G1 X71.7008 Y124.6467 Z-12.2571 F300
G1 X71.7155 Y124.6268 Z-12.2571 F300
G1 X71.8660 Y124.4141 Z-12.2571 F300
G1 X71.8801 Y124.3935 Z-12.2571 F300
G1 X72.0281 Y124.1690 Z-12.2571 F300
G1 X72.0416 Y124.1479 Z-12.2571 F300
G1 X72.1865 Y123.9111 Z-12.2571 F300
G1 X72.1993 Y123.8895 Z-12.2571 F300
G1 X72.3407 Y123.6403 Z-12.2571 F300
G1 X72.3527 Y123.6183 Z-12.2571 F300
G1 X72.4899 Y123.3563 Z-12.2571 F300
G1 X72.5012 Y123.3339 Z-12.2571 F300
G1 X72.6338 Y123.0588 Z-12.2571 F300
G1 X72.6442 Y123.0362 Z-12.2571 F300
G1 X72.7717 Y122.7477 Z-12.2571 F300
G1 X72.7813 Y122.7249 Z-12.2571 F300
G1 X72.9030 Y122.4227 Z-12.2571 F300
G1 X72.9118 Y122.3998 Z-12.2571 F300
G1 X73.0273 Y122.0836 Z-12.2571 F300
G1 X73.0353 Y122.0607 Z-12.2571 F300
G1 X73.1440 Y121.7302 Z-12.2571 F300
G1 X73.1511 Y121.7073 Z-12.2571 F300
G1 X73.2525 Y121.3623 Z-12.2571 F300
G1 X73.2588 Y121.3395 Z-12.2571 F300
G1 X73.3524 Y120.9796 Z-12.2571 F300
G1 X73.3579 Y120.9570 Z-12.2571 F300
G1 X73.4432 Y120.5819 Z-12.2571 F300
G1 X73.4479 Y120.5596 Z-12.2571 F300
G1 X73.5242 Y120.1689 Z-12.2571 F300
G1 X73.5282 Y120.1469 Z-12.2571 F300
G1 X73.5951 Y119.7405 Z-12.2571 F300
G1 X73.5984 Y119.7189 Z-12.2571 F300
G1 X73.6554 Y119.2964 Z-12.2571 F300
G1 X73.6579 Y119.2752 Z-12.2571 F300
G1 X73.7044 Y118.8363 Z-12.2571 F300
G1 X73.7063 Y118.8155 Z-12.2571 F300
G1 X73.7419 Y118.3599 Z-12.2571 F300
G1 X73.7432 Y118.3396 Z-12.2571 F300
G1 X73.7671 Y117.8671 Z-12.2571 F300
G1 X73.7679 Y117.8473 Z-12.2571 F300
G1 X73.7798 Y117.3574 Z-12.2571 F300
G1 X73.7799 Y117.3253 Z-12.2571 F300
G1 X73.7685 Y116.7108 Z-12.2571 F300
G1 X73.7674 Y116.6829 Z-12.2571 F300
G1 X73.7206 Y115.8432 Z-12.2571 F300
G1 X73.7194 Y115.8253 Z-12.2571 F300
G1 X73.6351 Y114.7700 Z-12.2571 F300
G1 X73.6340 Y114.7566 Z-12.2571 F300
G1 X73.5105 Y113.4952 Z-12.2571 F300
G1 X73.5094 Y113.4841 Z-12.2571 F300
G1 X73.3448 Y112.0262 Z-12.2571 F300
G1 X73.3437 Y112.0165 Z-12.2571 F300
G1 X73.1362 Y110.3718 Z-12.2571 F300
G1 X73.1350 Y110.3628 Z-12.2571 F300
G1 X72.8826 Y108.5409 Z-12.2571 F300
G1 X72.8814 Y108.5323 Z-12.2571 F300
G1 X72.5823 Y106.5428 Z-12.2571 F300
G1 X72.5810 Y106.5345 Z-12.2571 F300
G1 X72.2333 Y104.3870 Z-12.2571 F300
G1 X72.2319 Y104.3787 Z-12.2571 F300
G1 X71.8338 Y102.0829 Z-12.2571 F300
G1 X71.8323 Y102.0746 Z-12.2571 F300
G1 X71.3817 Y99.6400 Z-12.2571 F300
G1 X71.3801 Y99.6316 Z-12.2571 F300
G1 X70.8754 Y97.0679 Z-12.2571 F300
G1 X70.8736 Y97.0593 Z-12.2571 F300
G1 X70.3127 Y94.3761 Z-12.2571 F300
G1 X70.3108 Y94.3673 Z-12.2571 F300
G1 X69.6919 Y91.5742 Z-12.2571 F300
G1 X69.6899 Y91.5651 Z-12.2571 F300
G1 X69.0111 Y88.6716 Z-12.2571 F300
G1 X69.0088 Y88.6623 Z-12.2571 F300
G1 X68.2683 Y85.6781 Z-12.2571 F300
G1 X68.2658 Y85.6685 Z-12.2571 F300
G1 X67.4617 Y82.6032 Z-12.2571 F300
G1 X67.4590 Y82.5932 Z-12.2571 F300
G1 X66.5893 Y79.4565 Z-12.2571 F300
G1 X66.5863 Y79.4460 Z-12.2571 F300
G1 X65.6493 Y76.2474 Z-12.2571 F300
G1 X65.6460 Y76.2365 Z-12.2571 F300
G1 X64.6397 Y72.9857 Z-12.2571 F300
G1 X64.6360 Y72.9743 Z-12.2571 F300
G1 X63.5586 Y69.6808 Z-12.2571 F300
G1 X63.5545 Y69.6689 Z-12.2571 F300
G1 X62.4041 Y66.3424 Z-12.2571 F300
G1 X62.3996 Y66.3299 Z-12.2571 F300
G1 X61.1742 Y62.9800 Z-12.2571 F300
G1 X61.1693 Y62.9669 Z-12.2571 F300
G1 X59.8671 Y59.6033 Z-12.2571 F300
G1 X59.8616 Y59.5895 Z-12.2571 F300
G1 X58.4808 Y56.2217 Z-12.2571 F300
G1 X58.4747 Y56.2072 Z-12.2571 F300
G1 X57.0134 Y52.8448 Z-12.2571 F300
G1 X57.0066 Y52.8297 Z-12.2571 F300
G1 X55.4628 Y49.4823 Z-12.2571 F300
G1 X55.4553 Y49.4664 Z-12.2571 F300
G1 X53.8272 Y46.1437 Z-12.2571 F300
G1 X53.8188 Y46.1270 Z-12.2571 F300
G1 X52.1046 Y42.8386 Z-12.2571 F300
G1 X52.0952 Y42.8211 Z-12.2571 F300
G1 X50.2929 Y39.5765 Z-12.2571 F300
G1 X50.2824 Y39.5582 Z-12.2571 F300
G1 X48.3902 Y36.3671 Z-12.2571 F300
G1 X48.3784 Y36.3479 Z-12.2571 F300
G1 X46.3944 Y33.2199 Z-11.7000 F300
G1 X46.3813 Y33.1999 Z-11.7000 F300
G1 X44.3036 Y30.1446 Z-12.2571 F300
G1 X44.2889 Y30.1238 Z-12.2571 F300
G1 X42.1157 Y27.1509 Z-12.2571 F300
G1 X42.0992 Y27.1292 Z-12.2571 F300
G1 X39.8286 Y24.2482 Z-12.2571 F300
G1 X39.8102 Y24.2259 Z-12.2571 F300
G1 X37.4403 Y21.4464 Z-12.2571 F300
G1 X37.4198 Y21.4234 Z-12.2571 F300
G1 X34.9487 Y18.7552 Z-12.2571 F300
G1 X34.9260 Y18.7317 Z-12.2571 F300
G1 X32.3518 Y16.1842 Z-12.2571 F300
G1 X32.3266 Y16.1604 Z-12.2571 F300
G1 X29.6474 Y13.7433 Z-12.2571 F300
G1 X29.6197 Y13.7195 Z-12.2571 F300
G1 X26.8337 Y11.4424 Z-12.2571 F300
G1 X26.8032 Y11.4188 Z-12.2571 F300
G1 X23.9085 Y9.2913 Z-12.2571 F300
G1 X23.8752 Y9.2682 Z-12.2571 F300
G1 X20.8700 Y7.3000 Z-12.2571 F300
G1 X20.8339 Y7.2778 Z-12.2571 F300
G1 X17.7162 Y5.4784 Z-12.2571 F300
G1 X17.6775 Y5.4576 Z-12.2571 F300
G1 X14.4455 Y3.8366 Z-12.2571 F300
G1 X14.4043 Y3.8175 Z-12.2571 F300
G1 X11.0560 Y2.3846 Z-12.2571 F300
G1 X11.0127 Y2.3677 Z-12.2571 F300
G1 X7.5463 Y1.1325 Z-12.2571 F300
G1 X7.5012 Y1.1180 Z-12.2571 F300
G1 X3.9148 Y0.0900 Z-12.2571 F300
G1 X3.8684 Y0.0783 Z-12.2571 F300
G1 X0.1602 Y-0.7327 Z-12.2571 F300
G0 Z5.000
( -- pass 14/14, target Z=-13.2000 -- )
( eyebrow 1/2 )
G0 X67.9829 Y168.1164 Z5.0000
G1 Z-13.2000 F300
G1 X71.6911 Y167.3054 Z-13.2000 F300
G1 X71.7375 Y167.2937 Z-13.2000 F300
G1 X75.3239 Y166.2658 Z-13.2000 F300
G1 X75.3690 Y166.2513 Z-13.2000 F300
G1 X78.8354 Y165.0161 Z-13.2000 F300
G1 X78.8787 Y164.9991 Z-13.2000 F300
G1 X82.2270 Y163.5662 Z-13.2000 F300
G1 X82.2681 Y163.5471 Z-13.2000 F300
G1 X85.5002 Y161.9262 Z-13.2000 F300
G1 X85.5389 Y161.9053 Z-13.2000 F300
G1 X88.6566 Y160.1059 Z-13.2000 F300
G1 X88.6926 Y160.0838 Z-13.2000 F300
G1 X91.6979 Y158.1155 Z-13.2000 F300
G1 X91.7312 Y158.0924 Z-13.2000 F300
G1 X94.6259 Y155.9650 Z-13.2000 F300
G1 X94.6563 Y155.9413 Z-13.2000 F300
G1 X97.4423 Y153.6643 Z-13.2000 F300
G1 X97.4701 Y153.6404 Z-13.2000 F300
G1 X100.1493 Y151.2233 Z-13.2000 F300
G1 X100.1744 Y151.1995 Z-13.2000 F300
G1 X102.7487 Y148.6521 Z-13.2000 F300
G1 X102.7714 Y148.6286 Z-13.2000 F300
G1 X105.2425 Y145.9603 Z-13.2000 F300
G1 X105.2630 Y145.9373 Z-13.2000 F300
G1 X107.6329 Y143.1579 Z-13.2000 F300
G1 X107.6513 Y143.1355 Z-13.2000 F300
G1 X109.9219 Y140.2545 Z-13.2000 F300
G1 X109.9384 Y140.2329 Z-13.2000 F300
G1 X112.1116 Y137.2600 Z-13.2000 F300
G1 X112.1263 Y137.2391 Z-13.2000 F300
G1 X114.2040 Y134.1839 Z-11.7000 F300
G1 X114.2171 Y134.1638 Z-11.7000 F300
G1 X116.2011 Y131.0359 Z-13.2000 F300
G1 X116.2129 Y131.0167 Z-13.2000 F300
G1 X118.1051 Y127.8256 Z-13.2000 F300
G1 X118.1156 Y127.8073 Z-13.2000 F300
G1 X119.9178 Y124.5627 Z-13.2000 F300
G1 X119.9273 Y124.5452 Z-13.2000 F300
G1 X121.6415 Y121.2567 Z-13.2000 F300
G1 X121.6499 Y121.2400 Z-13.2000 F300
G1 X123.2780 Y117.9173 Z-13.2000 F300
G1 X123.2855 Y117.9014 Z-13.2000 F300
G1 X124.8293 Y114.5541 Z-13.2000 F300
G1 X124.8361 Y114.5389 Z-13.2000 F300
G1 X126.2974 Y111.1765 Z-13.2000 F300
G1 X126.3035 Y111.1621 Z-13.2000 F300
G1 X127.6843 Y107.7942 Z-13.2000 F300
G1 X127.6898 Y107.7805 Z-13.2000 F300
G1 X128.9920 Y104.4168 Z-13.2000 F300
G1 X128.9969 Y104.4037 Z-13.2000 F300
G1 X130.2223 Y101.0538 Z-13.2000 F300
G1 X130.2267 Y101.0413 Z-13.2000 F300
G1 X131.3772 Y97.7149 Z-13.2000 F300
G1 X131.3812 Y97.7029 Z-13.2000 F300
G1 X132.4587 Y94.4095 Z-13.2000 F300
G1 X132.4623 Y94.3981 Z-13.2000 F300
G1 X133.4687 Y91.1473 Z-13.2000 F300
G1 X133.4719 Y91.1363 Z-13.2000 F300
G1 X134.4090 Y87.9378 Z-13.2000 F300
G1 X134.4120 Y87.9273 Z-13.2000 F300
G1 X135.2817 Y84.7906 Z-13.2000 F300
G1 X135.2844 Y84.7805 Z-13.2000 F300
G1 X136.0885 Y81.7153 Z-13.2000 F300
G1 X136.0910 Y81.7056 Z-13.2000 F300
G1 X136.8315 Y78.7214 Z-13.2000 F300
G1 X136.8338 Y78.7121 Z-13.2000 F300
G1 X137.5125 Y75.8186 Z-13.2000 F300
G1 X137.5146 Y75.8096 Z-13.2000 F300
G1 X138.1335 Y73.0164 Z-13.2000 F300
G1 X138.1354 Y73.0076 Z-13.2000 F300
G1 X138.6963 Y70.3244 Z-13.2000 F300
G1 X138.6980 Y70.3158 Z-13.2000 F300
G1 X139.2028 Y67.7521 Z-13.2000 F300
G1 X139.2044 Y67.7437 Z-13.2000 F300
G1 X139.6550 Y65.3091 Z-13.2000 F300
G1 X139.6564 Y65.3008 Z-13.2000 F300
G1 X140.0546 Y63.0050 Z-13.2000 F300
G1 X140.0560 Y62.9967 Z-13.2000 F300
G1 X140.4037 Y60.8493 Z-13.2000 F300
G1 X140.4050 Y60.8409 Z-13.2000 F300
G1 X140.7041 Y58.8514 Z-13.2000 F300
G1 X140.7053 Y58.8428 Z-13.2000 F300
G1 X140.9577 Y57.0210 Z-13.2000 F300
G1 X140.9589 Y57.0120 Z-13.2000 F300
G1 X141.1664 Y55.3673 Z-13.2000 F300
G1 X141.1675 Y55.3575 Z-13.2000 F300
G1 X141.3320 Y53.8997 Z-13.2000 F300
G1 X141.3332 Y53.8886 Z-13.2000 F300
G1 X141.4566 Y52.6272 Z-13.2000 F300
G1 X141.4578 Y52.6138 Z-13.2000 F300
G1 X141.5420 Y51.5584 Z-13.2000 F300
G1 X141.5432 Y51.5405 Z-13.2000 F300
G1 X141.5901 Y50.7008 Z-13.2000 F300
G1 X141.5912 Y50.6729 Z-13.2000 F300
G1 X141.6026 Y50.0585 Z-13.2000 F300
G1 X141.6025 Y50.0263 Z-13.2000 F300
G1 X141.5906 Y49.5365 Z-13.2000 F300
G1 X141.5898 Y49.5167 Z-13.2000 F300
G1 X141.5658 Y49.0441 Z-13.2000 F300
G1 X141.5645 Y49.0238 Z-13.2000 F300
G1 X141.5290 Y48.5682 Z-13.2000 F300
G1 X141.5271 Y48.5475 Z-13.2000 F300
G1 X141.4806 Y48.1086 Z-13.2000 F300
G1 X141.4780 Y48.0874 Z-13.2000 F300
G1 X141.4211 Y47.6649 Z-13.2000 F300
G1 X141.4178 Y47.6432 Z-13.2000 F300
G1 X141.3509 Y47.2368 Z-13.2000 F300
G1 X141.3469 Y47.2148 Z-13.2000 F300
G1 X141.2706 Y46.8242 Z-13.2000 F300
G1 X141.2659 Y46.8019 Z-13.2000 F300
G1 X141.1806 Y46.4268 Z-13.2000 F300
G1 X141.1751 Y46.4042 Z-13.2000 F300
G1 X141.0815 Y46.0442 Z-13.2000 F300
G1 X141.0752 Y46.0215 Z-13.2000 F300
G1 X140.9738 Y45.6764 Z-13.2000 F300
G1 X140.9667 Y45.6536 Z-13.2000 F300
G1 X140.8580 Y45.3231 Z-13.2000 F300
G1 X140.8500 Y45.3002 Z-13.2000 F300
G1 X140.7345 Y44.9840 Z-13.2000 F300
G1 X140.7257 Y44.9611 Z-13.2000 F300
G1 X140.6040 Y44.6589 Z-13.2000 F300
G1 X140.5944 Y44.6361 Z-13.2000 F300
G1 X140.4669 Y44.3476 Z-13.2000 F300
G1 X140.4565 Y44.3250 Z-13.2000 F300
G1 X140.3239 Y44.0499 Z-13.2000 F300
G1 X140.3126 Y44.0275 Z-13.2000 F300
G1 X140.1753 Y43.7655 Z-13.2000 F300
G1 X140.1633 Y43.7434 Z-13.2000 F300
G1 X140.0220 Y43.4942 Z-13.2000 F300
G1 X140.0092 Y43.4726 Z-13.2000 F300
G1 X139.8642 Y43.2359 Z-13.2000 F300
G1 X139.8508 Y43.2148 Z-13.2000 F300
G1 X139.7028 Y42.9902 Z-13.2000 F300
G1 X139.6887 Y42.9696 Z-13.2000 F300
G1 X139.5382 Y42.7570 Z-13.2000 F300
G1 X139.5235 Y42.7370 Z-13.2000 F300
G1 X139.3710 Y42.5359 Z-13.2000 F300
G1 X139.3558 Y42.5166 Z-13.2000 F300
G1 X139.2018 Y42.3269 Z-13.2000 F300
G1 X139.1862 Y42.3083 Z-13.2000 F300
G1 X139.0312 Y42.1295 Z-13.2000 F300
G1 X139.0152 Y42.1116 Z-13.2000 F300
G1 X138.8599 Y41.9435 Z-13.2000 F300
G1 X138.8436 Y41.9264 Z-13.2000 F300
G1 X138.6883 Y41.7687 Z-13.2000 F300
G1 X138.6718 Y41.7524 Z-13.2000 F300
G1 X138.5172 Y41.6048 Z-13.2000 F300
G1 X138.5004 Y41.5893 Z-13.2000 F300
G1 X138.3470 Y41.4515 Z-13.2000 F300
G1 X138.3302 Y41.4368 Z-13.2000 F300
G1 X138.1784 Y41.3085 Z-13.2000 F300
G1 X138.1616 Y41.2946 Z-13.2000 F300
G1 X138.0121 Y41.1754 Z-13.2000 F300
G1 X137.9952 Y41.1624 Z-13.2000 F300
G1 X137.8485 Y41.0521 Z-13.2000 F300
G1 X137.8316 Y41.0398 Z-13.2000 F300
G1 X137.6882 Y40.9381 Z-13.2000 F300
G1 X137.6715 Y40.9266 Z-13.2000 F300
G1 X137.5319 Y40.8332 Z-13.2000 F300
G1 X137.5153 Y40.8224 Z-13.2000 F300
G1 X137.3801 Y40.7370 Z-13.2000 F300
G1 X137.3637 Y40.7269 Z-13.2000 F300
G1 X137.2333 Y40.6492 Z-13.2000 F300
G1 X137.2172 Y40.6398 Z-13.2000 F300
G1 X137.0922 Y40.5695 Z-13.2000 F300
G1 X137.0763 Y40.5608 Z-13.2000 F300
G1 X136.9573 Y40.4975 Z-13.2000 F300
G1 X136.9417 Y40.4895 Z-13.2000 F300
G1 X136.8292 Y40.4330 Z-13.2000 F300
G1 X136.8139 Y40.4255 Z-13.2000 F300
G1 X136.7083 Y40.3755 Z-13.2000 F300
G1 X136.6933 Y40.3686 Z-13.2000 F300
G1 X136.5954 Y40.3248 Z-13.2000 F300
G1 X136.5807 Y40.3184 Z-13.2000 F300
G1 X136.4908 Y40.2805 Z-13.2000 F300
G1 X136.4764 Y40.2747 Z-13.2000 F300
G1 X136.3951 Y40.2423 Z-13.2000 F300
G1 X136.3811 Y40.2369 Z-13.2000 F300
G1 X136.3089 Y40.2099 Z-13.2000 F300
G1 X136.2953 Y40.2049 Z-13.2000 F300
G1 X136.2328 Y40.1829 Z-13.2000 F300
G1 X136.2195 Y40.1783 Z-13.2000 F300
G1 X136.1672 Y40.1609 Z-13.2000 F300
G1 X136.1543 Y40.1568 Z-13.2000 F300
G1 X136.1127 Y40.1438 Z-13.2000 F300
G1 X136.1002 Y40.1400 Z-13.2000 F300
G1 X136.0698 Y40.1311 Z-13.2000 F300
G1 X136.0578 Y40.1277 Z-13.2000 F300
G1 X136.0411 Y40.1231 Z-13.2000 F300
G1 X92.9343 Y26.8136 Z-13.2000 F300
G1 X92.8619 Y26.7951 Z-13.2000 F300
G1 X92.7880 Y26.7839 Z-13.2000 F300
G1 X92.7134 Y26.7802 Z-13.2000 F300
G1 X92.6388 Y26.7839 Z-13.2000 F300
G1 X92.5649 Y26.7949 Z-13.2000 F300
G1 X92.4925 Y26.8133 Z-13.2000 F300
G1 X92.4223 Y26.8388 Z-13.2000 F300
G1 X92.3549 Y26.8712 Z-13.2000 F300
G1 X92.2911 Y26.9101 Z-13.2000 F300
G1 X92.2315 Y26.9551 Z-13.2000 F300
G1 X92.1767 Y27.0059 Z-13.2000 F300
G1 X92.1272 Y27.0618 Z-13.2000 F300
G1 X92.0835 Y27.1225 Z-13.2000 F300
G1 X92.0461 Y27.1871 Z-13.2000 F300
G1 X92.0153 Y27.2552 Z-13.2000 F300
G1 X91.9914 Y27.3259 Z-13.2000 F300
G1 X91.9746 Y27.3988 Z-13.2000 F300
G1 X67.0843 Y167.2523 Z-13.2000 F300
G1 X67.0750 Y167.3253 Z-13.2000 F300
G1 X67.0728 Y167.3988 Z-13.2000 F300
G1 X67.0779 Y167.4722 Z-13.2000 F300
G1 X67.0902 Y167.5447 Z-13.2000 F300
G1 X67.1095 Y167.6157 Z-13.2000 F300
G1 X67.1356 Y167.6845 Z-13.2000 F300
G1 X67.1684 Y167.7503 Z-13.2000 F300
G1 X67.2074 Y167.8126 Z-13.2000 F300
G1 X67.2524 Y167.8708 Z-13.2000 F300
G1 X67.3029 Y167.9244 Z-13.2000 F300
G1 X67.3583 Y167.9727 Z-13.2000 F300
G1 X67.4182 Y168.0153 Z-13.2000 F300
G1 X67.4820 Y168.0519 Z-13.2000 F300
G1 X67.5491 Y168.0821 Z-13.2000 F300
G1 X67.6189 Y168.1055 Z-13.2000 F300
G1 X67.6905 Y168.1220 Z-13.2000 F300
G1 X67.7635 Y168.1314 Z-13.2000 F300
G1 X67.8370 Y168.1336 Z-13.2000 F300
G1 X67.9104 Y168.1286 Z-13.2000 F300
G1 X67.9829 Y168.1164 Z-13.2000 F300
G0 Z5.000
( eyebrow 2/2 )
G0 X0.1602 Y-0.7327 Z5.0000
G1 Z-13.2000 F300
G1 X0.0877 Y-0.7449 Z-13.2000 F300
G1 X0.0143 Y-0.7499 Z-13.2000 F300
G1 X-0.0592 Y-0.7477 Z-13.2000 F300
G1 X-0.1322 Y-0.7383 Z-13.2000 F300
G1 X-0.2038 Y-0.7218 Z-13.2000 F300
G1 X-0.2736 Y-0.6983 Z-13.2000 F300
G1 X-0.3406 Y-0.6682 Z-13.2000 F300
G1 X-0.4045 Y-0.6316 Z-13.2000 F300
G1 X-0.4644 Y-0.5889 Z-13.2000 F300
G1 X-0.5198 Y-0.5406 Z-13.2000 F300
G1 X-0.5703 Y-0.4871 Z-13.2000 F300
G1 X-0.6153 Y-0.4289 Z-13.2000 F300
G1 X-0.6543 Y-0.3666 Z-13.2000 F300
G1 X-0.6871 Y-0.3007 Z-13.2000 F300
G1 X-0.7132 Y-0.2320 Z-13.2000 F300
G1 X-0.7325 Y-0.1610 Z-13.2000 F300
G1 X-0.7448 Y-0.0884 Z-13.2000 F300
G1 X-0.7498 Y-0.0151 Z-13.2000 F300
G1 X-0.7477 Y0.0585 Z-13.2000 F300
G1 X-0.7384 Y0.1314 Z-13.2000 F300
G1 X24.1519 Y139.9850 Z-13.2000 F300
G1 X24.1687 Y140.0578 Z-13.2000 F300
G1 X24.1926 Y140.1286 Z-13.2000 F300
G1 X24.2234 Y140.1966 Z-13.2000 F300
G1 X24.2608 Y140.2613 Z-13.2000 F300
G1 X24.3045 Y140.3219 Z-13.2000 F300
G1 X24.3540 Y140.3779 Z-13.2000 F300
G1 X24.4089 Y140.4286 Z-13.2000 F300
G1 X24.4685 Y140.4737 Z-13.2000 F300
G1 X24.5322 Y140.5126 Z-13.2000 F300
G1 X24.5996 Y140.5449 Z-13.2000 F300
G1 X24.6698 Y140.5704 Z-13.2000 F300
G1 X24.7422 Y140.5888 Z-13.2000 F300
G1 X24.8161 Y140.5999 Z-13.2000 F300
G1 X24.8907 Y140.6036 Z-13.2000 F300
G1 X24.9653 Y140.5998 Z-13.2000 F300
G1 X25.0392 Y140.5887 Z-13.2000 F300
G1 X25.1116 Y140.5702 Z-13.2000 F300
G1 X68.2184 Y127.2606 Z-13.2000 F300
G1 X68.2351 Y127.2560 Z-13.2000 F300
G1 X68.2471 Y127.2526 Z-13.2000 F300
G1 X68.2775 Y127.2437 Z-13.2000 F300
G1 X68.2900 Y127.2399 Z-13.2000 F300
G1 X68.3316 Y127.2269 Z-13.2000 F300
G1 X68.3445 Y127.2228 Z-13.2000 F300
G1 X68.3969 Y127.2054 Z-13.2000 F300
G1 X68.4101 Y127.2009 Z-13.2000 F300
G1 X68.4727 Y127.1788 Z-13.2000 F300
G1 X68.4863 Y127.1739 Z-13.2000 F300
G1 X68.5585 Y127.1468 Z-13.2000 F300
G1 X68.5724 Y127.1414 Z-13.2000 F300
G1 X68.6538 Y127.1091 Z-13.2000 F300
G1 X68.6681 Y127.1032 Z-13.2000 F300
G1 X68.7580 Y127.0653 Z-13.2000 F300
G1 X68.7727 Y127.0589 Z-13.2000 F300
G1 X68.8707 Y127.0151 Z-13.2000 F300
G1 X68.8857 Y127.0082 Z-13.2000 F300
G1 X68.9912 Y126.9582 Z-13.2000 F300
G1 X69.0065 Y126.9508 Z-13.2000 F300
G1 X69.1190 Y126.8943 Z-13.2000 F300
G1 X69.1346 Y126.8862 Z-13.2000 F300
G1 X69.2536 Y126.8230 Z-13.2000 F300
G1 X69.2695 Y126.8143 Z-13.2000 F300
G1 X69.3945 Y126.7439 Z-13.2000 F300
G1 X69.4106 Y126.7345 Z-13.2000 F300
G1 X69.5410 Y126.6568 Z-13.2000 F300
G1 X69.5574 Y126.6468 Z-13.2000 F300
G1 X69.6926 Y126.5613 Z-13.2000 F300
G1 X69.7092 Y126.5506 Z-13.2000 F300
G1 X69.8488 Y126.4572 Z-13.2000 F300
G1 X69.8655 Y126.4456 Z-13.2000 F300
G1 X70.0089 Y126.3439 Z-13.2000 F300
G1 X70.0258 Y126.3317 Z-13.2000 F300
G1 X70.1725 Y126.2214 Z-13.2000 F300
G1 X70.1894 Y126.2083 Z-13.2000 F300
G1 X70.3389 Y126.0891 Z-13.2000 F300
G1 X70.3558 Y126.0753 Z-13.2000 F300
G1 X70.5075 Y125.9469 Z-13.2000 F300
G1 X70.5243 Y125.9323 Z-13.2000 F300
G1 X70.6778 Y125.7944 Z-13.2000 F300
G1 X70.6945 Y125.7789 Z-13.2000 F300
G1 X70.8491 Y125.6313 Z-13.2000 F300
G1 X70.8656 Y125.6150 Z-13.2000 F300
G1 X71.0209 Y125.4573 Z-13.2000 F300
G1 X71.0372 Y125.4402 Z-13.2000 F300
G1 X71.1926 Y125.2721 Z-13.2000 F300
G1 X71.2085 Y125.2543 Z-13.2000 F300
G1 X71.3635 Y125.0755 Z-13.2000 F300
G1 X71.3791 Y125.0569 Z-13.2000 F300
G1 X71.5331 Y124.8671 Z-13.2000 F300
G1 X71.5483 Y124.8478 Z-13.2000 F300
G1 X71.7008 Y124.6467 Z-13.2000 F300
G1 X71.7155 Y124.6268 Z-13.2000 F300
G1 X71.8660 Y124.4141 Z-13.2000 F300
G1 X71.8801 Y124.3935 Z-13.2000 F300
G1 X72.0281 Y124.1690 Z-13.2000 F300
G1 X72.0416 Y124.1479 Z-13.2000 F300
G1 X72.1865 Y123.9111 Z-13.2000 F300
G1 X72.1993 Y123.8895 Z-13.2000 F300
G1 X72.3407 Y123.6403 Z-13.2000 F300
G1 X72.3527 Y123.6183 Z-13.2000 F300
G1 X72.4899 Y123.3563 Z-13.2000 F300
G1 X72.5012 Y123.3339 Z-13.2000 F300
G1 X72.6338 Y123.0588 Z-13.2000 F300
G1 X72.6442 Y123.0362 Z-13.2000 F300
G1 X72.7717 Y122.7477 Z-13.2000 F300
G1 X72.7813 Y122.7249 Z-13.2000 F300
G1 X72.9030 Y122.4227 Z-13.2000 F300
G1 X72.9118 Y122.3998 Z-13.2000 F300
G1 X73.0273 Y122.0836 Z-13.2000 F300
G1 X73.0353 Y122.0607 Z-13.2000 F300
G1 X73.1440 Y121.7302 Z-13.2000 F300
G1 X73.1511 Y121.7073 Z-13.2000 F300
G1 X73.2525 Y121.3623 Z-13.2000 F300
G1 X73.2588 Y121.3395 Z-13.2000 F300
G1 X73.3524 Y120.9796 Z-13.2000 F300
G1 X73.3579 Y120.9570 Z-13.2000 F300
G1 X73.4432 Y120.5819 Z-13.2000 F300
G1 X73.4479 Y120.5596 Z-13.2000 F300
G1 X73.5242 Y120.1689 Z-13.2000 F300
G1 X73.5282 Y120.1469 Z-13.2000 F300
G1 X73.5951 Y119.7405 Z-13.2000 F300
G1 X73.5984 Y119.7189 Z-13.2000 F300
G1 X73.6554 Y119.2964 Z-13.2000 F300
G1 X73.6579 Y119.2752 Z-13.2000 F300
G1 X73.7044 Y118.8363 Z-13.2000 F300
G1 X73.7063 Y118.8155 Z-13.2000 F300
G1 X73.7419 Y118.3599 Z-13.2000 F300
G1 X73.7432 Y118.3396 Z-13.2000 F300
G1 X73.7671 Y117.8671 Z-13.2000 F300
G1 X73.7679 Y117.8473 Z-13.2000 F300
G1 X73.7798 Y117.3574 Z-13.2000 F300
G1 X73.7799 Y117.3253 Z-13.2000 F300
G1 X73.7685 Y116.7108 Z-13.2000 F300
G1 X73.7674 Y116.6829 Z-13.2000 F300
G1 X73.7206 Y115.8432 Z-13.2000 F300
G1 X73.7194 Y115.8253 Z-13.2000 F300
G1 X73.6351 Y114.7700 Z-13.2000 F300
G1 X73.6340 Y114.7566 Z-13.2000 F300
G1 X73.5105 Y113.4952 Z-13.2000 F300
G1 X73.5094 Y113.4841 Z-13.2000 F300
G1 X73.3448 Y112.0262 Z-13.2000 F300
G1 X73.3437 Y112.0165 Z-13.2000 F300
G1 X73.1362 Y110.3718 Z-13.2000 F300
G1 X73.1350 Y110.3628 Z-13.2000 F300
G1 X72.8826 Y108.5409 Z-13.2000 F300
G1 X72.8814 Y108.5323 Z-13.2000 F300
G1 X72.5823 Y106.5428 Z-13.2000 F300
G1 X72.5810 Y106.5345 Z-13.2000 F300
G1 X72.2333 Y104.3870 Z-13.2000 F300
G1 X72.2319 Y104.3787 Z-13.2000 F300
G1 X71.8338 Y102.0829 Z-13.2000 F300
G1 X71.8323 Y102.0746 Z-13.2000 F300
G1 X71.3817 Y99.6400 Z-13.2000 F300
G1 X71.3801 Y99.6316 Z-13.2000 F300
G1 X70.8754 Y97.0679 Z-13.2000 F300
G1 X70.8736 Y97.0593 Z-13.2000 F300
G1 X70.3127 Y94.3761 Z-13.2000 F300
G1 X70.3108 Y94.3673 Z-13.2000 F300
G1 X69.6919 Y91.5742 Z-13.2000 F300
G1 X69.6899 Y91.5651 Z-13.2000 F300
G1 X69.0111 Y88.6716 Z-13.2000 F300
G1 X69.0088 Y88.6623 Z-13.2000 F300
G1 X68.2683 Y85.6781 Z-13.2000 F300
G1 X68.2658 Y85.6685 Z-13.2000 F300
G1 X67.4617 Y82.6032 Z-13.2000 F300
G1 X67.4590 Y82.5932 Z-13.2000 F300
G1 X66.5893 Y79.4565 Z-13.2000 F300
G1 X66.5863 Y79.4460 Z-13.2000 F300
G1 X65.6493 Y76.2474 Z-13.2000 F300
G1 X65.6460 Y76.2365 Z-13.2000 F300
G1 X64.6397 Y72.9857 Z-13.2000 F300
G1 X64.6360 Y72.9743 Z-13.2000 F300
G1 X63.5586 Y69.6808 Z-13.2000 F300
G1 X63.5545 Y69.6689 Z-13.2000 F300
G1 X62.4041 Y66.3424 Z-13.2000 F300
G1 X62.3996 Y66.3299 Z-13.2000 F300
G1 X61.1742 Y62.9800 Z-13.2000 F300
G1 X61.1693 Y62.9669 Z-13.2000 F300
G1 X59.8671 Y59.6033 Z-13.2000 F300
G1 X59.8616 Y59.5895 Z-13.2000 F300
G1 X58.4808 Y56.2217 Z-13.2000 F300
G1 X58.4747 Y56.2072 Z-13.2000 F300
G1 X57.0134 Y52.8448 Z-13.2000 F300
G1 X57.0066 Y52.8297 Z-13.2000 F300
G1 X55.4628 Y49.4823 Z-13.2000 F300
G1 X55.4553 Y49.4664 Z-13.2000 F300
G1 X53.8272 Y46.1437 Z-13.2000 F300
G1 X53.8188 Y46.1270 Z-13.2000 F300
G1 X52.1046 Y42.8386 Z-13.2000 F300
G1 X52.0952 Y42.8211 Z-13.2000 F300
G1 X50.2929 Y39.5765 Z-13.2000 F300
G1 X50.2824 Y39.5582 Z-13.2000 F300
G1 X48.3902 Y36.3671 Z-13.2000 F300
G1 X48.3784 Y36.3479 Z-13.2000 F300
G1 X46.3944 Y33.2199 Z-11.7000 F300
G1 X46.3813 Y33.1999 Z-11.7000 F300
G1 X44.3036 Y30.1446 Z-13.2000 F300
G1 X44.2889 Y30.1238 Z-13.2000 F300
G1 X42.1157 Y27.1509 Z-13.2000 F300
G1 X42.0992 Y27.1292 Z-13.2000 F300
G1 X39.8286 Y24.2482 Z-13.2000 F300
G1 X39.8102 Y24.2259 Z-13.2000 F300
G1 X37.4403 Y21.4464 Z-13.2000 F300
G1 X37.4198 Y21.4234 Z-13.2000 F300
G1 X34.9487 Y18.7552 Z-13.2000 F300
G1 X34.9260 Y18.7317 Z-13.2000 F300
G1 X32.3518 Y16.1842 Z-13.2000 F300
G1 X32.3266 Y16.1604 Z-13.2000 F300
G1 X29.6474 Y13.7433 Z-13.2000 F300
G1 X29.6197 Y13.7195 Z-13.2000 F300
G1 X26.8337 Y11.4424 Z-13.2000 F300
G1 X26.8032 Y11.4188 Z-13.2000 F300
G1 X23.9085 Y9.2913 Z-13.2000 F300
G1 X23.8752 Y9.2682 Z-13.2000 F300
G1 X20.8700 Y7.3000 Z-13.2000 F300
G1 X20.8339 Y7.2778 Z-13.2000 F300
G1 X17.7162 Y5.4784 Z-13.2000 F300
G1 X17.6775 Y5.4576 Z-13.2000 F300
G1 X14.4455 Y3.8366 Z-13.2000 F300
G1 X14.4043 Y3.8175 Z-13.2000 F300
G1 X11.0560 Y2.3846 Z-13.2000 F300
G1 X11.0127 Y2.3677 Z-13.2000 F300
G1 X7.5463 Y1.1325 Z-13.2000 F300
G1 X7.5012 Y1.1180 Z-13.2000 F300
G1 X3.9148 Y0.0900 Z-13.2000 F300
G1 X3.8684 Y0.0783 Z-13.2000 F300
G1 X0.1602 Y-0.7327 Z-13.2000 F300
G0 Z5.000
G0 Z5.000
M5
M2
