( Eyebrows - round-over pass (along SVG edge, 6mm deep) )
( Origin: true bottom-left corner of the 18x12.5in stock )
( Zero the machine at that corner before running this file )
G21 ( mm )
G90 ( absolute )
M3 S12000 ( ignored if spindle speed is set manually )
G0 Z5.000
( Origin: lower-left corner of the eyebrow artwork's own bounding box )
( Independent coordinate system -- NOT shared with the rest of Scrappy )
( -- eyebrow 1/2 -- )
G0 X0.0000 Y169.4740 Z5.0000
G1 Z-6.0000 F300
G1 X24.8903 Y29.6204 Z-6.0000 F800
G1 X68.0112 Y42.9343 Z-6.0000 F800
G1 X68.0175 Y42.9359 Z-6.0000 F800
G1 X68.0362 Y42.9411 Z-6.0000 F800
G1 X68.0666 Y42.9500 Z-6.0000 F800
G1 X68.1082 Y42.9630 Z-6.0000 F800
G1 X68.1606 Y42.9804 Z-6.0000 F800
G1 X68.2231 Y43.0024 Z-6.0000 F800
G1 X68.2953 Y43.0295 Z-6.0000 F800
G1 X68.3766 Y43.0618 Z-6.0000 F800
G1 X68.4666 Y43.0997 Z-6.0000 F800
G1 X68.5645 Y43.1435 Z-6.0000 F800
G1 X68.6701 Y43.1935 Z-6.0000 F800
G1 X68.7826 Y43.2500 Z-6.0000 F800
G1 X68.9016 Y43.3132 Z-6.0000 F800
G1 X69.0265 Y43.3836 Z-6.0000 F800
G1 X69.1569 Y43.4613 Z-6.0000 F800
G1 X69.2921 Y43.5467 Z-6.0000 F800
G1 X69.4317 Y43.6401 Z-6.0000 F800
G1 X69.5751 Y43.7418 Z-6.0000 F800
G1 X69.7219 Y43.8521 Z-6.0000 F800
G1 X69.8714 Y43.9713 Z-6.0000 F800
G1 X70.0231 Y44.0996 Z-6.0000 F800
G1 X70.1765 Y44.2375 Z-6.0000 F800
G1 X70.3311 Y44.3851 Z-6.0000 F800
G1 X70.4864 Y44.5428 Z-6.0000 F800
G1 X70.6418 Y44.7109 Z-6.0000 F800
G1 X70.7968 Y44.8897 Z-6.0000 F800
G1 X70.9508 Y45.0795 Z-6.0000 F800
G1 X71.1034 Y45.2806 Z-6.0000 F800
G1 X71.2539 Y45.4932 Z-6.0000 F800
G1 X71.4019 Y45.7178 Z-6.0000 F800
G1 X71.5469 Y45.9545 Z-6.0000 F800
G1 X71.6883 Y46.2037 Z-6.0000 F800
G1 X71.8256 Y46.4657 Z-6.0000 F800
G1 X71.9582 Y46.7408 Z-6.0000 F800
G1 X72.0856 Y47.0293 Z-6.0000 F800
G1 X72.2073 Y47.3315 Z-6.0000 F800
G1 X72.3228 Y47.6477 Z-6.0000 F800
G1 X72.4315 Y47.9782 Z-6.0000 F800
G1 X72.5330 Y48.3232 Z-6.0000 F800
G1 X72.6266 Y48.6831 Z-6.0000 F800
G1 X72.7118 Y49.0583 Z-6.0000 F800
G1 X72.7882 Y49.4489 Z-6.0000 F800
G1 X72.8551 Y49.8553 Z-6.0000 F800
G1 X72.9121 Y50.2778 Z-6.0000 F800
G1 X72.9586 Y50.7167 Z-6.0000 F800
G1 X72.9941 Y51.1723 Z-6.0000 F800
G1 X73.0181 Y51.6449 Z-6.0000 F800
G1 X73.0300 Y52.1348 Z-6.0000 F800
G1 X73.0186 Y52.7492 Z-6.0000 F800
G1 X72.9717 Y53.5890 Z-6.0000 F800
G1 X72.8875 Y54.6443 Z-6.0000 F800
G1 X72.7641 Y55.9058 Z-6.0000 F800
G1 X72.5996 Y57.3636 Z-6.0000 F800
G1 X72.3921 Y59.0083 Z-6.0000 F800
G1 X72.1397 Y60.8302 Z-6.0000 F800
G1 X71.8406 Y62.8196 Z-6.0000 F800
G1 X71.4929 Y64.9671 Z-6.0000 F800
G1 X71.0948 Y67.2629 Z-6.0000 F800
G1 X70.6442 Y69.6974 Z-6.0000 F800
G1 X70.1395 Y72.2612 Z-6.0000 F800
G1 X69.5786 Y74.9444 Z-6.0000 F800
G1 X68.9597 Y77.7376 Z-6.0000 F800
G1 X68.2809 Y80.6310 Z-6.0000 F800
G1 X67.5404 Y83.6152 Z-6.0000 F800
G1 X66.7362 Y86.6804 Z-6.0000 F800
G1 X65.8666 Y89.8171 Z-6.0000 F800
G1 X64.9295 Y93.0157 Z-6.0000 F800
G1 X63.9232 Y96.2665 Z-6.0000 F800
G1 X62.8457 Y99.5599 Z-6.0000 F800
G1 X61.6952 Y102.8864 Z-6.0000 F800
G1 X60.4699 Y106.2363 Z-6.0000 F800
G1 X59.1677 Y109.5999 Z-6.0000 F800
G1 X57.7869 Y112.9678 Z-6.0000 F800
G1 X56.3255 Y116.3302 Z-6.0000 F800
G1 X54.7818 Y119.6775 Z-6.0000 F800
G1 X53.1537 Y123.0003 Z-6.0000 F800
G1 X51.4395 Y126.2887 Z-6.0000 F800
G1 X49.6372 Y129.5333 Z-6.0000 F800
G1 X47.7451 Y132.7243 Z-6.0000 F800
G1 X45.7611 Y135.8523 Z-6.0000 F800
G1 X43.6834 Y138.9076 Z-6.0000 F800
G1 X41.5102 Y141.8805 Z-6.0000 F800
G1 X39.2395 Y144.7615 Z-6.0000 F800
G1 X36.8696 Y147.5409 Z-6.0000 F800
G1 X34.3984 Y150.2092 Z-6.0000 F800
G1 X31.8242 Y152.7567 Z-6.0000 F800
G1 X29.1450 Y155.1738 Z-6.0000 F800
G1 X26.3590 Y157.4508 Z-6.0000 F800
G1 X23.4643 Y159.5783 Z-6.0000 F800
G1 X20.4590 Y161.5466 Z-6.0000 F800
G1 X17.3413 Y163.3460 Z-6.0000 F800
G1 X14.1092 Y164.9669 Z-6.0000 F800
G1 X10.7609 Y166.3998 Z-6.0000 F800
G1 X7.2946 Y167.6350 Z-6.0000 F800
G1 X3.7082 Y168.6629 Z-6.0000 F800
G1 X0.0000 Y169.4740 Z-6.0000 F800
G1 X0.0000 Y169.4740 Z-6.0000 F800
G0 Z5.000
( -- eyebrow 2/2 -- )
G0 X69.7512 Y0.0000 Z5.0000
G1 Z-6.0000 F300
G1 X73.4594 Y0.8110 Z-6.0000 F800
G1 X77.0457 Y1.8389 Z-6.0000 F800
G1 X80.5121 Y3.0741 Z-6.0000 F800
G1 X83.8604 Y4.5070 Z-6.0000 F800
G1 X87.0925 Y6.1280 Z-6.0000 F800
G1 X90.2102 Y7.9274 Z-6.0000 F800
G1 X93.2155 Y9.8956 Z-6.0000 F800
G1 X96.1102 Y12.0231 Z-6.0000 F800
G1 X98.8962 Y14.3002 Z-6.0000 F800
G1 X101.5754 Y16.7173 Z-6.0000 F800
G1 X104.1496 Y19.2648 Z-6.0000 F800
G1 X106.6208 Y21.9330 Z-6.0000 F800
G1 X108.9907 Y24.7125 Z-6.0000 F800
G1 X111.2614 Y27.5935 Z-6.0000 F800
G1 X113.4346 Y30.5664 Z-6.0000 F800
G1 X115.5123 Y33.6216 Z-6.0000 F800
G1 X117.4963 Y36.7496 Z-6.0000 F800
G1 X119.3885 Y39.9407 Z-6.0000 F800
G1 X121.1907 Y43.1853 Z-6.0000 F800
G1 X122.9049 Y46.4737 Z-6.0000 F800
G1 X124.5330 Y49.7964 Z-6.0000 F800
G1 X126.0767 Y53.1438 Z-6.0000 F800
G1 X127.5381 Y56.5062 Z-6.0000 F800
G1 X128.9189 Y59.8740 Z-6.0000 F800
G1 X130.2211 Y63.2377 Z-6.0000 F800
G1 X131.4464 Y66.5876 Z-6.0000 F800
G1 X132.5969 Y69.9140 Z-6.0000 F800
G1 X133.6744 Y73.2075 Z-6.0000 F800
G1 X134.6807 Y76.4583 Z-6.0000 F800
G1 X135.6178 Y79.6568 Z-6.0000 F800
G1 X136.4874 Y82.7935 Z-6.0000 F800
G1 X137.2916 Y85.8588 Z-6.0000 F800
G1 X138.0321 Y88.8429 Z-6.0000 F800
G1 X138.7109 Y91.7364 Z-6.0000 F800
G1 X139.3298 Y94.5296 Z-6.0000 F800
G1 X139.8907 Y97.2128 Z-6.0000 F800
G1 X140.3955 Y99.7765 Z-6.0000 F800
G1 X140.8460 Y102.2111 Z-6.0000 F800
G1 X141.2442 Y104.5069 Z-6.0000 F800
G1 X141.5918 Y106.6543 Z-6.0000 F800
G1 X141.8909 Y108.6438 Z-6.0000 F800
G1 X142.1433 Y110.4657 Z-6.0000 F800
G1 X142.3508 Y112.1103 Z-6.0000 F800
G1 X142.5153 Y113.5682 Z-6.0000 F800
G1 X142.6387 Y114.8296 Z-6.0000 F800
G1 X142.7229 Y115.8850 Z-6.0000 F800
G1 X142.7698 Y116.7247 Z-6.0000 F800
G1 X142.7812 Y117.3392 Z-6.0000 F800
G1 X142.7693 Y117.8291 Z-6.0000 F800
G1 X142.7453 Y118.3016 Z-6.0000 F800
G1 X142.7098 Y118.7572 Z-6.0000 F800
G1 X142.6633 Y119.1961 Z-6.0000 F800
G1 X142.6063 Y119.6186 Z-6.0000 F800
G1 X142.5394 Y120.0250 Z-6.0000 F800
G1 X142.4630 Y120.4157 Z-6.0000 F800
G1 X142.3778 Y120.7908 Z-6.0000 F800
G1 X142.2842 Y121.1508 Z-6.0000 F800
G1 X142.1827 Y121.4958 Z-6.0000 F800
G1 X142.0740 Y121.8263 Z-6.0000 F800
G1 X141.9585 Y122.1424 Z-6.0000 F800
G1 X141.8368 Y122.4446 Z-6.0000 F800
G1 X141.7094 Y122.7331 Z-6.0000 F800
G1 X141.5768 Y123.0082 Z-6.0000 F800
G1 X141.4395 Y123.2702 Z-6.0000 F800
G1 X141.2981 Y123.5195 Z-6.0000 F800
G1 X141.1531 Y123.7562 Z-6.0000 F800
G1 X141.0051 Y123.9807 Z-6.0000 F800
G1 X140.8546 Y124.1934 Z-6.0000 F800
G1 X140.7020 Y124.3945 Z-6.0000 F800
G1 X140.5480 Y124.5842 Z-6.0000 F800
G1 X140.3930 Y124.7630 Z-6.0000 F800
G1 X140.2376 Y124.9311 Z-6.0000 F800
G1 X140.0823 Y125.0889 Z-6.0000 F800
G1 X139.9277 Y125.2365 Z-6.0000 F800
G1 X139.7743 Y125.3743 Z-6.0000 F800
G1 X139.6226 Y125.5027 Z-6.0000 F800
G1 X139.4731 Y125.6218 Z-6.0000 F800
G1 X139.3264 Y125.7321 Z-6.0000 F800
G1 X139.1829 Y125.8338 Z-6.0000 F800
G1 X139.0433 Y125.9272 Z-6.0000 F800
G1 X138.9081 Y126.0126 Z-6.0000 F800
G1 X138.7777 Y126.0904 Z-6.0000 F800
G1 X138.6528 Y126.1607 Z-6.0000 F800
G1 X138.5338 Y126.2240 Z-6.0000 F800
G1 X138.4213 Y126.2805 Z-6.0000 F800
G1 X138.3157 Y126.3304 Z-6.0000 F800
G1 X138.2178 Y126.3742 Z-6.0000 F800
G1 X138.1279 Y126.4122 Z-6.0000 F800
G1 X138.0465 Y126.4445 Z-6.0000 F800
G1 X137.9743 Y126.4715 Z-6.0000 F800
G1 X137.9118 Y126.4936 Z-6.0000 F800
G1 X137.8594 Y126.5110 Z-6.0000 F800
G1 X137.8178 Y126.5240 Z-6.0000 F800
G1 X137.7874 Y126.5329 Z-6.0000 F800
G1 X137.7688 Y126.5380 Z-6.0000 F800
G1 X137.7624 Y126.5397 Z-6.0000 F800
G1 X94.6415 Y139.8536 Z-6.0000 F800
G1 X69.7512 Y0.0000 Z-6.0000 F800
G0 Z5.000
G0 Z5.000
M5
M2
