( Scrappy - pupils pocket (centered, 400mm stock) )
( Origin: true bottom-left corner of the 18x12.5in stock )
( Zero the machine at that corner before running this file )
G21 ( mm )
G90 ( absolute )
M3 S12000 ( ignored if spindle speed is set manually )
G0 Z5.000
( Pocket clear: 22 ring(s), 1 Z pass(es) of 0.7937mm to total depth 0.7937mm )
( -- pass 1/1, Z=-0.7937 -- )
G0 X112.8172 Y169.8635 Z5.0000
G1 Z-0.7937 F300
G1 X112.7898 Y170.0272 Z-0.7937 F800
G1 X112.7281 Y170.4317 Z-0.7937 F800
G1 X112.6667 Y170.8809 Z-0.7937 F800
G1 X112.6076 Y171.3722 Z-0.7937 F800
G1 X112.5528 Y171.9029 Z-0.7937 F800
G1 X112.5045 Y172.4702 Z-0.7937 F800
G1 X112.4648 Y173.0715 Z-0.7937 F800
G1 X112.4357 Y173.7041 Z-0.7937 F800
G1 X112.4192 Y174.3652 Z-0.7937 F800
G1 X112.4174 Y175.0522 Z-0.7937 F800
G1 X112.4322 Y175.7623 Z-0.7937 F800
G1 X112.4657 Y176.4929 Z-0.7937 F800
G1 X112.5198 Y177.2411 Z-0.7937 F800
G1 X112.5964 Y178.0044 Z-0.7937 F800
G1 X112.6975 Y178.7800 Z-0.7937 F800
G1 X112.8250 Y179.5652 Z-0.7937 F800
G1 X112.9807 Y180.3575 Z-0.7937 F800
G1 X113.1664 Y181.1542 Z-0.7937 F800
G1 X113.3839 Y181.9527 Z-0.7937 F800
G1 X113.6351 Y182.7507 Z-0.7937 F800
G1 X113.9217 Y183.5455 Z-0.7937 F800
G1 X114.2455 Y184.3350 Z-0.7937 F800
G1 X114.6083 Y185.1167 Z-0.7937 F800
G1 X115.0119 Y185.8886 Z-0.7937 F800
G1 X115.4583 Y186.6485 Z-0.7937 F800
G1 X115.9495 Y187.3944 Z-0.7937 F800
G1 X116.4875 Y188.1245 Z-0.7937 F800
G1 X117.0747 Y188.8368 Z-0.7937 F800
G1 X117.7132 Y189.5296 Z-0.7937 F800
G1 X118.4058 Y190.2009 Z-0.7937 F800
G1 X119.1549 Y190.8488 Z-0.7937 F800
G1 X119.9635 Y191.4713 Z-0.7937 F800
G1 X120.8344 Y192.0664 Z-0.7937 F800
G1 X121.7704 Y192.6317 Z-0.7937 F800
G1 X122.7746 Y193.1649 Z-0.7937 F800
G1 X123.8498 Y193.6633 Z-0.7937 F800
G1 X124.9990 Y194.1244 Z-0.7937 F800
G1 X126.2249 Y194.5454 Z-0.7937 F800
G1 X127.5302 Y194.9233 Z-0.7937 F800
G1 X128.9174 Y195.2552 Z-0.7937 F800
G1 X130.3892 Y195.5382 Z-0.7937 F800
G1 X131.9418 Y195.7683 Z-0.7937 F800
G1 X133.4842 Y195.9213 Z-0.7937 F800
G1 X134.9359 Y195.9799 Z-0.7937 F800
G1 X136.3041 Y195.9501 Z-0.7937 F800
G1 X137.5912 Y195.8369 Z-0.7937 F800
G1 X138.8000 Y195.6457 Z-0.7937 F800
G1 X139.9335 Y195.3813 Z-0.7937 F800
G1 X140.9953 Y195.0484 Z-0.7937 F800
G1 X141.9888 Y194.6513 Z-0.7937 F800
G1 X142.9179 Y194.1937 Z-0.7937 F800
G1 X143.7859 Y193.6789 Z-0.7937 F800
G1 X144.5963 Y193.1098 Z-0.7937 F800
G1 X145.3520 Y192.4892 Z-0.7937 F800
G1 X146.0553 Y191.8196 Z-0.7937 F800
G1 X146.7083 Y191.1036 Z-0.7937 F800
G1 X147.3126 Y190.3440 Z-0.7937 F800
G1 X147.8695 Y189.5436 Z-0.7937 F800
G1 X148.3802 Y188.7056 Z-0.7937 F800
G1 X148.8456 Y187.8336 Z-0.7937 F800
G1 X149.2667 Y186.9313 Z-0.7937 F800
G1 X149.6443 Y186.0024 Z-0.7937 F800
G1 X149.9794 Y185.0512 Z-0.7937 F800
G1 X150.2731 Y184.0817 Z-0.7937 F800
G1 X150.5263 Y183.0983 Z-0.7937 F800
G1 X150.7404 Y182.1053 Z-0.7937 F800
G1 X150.9165 Y181.1072 Z-0.7937 F800
G1 X151.0559 Y180.1085 Z-0.7937 F800
G1 X151.1601 Y179.1135 Z-0.7937 F800
G1 X151.2303 Y178.1269 Z-0.7937 F800
G1 X151.2682 Y177.1531 Z-0.7937 F800
G1 X151.2754 Y176.1968 Z-0.7937 F800
G1 X151.2533 Y175.2626 Z-0.7937 F800
G1 X151.2036 Y174.3552 Z-0.7937 F800
G1 X151.1282 Y173.4792 Z-0.7937 F800
G1 X151.0289 Y172.6396 Z-0.7937 F800
G1 X150.9075 Y171.8412 Z-0.7937 F800
G1 X150.7662 Y171.0892 Z-0.7937 F800
G1 X150.6075 Y170.3891 Z-0.7937 F800
G1 X150.4338 Y169.7466 Z-0.7937 F800
G1 X150.2487 Y169.1679 Z-0.7937 F800
G1 X150.0563 Y168.6601 Z-0.7937 F800
G1 X149.8626 Y168.2309 Z-0.7937 F800
G1 X149.6763 Y167.8894 Z-0.7937 F800
G1 X149.5115 Y167.6454 Z-0.7937 F800
G1 X149.4660 Y167.5932 Z-0.7937 F800
G1 X149.4453 Y167.5988 Z-0.7937 F800
G1 X149.3811 Y167.6147 Z-0.7937 F800
G1 X148.9899 Y167.7033 Z-0.7937 F800
G1 X148.9427 Y167.7132 Z-0.7937 F800
G1 X148.4959 Y167.8002 Z-0.7937 F800
G1 X148.4598 Y167.8068 Z-0.7937 F800
G1 X147.9599 Y167.8922 Z-0.7937 F800
G1 X147.9314 Y167.8968 Z-0.7937 F800
G1 X147.3810 Y167.9806 Z-0.7937 F800
G1 X147.3580 Y167.9839 Z-0.7937 F800
G1 X146.7595 Y168.0660 Z-0.7937 F800
G1 X146.7405 Y168.0685 Z-0.7937 F800
G1 X146.0965 Y168.1490 Z-0.7937 F800
G1 X146.0806 Y168.1509 Z-0.7937 F800
G1 X145.3935 Y168.2298 Z-0.7937 F800
G1 X145.3800 Y168.2313 Z-0.7937 F800
G1 X144.6525 Y168.3084 Z-0.7937 F800
G1 X144.6408 Y168.3096 Z-0.7937 F800
G1 X143.8754 Y168.3851 Z-0.7937 F800
G1 X143.8653 Y168.3861 Z-0.7937 F800
G1 X143.0644 Y168.4599 Z-0.7937 F800
G1 X143.0555 Y168.4607 Z-0.7937 F800
G1 X142.2218 Y168.5328 Z-0.7937 F800
G1 X142.2139 Y168.5334 Z-0.7937 F800
G1 X141.3498 Y168.6038 Z-0.7937 F800
G1 X141.3428 Y168.6044 Z-0.7937 F800
G1 X140.4509 Y168.6730 Z-0.7937 F800
G1 X140.4445 Y168.6735 Z-0.7937 F800
G1 X139.5274 Y168.7403 Z-0.7937 F800
G1 X139.5216 Y168.7407 Z-0.7937 F800
G1 X138.5817 Y168.8058 Z-0.7937 F800
G1 X138.5765 Y168.8062 Z-0.7937 F800
G1 X137.6163 Y168.8695 Z-0.7937 F800
G1 X137.6115 Y168.8698 Z-0.7937 F800
G1 X136.6337 Y168.9313 Z-0.7937 F800
G1 X136.6293 Y168.9316 Z-0.7937 F800
G1 X135.6363 Y168.9913 Z-0.7937 F800
G1 X135.6322 Y168.9916 Z-0.7937 F800
G1 X134.6265 Y169.0495 Z-0.7937 F800
G1 X134.6228 Y169.0497 Z-0.7937 F800
G1 X133.6070 Y169.1057 Z-0.7937 F800
G1 X133.6035 Y169.1059 Z-0.7937 F800
G1 X132.5801 Y169.1601 Z-0.7937 F800
G1 X132.5768 Y169.1603 Z-0.7937 F800
G1 X131.5484 Y169.2126 Z-0.7937 F800
G1 X131.5453 Y169.2128 Z-0.7937 F800
G1 X130.5144 Y169.2632 Z-0.7937 F800
G1 X130.5114 Y169.2633 Z-0.7937 F800
G1 X129.4805 Y169.3119 Z-0.7937 F800
G1 X129.4777 Y169.3120 Z-0.7937 F800
G1 X128.4493 Y169.3587 Z-0.7937 F800
G1 X128.4467 Y169.3588 Z-0.7937 F800
G1 X127.4233 Y169.4035 Z-0.7937 F800
G1 X127.4208 Y169.4036 Z-0.7937 F800
G1 X126.4050 Y169.4464 Z-0.7937 F800
G1 X126.4026 Y169.4465 Z-0.7937 F800
G1 X125.3970 Y169.4874 Z-0.7937 F800
G1 X125.3946 Y169.4875 Z-0.7937 F800
G1 X124.4016 Y169.5263 Z-0.7937 F800
G1 X124.3994 Y169.5264 Z-0.7937 F800
G1 X123.4215 Y169.5633 Z-0.7937 F800
G1 X123.4193 Y169.5634 Z-0.7937 F800
G1 X122.4592 Y169.5983 Z-0.7937 F800
G1 X122.4570 Y169.5984 Z-0.7937 F800
G1 X121.5171 Y169.6313 Z-0.7937 F800
G1 X121.5150 Y169.6313 Z-0.7937 F800
G1 X120.5978 Y169.6622 Z-0.7937 F800
G1 X120.5957 Y169.6623 Z-0.7937 F800
G1 X119.7039 Y169.6911 Z-0.7937 F800
G1 X119.7018 Y169.6912 Z-0.7937 F800
G1 X118.8377 Y169.7180 Z-0.7937 F800
G1 X118.8356 Y169.7181 Z-0.7937 F800
G1 X118.0018 Y169.7428 Z-0.7937 F800
G1 X117.9997 Y169.7429 Z-0.7937 F800
G1 X117.1988 Y169.7655 Z-0.7937 F800
G1 X117.1966 Y169.7656 Z-0.7937 F800
G1 X116.4311 Y169.7861 Z-0.7937 F800
G1 X116.4288 Y169.7862 Z-0.7937 F800
G1 X115.7013 Y169.8047 Z-0.7937 F800
G1 X115.6988 Y169.8047 Z-0.7937 F800
G1 X115.0117 Y169.8211 Z-0.7937 F800
G1 X115.0090 Y169.8211 Z-0.7937 F800
G1 X114.3649 Y169.8353 Z-0.7937 F800
G1 X114.3619 Y169.8354 Z-0.7937 F800
G1 X113.7634 Y169.8474 Z-0.7937 F800
G1 X113.7599 Y169.8475 Z-0.7937 F800
G1 X113.2095 Y169.8574 Z-0.7937 F800
G1 X113.2054 Y169.8575 Z-0.7937 F800
G1 X112.8172 Y169.8635 Z-0.7937 F800
G0 Z5.000
G0 X113.9177 Y171.1146 Z5.0000
G1 Z-0.7937 F300
G1 X113.8697 Y171.5133 Z-0.7937 F800
G1 X113.8173 Y172.0219 Z-0.7937 F800
G1 X113.7710 Y172.5659 Z-0.7937 F800
G1 X113.7329 Y173.1426 Z-0.7937 F800
G1 X113.7050 Y173.7492 Z-0.7937 F800
G1 X113.6891 Y174.3828 Z-0.7937 F800
G1 X113.6874 Y175.0406 Z-0.7937 F800
G1 X113.7016 Y175.7200 Z-0.7937 F800
G1 X113.7336 Y176.4180 Z-0.7937 F800
G1 X113.7852 Y177.1318 Z-0.7937 F800
G1 X113.8582 Y177.8588 Z-0.7937 F800
G1 X113.9543 Y178.5961 Z-0.7937 F800
G1 X114.0752 Y179.3410 Z-0.7937 F800
G1 X114.2225 Y180.0908 Z-0.7937 F800
G1 X114.3979 Y180.8430 Z-0.7937 F800
G1 X114.6027 Y181.5950 Z-0.7937 F800
G1 X114.8386 Y182.3444 Z-0.7937 F800
G1 X115.1071 Y183.0890 Z-0.7937 F800
G1 X115.4096 Y183.8264 Z-0.7937 F800
G1 X115.7476 Y184.5548 Z-0.7937 F800
G1 X116.1228 Y185.2723 Z-0.7937 F800
G1 X116.5369 Y185.9772 Z-0.7937 F800
G1 X116.9918 Y186.6680 Z-0.7937 F800
G1 X117.4895 Y187.3434 Z-0.7937 F800
G1 X118.0323 Y188.0020 Z-0.7937 F800
G1 X118.6228 Y188.6426 Z-0.7937 F800
G1 X119.2638 Y189.2639 Z-0.7937 F800
G1 X119.9583 Y189.8646 Z-0.7937 F800
G1 X120.7097 Y190.4431 Z-0.7937 F800
G1 X121.5214 Y190.9977 Z-0.7937 F800
G1 X122.3969 Y191.5265 Z-0.7937 F800
G1 X123.3399 Y192.0271 Z-0.7937 F800
G1 X124.3537 Y192.4971 Z-0.7937 F800
G1 X125.4420 Y192.9338 Z-0.7937 F800
G1 X126.6079 Y193.3341 Z-0.7937 F800
G1 X127.8547 Y193.6951 Z-0.7937 F800
G1 X129.1852 Y194.0134 Z-0.7937 F800
G1 X130.6022 Y194.2859 Z-0.7937 F800
G1 X132.0977 Y194.5075 Z-0.7937 F800
G1 X133.5726 Y194.6538 Z-0.7937 F800
G1 X134.9477 Y194.7094 Z-0.7937 F800
G1 X136.2346 Y194.6813 Z-0.7937 F800
G1 X137.4362 Y194.5757 Z-0.7937 F800
G1 X138.5562 Y194.3984 Z-0.7937 F800
G1 X139.5989 Y194.1553 Z-0.7937 F800
G1 X140.5690 Y193.8511 Z-0.7937 F800
G1 X141.4718 Y193.4903 Z-0.7937 F800
G1 X142.3125 Y193.0761 Z-0.7937 F800
G1 X143.0961 Y192.6114 Z-0.7937 F800
G1 X143.8273 Y192.0980 Z-0.7937 F800
G1 X144.5100 Y191.5373 Z-0.7937 F800
G1 X145.1471 Y190.9307 Z-0.7937 F800
G1 X145.7410 Y190.2795 Z-0.7937 F800
G1 X146.2934 Y189.5852 Z-0.7937 F800
G1 X146.8051 Y188.8498 Z-0.7937 F800
G1 X147.2769 Y188.0756 Z-0.7937 F800
G1 X147.7092 Y187.2657 Z-0.7937 F800
G1 X148.1022 Y186.4233 Z-0.7937 F800
G1 X148.4564 Y185.5520 Z-0.7937 F800
G1 X148.7721 Y184.6559 Z-0.7937 F800
G1 X149.0498 Y183.7391 Z-0.7937 F800
G1 X149.2902 Y182.8060 Z-0.7937 F800
G1 X149.4939 Y181.8611 Z-0.7937 F800
G1 X149.6618 Y180.9091 Z-0.7937 F800
G1 X149.7951 Y179.9545 Z-0.7937 F800
G1 X149.8948 Y179.0023 Z-0.7937 F800
G1 X149.9621 Y178.0570 Z-0.7937 F800
G1 X149.9984 Y177.1237 Z-0.7937 F800
G1 X150.0052 Y176.2071 Z-0.7937 F800
G1 X149.9841 Y175.3123 Z-0.7937 F800
G1 X149.9366 Y174.4443 Z-0.7937 F800
G1 X149.8646 Y173.6083 Z-0.7937 F800
G1 X149.7701 Y172.8097 Z-0.7937 F800
G1 X149.6552 Y172.0539 Z-0.7937 F800
G1 X149.5225 Y171.3470 Z-0.7937 F800
G1 X149.3746 Y170.6954 Z-0.7937 F800
G1 X149.2154 Y170.1059 Z-0.7937 F800
G1 X149.0493 Y169.5867 Z-0.7937 F800
G1 X148.8826 Y169.1468 Z-0.7937 F800
G1 X148.8295 Y169.0291 Z-0.7937 F800
G1 X148.7386 Y169.0468 Z-0.7937 F800
G1 X148.6736 Y169.0587 Z-0.7937 F800
G1 X148.1737 Y169.1441 Z-0.7937 F800
G1 X148.1225 Y169.1523 Z-0.7937 F800
G1 X147.5720 Y169.2361 Z-0.7937 F800
G1 X147.5307 Y169.2421 Z-0.7937 F800
G1 X146.9321 Y169.3242 Z-0.7937 F800
G1 X146.8980 Y169.3287 Z-0.7937 F800
G1 X146.2540 Y169.4092 Z-0.7937 F800
G1 X146.2254 Y169.4126 Z-0.7937 F800
G1 X145.5383 Y169.4915 Z-0.7937 F800
G1 X145.5140 Y169.4942 Z-0.7937 F800
G1 X144.7865 Y169.5714 Z-0.7937 F800
G1 X144.7655 Y169.5735 Z-0.7937 F800
G1 X144.0001 Y169.6490 Z-0.7937 F800
G1 X143.9818 Y169.6507 Z-0.7937 F800
G1 X143.1810 Y169.7245 Z-0.7937 F800
G1 X143.1649 Y169.7260 Z-0.7937 F800
G1 X142.3312 Y169.7981 Z-0.7937 F800
G1 X142.3170 Y169.7993 Z-0.7937 F800
G1 X141.4529 Y169.8696 Z-0.7937 F800
G1 X141.4402 Y169.8706 Z-0.7937 F800
G1 X140.5483 Y169.9392 Z-0.7937 F800
G1 X140.5369 Y169.9401 Z-0.7937 F800
G1 X139.6197 Y170.0070 Z-0.7937 F800
G1 X139.6094 Y170.0077 Z-0.7937 F800
G1 X138.6695 Y170.0728 Z-0.7937 F800
G1 X138.6600 Y170.0734 Z-0.7937 F800
G1 X137.6999 Y170.1368 Z-0.7937 F800
G1 X137.6913 Y170.1373 Z-0.7937 F800
G1 X136.7134 Y170.1988 Z-0.7937 F800
G1 X136.7055 Y170.1993 Z-0.7937 F800
G1 X135.7125 Y170.2590 Z-0.7937 F800
G1 X135.7052 Y170.2595 Z-0.7937 F800
G1 X134.6995 Y170.3174 Z-0.7937 F800
G1 X134.6927 Y170.3177 Z-0.7937 F800
G1 X133.6770 Y170.3738 Z-0.7937 F800
G1 X133.6706 Y170.3741 Z-0.7937 F800
G1 X132.6473 Y170.4283 Z-0.7937 F800
G1 X132.6414 Y170.4286 Z-0.7937 F800
G1 X131.6129 Y170.4810 Z-0.7937 F800
G1 X131.6074 Y170.4812 Z-0.7937 F800
G1 X130.5764 Y170.5317 Z-0.7937 F800
G1 X130.5712 Y170.5319 Z-0.7937 F800
G1 X129.5402 Y170.5805 Z-0.7937 F800
G1 X129.5353 Y170.5807 Z-0.7937 F800
G1 X128.5069 Y170.6274 Z-0.7937 F800
G1 X128.5021 Y170.6276 Z-0.7937 F800
G1 X127.4788 Y170.6723 Z-0.7937 F800
G1 X127.4743 Y170.6725 Z-0.7937 F800
G1 X126.4585 Y170.7153 Z-0.7937 F800
G1 X126.4542 Y170.7155 Z-0.7937 F800
G1 X125.4485 Y170.7563 Z-0.7937 F800
G1 X125.4443 Y170.7565 Z-0.7937 F800
G1 X124.4513 Y170.7954 Z-0.7937 F800
G1 X124.4473 Y170.7955 Z-0.7937 F800
G1 X123.4694 Y170.8324 Z-0.7937 F800
G1 X123.4655 Y170.8326 Z-0.7937 F800
G1 X122.5053 Y170.8675 Z-0.7937 F800
G1 X122.5015 Y170.8676 Z-0.7937 F800
G1 X121.5615 Y170.9005 Z-0.7937 F800
G1 X121.5577 Y170.9006 Z-0.7937 F800
G1 X120.6406 Y170.9315 Z-0.7937 F800
G1 X120.6368 Y170.9316 Z-0.7937 F800
G1 X119.7449 Y170.9605 Z-0.7937 F800
G1 X119.7411 Y170.9606 Z-0.7937 F800
G1 X118.8771 Y170.9874 Z-0.7937 F800
G1 X118.8732 Y170.9875 Z-0.7937 F800
G1 X118.0395 Y171.0122 Z-0.7937 F800
G1 X118.0356 Y171.0123 Z-0.7937 F800
G1 X117.2347 Y171.0350 Z-0.7937 F800
G1 X117.2307 Y171.0351 Z-0.7937 F800
G1 X116.4652 Y171.0557 Z-0.7937 F800
G1 X116.4610 Y171.0558 Z-0.7937 F800
G1 X115.7335 Y171.0742 Z-0.7937 F800
G1 X115.7289 Y171.0744 Z-0.7937 F800
G1 X115.0419 Y171.0907 Z-0.7937 F800
G1 X115.0370 Y171.0908 Z-0.7937 F800
G1 X114.3929 Y171.1050 Z-0.7937 F800
G1 X114.3875 Y171.1051 Z-0.7937 F800
G1 X113.9177 Y171.1146 Z-0.7937 F800
G0 Z5.000
G0 X115.0630 Y172.3605 Z5.0000
G1 Z-0.7937 F300
G1 X115.0374 Y172.6616 Z-0.7937 F800
G1 X115.0010 Y173.2137 Z-0.7937 F800
G1 X114.9742 Y173.7942 Z-0.7937 F800
G1 X114.9591 Y174.4003 Z-0.7937 F800
G1 X114.9574 Y175.0291 Z-0.7937 F800
G1 X114.9710 Y175.6776 Z-0.7937 F800
G1 X115.0015 Y176.3431 Z-0.7937 F800
G1 X115.0506 Y177.0226 Z-0.7937 F800
G1 X115.1200 Y177.7132 Z-0.7937 F800
G1 X115.2111 Y178.4122 Z-0.7937 F800
G1 X115.3254 Y179.1168 Z-0.7937 F800
G1 X115.4644 Y179.8242 Z-0.7937 F800
G1 X115.6294 Y180.5319 Z-0.7937 F800
G1 X115.8216 Y181.2373 Z-0.7937 F800
G1 X116.0422 Y181.9382 Z-0.7937 F800
G1 X116.2925 Y182.6324 Z-0.7937 F800
G1 X116.5736 Y183.3179 Z-0.7937 F800
G1 X116.8869 Y183.9929 Z-0.7937 F800
G1 X117.2337 Y184.6560 Z-0.7937 F800
G1 X117.6155 Y185.3059 Z-0.7937 F800
G1 X118.0341 Y185.9416 Z-0.7937 F800
G1 X118.4914 Y186.5622 Z-0.7937 F800
G1 X118.9900 Y187.1671 Z-0.7937 F800
G1 X119.5324 Y187.7555 Z-0.7937 F800
G1 X120.1218 Y188.3269 Z-0.7937 F800
G1 X120.7618 Y188.8803 Z-0.7937 F800
G1 X121.4560 Y189.4148 Z-0.7937 F800
G1 X122.2085 Y189.9290 Z-0.7937 F800
G1 X123.0235 Y190.4212 Z-0.7937 F800
G1 X123.9051 Y190.8893 Z-0.7937 F800
G1 X124.8576 Y191.3309 Z-0.7937 F800
G1 X125.8850 Y191.7431 Z-0.7937 F800
G1 X126.9910 Y192.1229 Z-0.7937 F800
G1 X128.1792 Y192.4669 Z-0.7937 F800
G1 X129.4530 Y192.7717 Z-0.7937 F800
G1 X130.8153 Y193.0336 Z-0.7937 F800
G1 X132.2535 Y193.2467 Z-0.7937 F800
G1 X133.6610 Y193.3863 Z-0.7937 F800
G1 X134.9595 Y193.4388 Z-0.7937 F800
G1 X136.1651 Y193.4125 Z-0.7937 F800
G1 X137.2812 Y193.3144 Z-0.7937 F800
G1 X138.3124 Y193.1512 Z-0.7937 F800
G1 X139.2642 Y192.9292 Z-0.7937 F800
G1 X140.1427 Y192.6538 Z-0.7937 F800
G1 X140.9547 Y192.3292 Z-0.7937 F800
G1 X141.7070 Y191.9586 Z-0.7937 F800
G1 X142.4063 Y191.5440 Z-0.7937 F800
G1 X143.0583 Y191.0862 Z-0.7937 F800
G1 X143.6679 Y190.5854 Z-0.7937 F800
G1 X144.2389 Y190.0418 Z-0.7937 F800
G1 X144.7738 Y189.4553 Z-0.7937 F800
G1 X145.2741 Y188.8264 Z-0.7937 F800
G1 X145.7407 Y188.1560 Z-0.7937 F800
G1 X146.1736 Y187.4457 Z-0.7937 F800
G1 X146.5727 Y186.6978 Z-0.7937 F800
G1 X146.9378 Y185.9153 Z-0.7937 F800
G1 X147.2686 Y185.1016 Z-0.7937 F800
G1 X147.5649 Y184.2606 Z-0.7937 F800
G1 X147.8266 Y183.3965 Z-0.7937 F800
G1 X148.0540 Y182.5137 Z-0.7937 F800
G1 X148.2474 Y181.6169 Z-0.7937 F800
G1 X148.4072 Y180.7109 Z-0.7937 F800
G1 X148.5343 Y179.8006 Z-0.7937 F800
G1 X148.6295 Y178.8910 Z-0.7937 F800
G1 X148.6938 Y177.9872 Z-0.7937 F800
G1 X148.7286 Y177.0943 Z-0.7937 F800
G1 X148.7351 Y176.2174 Z-0.7937 F800
G1 X148.7149 Y175.3620 Z-0.7937 F800
G1 X148.6696 Y174.5335 Z-0.7937 F800
G1 X148.6011 Y173.7374 Z-0.7937 F800
G1 X148.5114 Y172.9798 Z-0.7937 F800
G1 X148.4030 Y172.2666 Z-0.7937 F800
G1 X148.2787 Y171.6048 Z-0.7937 F800
G1 X148.1418 Y171.0016 Z-0.7937 F800
G1 X147.9969 Y170.4653 Z-0.7937 F800
G1 X147.9941 Y170.4565 Z-0.7937 F800
G1 X147.7631 Y170.4916 Z-0.7937 F800
G1 X147.7033 Y170.5003 Z-0.7937 F800
G1 X147.1048 Y170.5824 Z-0.7937 F800
G1 X147.0555 Y170.5889 Z-0.7937 F800
G1 X146.4115 Y170.6694 Z-0.7937 F800
G1 X146.3702 Y170.6744 Z-0.7937 F800
G1 X145.6831 Y170.7532 Z-0.7937 F800
G1 X145.6479 Y170.7571 Z-0.7937 F800
G1 X144.9204 Y170.8343 Z-0.7937 F800
G1 X144.8901 Y170.8374 Z-0.7937 F800
G1 X144.1247 Y170.9129 Z-0.7937 F800
G1 X144.0983 Y170.9154 Z-0.7937 F800
G1 X143.2975 Y170.9892 Z-0.7937 F800
G1 X143.2743 Y170.9913 Z-0.7937 F800
G1 X142.4406 Y171.0633 Z-0.7937 F800
G1 X142.4200 Y171.0651 Z-0.7937 F800
G1 X141.5560 Y171.1354 Z-0.7937 F800
G1 X141.5376 Y171.1369 Z-0.7937 F800
G1 X140.6457 Y171.2055 Z-0.7937 F800
G1 X140.6292 Y171.2067 Z-0.7937 F800
G1 X139.7121 Y171.2736 Z-0.7937 F800
G1 X139.6971 Y171.2747 Z-0.7937 F800
G1 X138.7572 Y171.3398 Z-0.7937 F800
G1 X138.7436 Y171.3407 Z-0.7937 F800
G1 X137.7835 Y171.4040 Z-0.7937 F800
G1 X137.7710 Y171.4048 Z-0.7937 F800
G1 X136.7932 Y171.4663 Z-0.7937 F800
G1 X136.7818 Y171.4670 Z-0.7937 F800
G1 X135.7887 Y171.5267 Z-0.7937 F800
G1 X135.7782 Y171.5274 Z-0.7937 F800
G1 X134.7725 Y171.5853 Z-0.7937 F800
G1 X134.7627 Y171.5858 Z-0.7937 F800
G1 X133.7469 Y171.6419 Z-0.7937 F800
G1 X133.7378 Y171.6423 Z-0.7937 F800
G1 X132.7144 Y171.6965 Z-0.7937 F800
G1 X132.7059 Y171.6970 Z-0.7937 F800
G1 X131.6775 Y171.7493 Z-0.7937 F800
G1 X131.6695 Y171.7497 Z-0.7937 F800
G1 X130.6385 Y171.8002 Z-0.7937 F800
G1 X130.6309 Y171.8005 Z-0.7937 F800
G1 X129.6000 Y171.8491 Z-0.7937 F800
G1 X129.5928 Y171.8494 Z-0.7937 F800
G1 X128.5644 Y171.8961 Z-0.7937 F800
G1 X128.5576 Y171.8964 Z-0.7937 F800
G1 X127.5342 Y171.9411 Z-0.7937 F800
G1 X127.5277 Y171.9414 Z-0.7937 F800
G1 X126.5119 Y171.9842 Z-0.7937 F800
G1 X126.5057 Y171.9844 Z-0.7937 F800
G1 X125.5000 Y172.0253 Z-0.7937 F800
G1 X125.4940 Y172.0255 Z-0.7937 F800
G1 X124.5010 Y172.0644 Z-0.7937 F800
G1 X124.4951 Y172.0646 Z-0.7937 F800
G1 X123.5173 Y172.1015 Z-0.7937 F800
G1 X123.5116 Y172.1017 Z-0.7937 F800
G1 X122.5515 Y172.1366 Z-0.7937 F800
G1 X122.5459 Y172.1368 Z-0.7937 F800
G1 X121.6060 Y172.1697 Z-0.7937 F800
G1 X121.6005 Y172.1699 Z-0.7937 F800
G1 X120.6833 Y172.2008 Z-0.7937 F800
G1 X120.6778 Y172.2010 Z-0.7937 F800
G1 X119.7860 Y172.2298 Z-0.7937 F800
G1 X119.7805 Y172.2300 Z-0.7937 F800
G1 X118.9164 Y172.2568 Z-0.7937 F800
G1 X118.9109 Y172.2569 Z-0.7937 F800
G1 X118.0772 Y172.2817 Z-0.7937 F800
G1 X118.0715 Y172.2818 Z-0.7937 F800
G1 X117.2707 Y172.3045 Z-0.7937 F800
G1 X117.2648 Y172.3047 Z-0.7937 F800
G1 X116.4994 Y172.3252 Z-0.7937 F800
G1 X116.4932 Y172.3254 Z-0.7937 F800
G1 X115.7657 Y172.3438 Z-0.7937 F800
G1 X115.7591 Y172.3440 Z-0.7937 F800
G1 X115.0721 Y172.3603 Z-0.7937 F800
G1 X115.0650 Y172.3605 Z-0.7937 F800
G1 X115.0630 Y172.3605 Z-0.7937 F800
G0 Z5.000
G0 X116.2544 Y173.6018 Z5.0000
G1 Z-0.7937 F300
G1 X116.2435 Y173.8393 Z-0.7937 F800
G1 X116.2291 Y174.4178 Z-0.7937 F800
G1 X116.2275 Y175.0175 Z-0.7937 F800
G1 X116.2404 Y175.6353 Z-0.7937 F800
G1 X116.2694 Y176.2682 Z-0.7937 F800
G1 X116.3160 Y176.9133 Z-0.7937 F800
G1 X116.3817 Y177.5677 Z-0.7937 F800
G1 X116.4679 Y178.2283 Z-0.7937 F800
G1 X116.5757 Y178.8925 Z-0.7937 F800
G1 X116.7063 Y179.5575 Z-0.7937 F800
G1 X116.8609 Y180.2207 Z-0.7937 F800
G1 X117.0404 Y180.8796 Z-0.7937 F800
G1 X117.2458 Y181.5320 Z-0.7937 F800
G1 X117.4779 Y182.1758 Z-0.7937 F800
G1 X117.7377 Y182.8093 Z-0.7937 F800
G1 X118.0263 Y183.4310 Z-0.7937 F800
G1 X118.3446 Y184.0397 Z-0.7937 F800
G1 X118.6941 Y184.6346 Z-0.7937 F800
G1 X119.0763 Y185.2151 Z-0.7937 F800
G1 X119.4934 Y185.7810 Z-0.7937 F800
G1 X119.9476 Y186.3322 Z-0.7937 F800
G1 X120.4420 Y186.8685 Z-0.7937 F800
G1 X120.9799 Y187.3899 Z-0.7937 F800
G1 X121.5652 Y187.8961 Z-0.7937 F800
G1 X122.2022 Y188.3865 Z-0.7937 F800
G1 X122.8956 Y188.8603 Z-0.7937 F800
G1 X123.6500 Y189.3159 Z-0.7937 F800
G1 X124.4704 Y189.7515 Z-0.7937 F800
G1 X125.3615 Y190.1646 Z-0.7937 F800
G1 X126.3280 Y190.5524 Z-0.7937 F800
G1 X127.3740 Y190.9116 Z-0.7937 F800
G1 X128.5038 Y191.2387 Z-0.7937 F800
G1 X129.7208 Y191.5299 Z-0.7937 F800
G1 X131.0284 Y191.7813 Z-0.7937 F800
G1 X132.4094 Y191.9860 Z-0.7937 F800
G1 X133.7494 Y192.1189 Z-0.7937 F800
G1 X134.9713 Y192.1683 Z-0.7937 F800
G1 X136.0955 Y192.1437 Z-0.7937 F800
G1 X137.1262 Y192.0531 Z-0.7937 F800
G1 X138.0687 Y191.9040 Z-0.7937 F800
G1 X138.9295 Y191.7032 Z-0.7937 F800
G1 X139.7164 Y191.4565 Z-0.7937 F800
G1 X140.4377 Y191.1682 Z-0.7937 F800
G1 X141.1016 Y190.8411 Z-0.7937 F800
G1 X141.7165 Y190.4765 Z-0.7937 F800
G1 X142.2893 Y190.0743 Z-0.7937 F800
G1 X142.8259 Y189.6336 Z-0.7937 F800
G1 X143.3308 Y189.1529 Z-0.7937 F800
G1 X143.8066 Y188.6312 Z-0.7937 F800
G1 X144.2549 Y188.0676 Z-0.7937 F800
G1 X144.6762 Y187.4622 Z-0.7937 F800
G1 X145.0702 Y186.8157 Z-0.7937 F800
G1 X145.4362 Y186.1299 Z-0.7937 F800
G1 X145.7734 Y185.4074 Z-0.7937 F800
G1 X146.0808 Y184.6513 Z-0.7937 F800
G1 X146.3576 Y183.8653 Z-0.7937 F800
G1 X146.6034 Y183.0539 Z-0.7937 F800
G1 X146.8179 Y182.2214 Z-0.7937 F800
G1 X147.0008 Y181.3726 Z-0.7937 F800
G1 X147.1525 Y180.5127 Z-0.7937 F800
G1 X147.2734 Y179.6467 Z-0.7937 F800
G1 X147.3642 Y178.7798 Z-0.7937 F800
G1 X147.4256 Y177.9174 Z-0.7937 F800
G1 X147.4588 Y177.0648 Z-0.7937 F800
G1 X147.4650 Y176.2277 Z-0.7937 F800
G1 X147.4457 Y175.4117 Z-0.7937 F800
G1 X147.4026 Y174.6227 Z-0.7937 F800
G1 X147.3375 Y173.8666 Z-0.7937 F800
G1 X147.2527 Y173.1499 Z-0.7937 F800
G1 X147.1507 Y172.4794 Z-0.7937 F800
G1 X147.0365 Y171.8712 Z-0.7937 F800
G1 X146.5690 Y171.9296 Z-0.7937 F800
G1 X146.5150 Y171.9361 Z-0.7937 F800
G1 X145.8279 Y172.0149 Z-0.7937 F800
G1 X145.7819 Y172.0200 Z-0.7937 F800
G1 X145.0544 Y172.0972 Z-0.7937 F800
G1 X145.0148 Y172.1012 Z-0.7937 F800
G1 X144.2494 Y172.1767 Z-0.7937 F800
G1 X144.2149 Y172.1800 Z-0.7937 F800
G1 X143.4140 Y172.2538 Z-0.7937 F800
G1 X143.3837 Y172.2565 Z-0.7937 F800
G1 X142.5500 Y172.3286 Z-0.7937 F800
G1 X142.5231 Y172.3309 Z-0.7937 F800
G1 X141.6590 Y172.4012 Z-0.7937 F800
G1 X141.6350 Y172.4031 Z-0.7937 F800
G1 X140.7432 Y172.4718 Z-0.7937 F800
G1 X140.7216 Y172.4734 Z-0.7937 F800
G1 X139.8044 Y172.5402 Z-0.7937 F800
G1 X139.7849 Y172.5416 Z-0.7937 F800
G1 X138.8450 Y172.6067 Z-0.7937 F800
G1 X138.8272 Y172.6079 Z-0.7937 F800
G1 X137.8670 Y172.6713 Z-0.7937 F800
G1 X137.8508 Y172.6723 Z-0.7937 F800
G1 X136.8729 Y172.7338 Z-0.7937 F800
G1 X136.8580 Y172.7347 Z-0.7937 F800
G1 X135.8650 Y172.7945 Z-0.7937 F800
G1 X135.8512 Y172.7953 Z-0.7937 F800
G1 X134.8455 Y172.8532 Z-0.7937 F800
G1 X134.8327 Y172.8539 Z-0.7937 F800
G1 X133.8169 Y172.9099 Z-0.7937 F800
G1 X133.8050 Y172.9106 Z-0.7937 F800
G1 X132.7816 Y172.9648 Z-0.7937 F800
G1 X132.7704 Y172.9653 Z-0.7937 F800
G1 X131.7420 Y173.0177 Z-0.7937 F800
G1 X131.7315 Y173.0182 Z-0.7937 F800
G1 X130.7006 Y173.0687 Z-0.7937 F800
G1 X130.6907 Y173.0691 Z-0.7937 F800
G1 X129.6597 Y173.1177 Z-0.7937 F800
G1 X129.6504 Y173.1181 Z-0.7937 F800
G1 X128.6219 Y173.1648 Z-0.7937 F800
G1 X128.6130 Y173.1652 Z-0.7937 F800
G1 X127.5897 Y173.2099 Z-0.7937 F800
G1 X127.5812 Y173.2103 Z-0.7937 F800
G1 X126.5654 Y173.2530 Z-0.7937 F800
G1 X126.5572 Y173.2534 Z-0.7937 F800
G1 X125.5515 Y173.2942 Z-0.7937 F800
G1 X125.5437 Y173.2945 Z-0.7937 F800
G1 X124.5507 Y173.3334 Z-0.7937 F800
G1 X124.5430 Y173.3337 Z-0.7937 F800
G1 X123.5652 Y173.3706 Z-0.7937 F800
G1 X123.5577 Y173.3709 Z-0.7937 F800
G1 X122.5976 Y173.4058 Z-0.7937 F800
G1 X122.5903 Y173.4060 Z-0.7937 F800
G1 X121.6504 Y173.4389 Z-0.7937 F800
G1 X121.6432 Y173.4392 Z-0.7937 F800
G1 X120.7260 Y173.4701 Z-0.7937 F800
G1 X120.7189 Y173.4703 Z-0.7937 F800
G1 X119.8270 Y173.4991 Z-0.7937 F800
G1 X119.8198 Y173.4994 Z-0.7937 F800
G1 X118.9558 Y173.5262 Z-0.7937 F800
G1 X118.9485 Y173.5264 Z-0.7937 F800
G1 X118.1148 Y173.5511 Z-0.7937 F800
G1 X118.1074 Y173.5513 Z-0.7937 F800
G1 X117.3066 Y173.5740 Z-0.7937 F800
G1 X117.2989 Y173.5742 Z-0.7937 F800
G1 X116.5335 Y173.5948 Z-0.7937 F800
G1 X116.5254 Y173.5950 Z-0.7937 F800
G1 X116.2544 Y173.6018 Z-0.7937 F800
G0 Z5.000
G0 X117.4979 Y174.8391 Z5.0000
G1 Z-0.7937 F300
G1 X117.4975 Y175.0059 Z-0.7937 F800
G1 X117.5098 Y175.5930 Z-0.7937 F800
G1 X117.5373 Y176.1933 Z-0.7937 F800
G1 X117.5814 Y176.8041 Z-0.7937 F800
G1 X117.6435 Y177.4221 Z-0.7937 F800
G1 X117.7246 Y178.0445 Z-0.7937 F800
G1 X117.8259 Y178.6683 Z-0.7937 F800
G1 X117.9482 Y179.2909 Z-0.7937 F800
G1 X118.0924 Y179.9096 Z-0.7937 F800
G1 X118.2592 Y180.5219 Z-0.7937 F800
G1 X118.4493 Y181.1258 Z-0.7937 F800
G1 X118.6633 Y181.7193 Z-0.7937 F800
G1 X118.9018 Y182.3007 Z-0.7937 F800
G1 X119.1656 Y182.8691 Z-0.7937 F800
G1 X119.4555 Y183.4234 Z-0.7937 F800
G1 X119.7726 Y183.9633 Z-0.7937 F800
G1 X120.1186 Y184.4887 Z-0.7937 F800
G1 X120.4953 Y184.9999 Z-0.7937 F800
G1 X120.9053 Y185.4973 Z-0.7937 F800
G1 X121.3515 Y185.9814 Z-0.7937 F800
G1 X121.8379 Y186.4529 Z-0.7937 F800
G1 X122.3686 Y186.9118 Z-0.7937 F800
G1 X122.9484 Y187.3583 Z-0.7937 F800
G1 X123.5826 Y187.7916 Z-0.7937 F800
G1 X124.2765 Y188.2107 Z-0.7937 F800
G1 X125.0357 Y188.6137 Z-0.7937 F800
G1 X125.8654 Y188.9984 Z-0.7937 F800
G1 X126.7709 Y189.3617 Z-0.7937 F800
G1 X127.7571 Y189.7004 Z-0.7937 F800
G1 X128.8283 Y190.0105 Z-0.7937 F800
G1 X129.9886 Y190.2881 Z-0.7937 F800
G1 X131.2415 Y190.5290 Z-0.7937 F800
G1 X132.5653 Y190.7252 Z-0.7937 F800
G1 X133.8378 Y190.8514 Z-0.7937 F800
G1 X134.9831 Y190.8977 Z-0.7937 F800
G1 X136.0260 Y190.8749 Z-0.7937 F800
G1 X136.9711 Y190.7918 Z-0.7937 F800
G1 X137.8249 Y190.6568 Z-0.7937 F800
G1 X138.5949 Y190.4772 Z-0.7937 F800
G1 X139.2902 Y190.2592 Z-0.7937 F800
G1 X139.9206 Y190.0072 Z-0.7937 F800
G1 X140.4962 Y189.7236 Z-0.7937 F800
G1 X141.0266 Y189.4091 Z-0.7937 F800
G1 X141.5203 Y189.0625 Z-0.7937 F800
G1 X141.9839 Y188.6817 Z-0.7937 F800
G1 X142.4226 Y188.2640 Z-0.7937 F800
G1 X142.8394 Y187.8070 Z-0.7937 F800
G1 X143.2357 Y187.3088 Z-0.7937 F800
G1 X143.6118 Y186.7684 Z-0.7937 F800
G1 X143.9669 Y186.1857 Z-0.7937 F800
G1 X144.2998 Y185.5620 Z-0.7937 F800
G1 X144.6090 Y184.8994 Z-0.7937 F800
G1 X144.8929 Y184.2009 Z-0.7937 F800
G1 X145.1504 Y183.4701 Z-0.7937 F800
G1 X145.3802 Y182.7112 Z-0.7937 F800
G1 X145.5817 Y181.9290 Z-0.7937 F800
G1 X145.7543 Y181.1284 Z-0.7937 F800
G1 X145.8979 Y180.3145 Z-0.7937 F800
G1 X146.0126 Y179.4927 Z-0.7937 F800
G1 X146.0989 Y178.6685 Z-0.7937 F800
G1 X146.1574 Y177.8475 Z-0.7937 F800
G1 X146.1890 Y177.0354 Z-0.7937 F800
G1 X146.1949 Y176.2380 Z-0.7937 F800
G1 X146.1765 Y175.4614 Z-0.7937 F800
G1 X146.1355 Y174.7118 Z-0.7937 F800
G1 X146.0739 Y173.9957 Z-0.7937 F800
G1 X145.9939 Y173.3200 Z-0.7937 F800
G1 X145.9871 Y173.2750 Z-0.7937 F800
G1 X145.9727 Y173.2766 Z-0.7937 F800
G1 X145.9159 Y173.2829 Z-0.7937 F800
G1 X145.1884 Y173.3601 Z-0.7937 F800
G1 X145.1395 Y173.3651 Z-0.7937 F800
G1 X144.3740 Y173.4406 Z-0.7937 F800
G1 X144.3314 Y173.4447 Z-0.7937 F800
G1 X143.5306 Y173.5185 Z-0.7937 F800
G1 X143.4931 Y173.5218 Z-0.7937 F800
G1 X142.6594 Y173.5939 Z-0.7937 F800
G1 X142.6262 Y173.5967 Z-0.7937 F800
G1 X141.7621 Y173.6670 Z-0.7937 F800
G1 X141.7325 Y173.6694 Z-0.7937 F800
G1 X140.8406 Y173.7380 Z-0.7937 F800
G1 X140.8139 Y173.7400 Z-0.7937 F800
G1 X139.8968 Y173.8069 Z-0.7937 F800
G1 X139.8726 Y173.8086 Z-0.7937 F800
G1 X138.9327 Y173.8737 Z-0.7937 F800
G1 X138.9108 Y173.8752 Z-0.7937 F800
G1 X137.9506 Y173.9385 Z-0.7937 F800
G1 X137.9305 Y173.9398 Z-0.7937 F800
G1 X136.9527 Y174.0013 Z-0.7937 F800
G1 X136.9342 Y174.0025 Z-0.7937 F800
G1 X135.9412 Y174.0622 Z-0.7937 F800
G1 X135.9241 Y174.0632 Z-0.7937 F800
G1 X134.9185 Y174.1211 Z-0.7937 F800
G1 X134.9027 Y174.1219 Z-0.7937 F800
G1 X133.8869 Y174.1780 Z-0.7937 F800
G1 X133.8721 Y174.1788 Z-0.7937 F800
G1 X132.8488 Y174.2330 Z-0.7937 F800
G1 X132.8350 Y174.2337 Z-0.7937 F800
G1 X131.8066 Y174.2860 Z-0.7937 F800
G1 X131.7936 Y174.2867 Z-0.7937 F800
G1 X130.7627 Y174.3371 Z-0.7937 F800
G1 X130.7504 Y174.3377 Z-0.7937 F800
G1 X129.7195 Y174.3863 Z-0.7937 F800
G1 X129.7079 Y174.3868 Z-0.7937 F800
G1 X128.6795 Y174.4335 Z-0.7937 F800
G1 X128.6685 Y174.4340 Z-0.7937 F800
G1 X127.6451 Y174.4787 Z-0.7937 F800
G1 X127.6346 Y174.4791 Z-0.7937 F800
G1 X126.6188 Y174.5219 Z-0.7937 F800
G1 X126.6088 Y174.5223 Z-0.7937 F800
G1 X125.6031 Y174.5632 Z-0.7937 F800
G1 X125.5934 Y174.5636 Z-0.7937 F800
G1 X124.6003 Y174.6024 Z-0.7937 F800
G1 X124.5909 Y174.6028 Z-0.7937 F800
G1 X123.6131 Y174.6397 Z-0.7937 F800
G1 X123.6039 Y174.6400 Z-0.7937 F800
G1 X122.6437 Y174.6749 Z-0.7937 F800
G1 X122.6347 Y174.6753 Z-0.7937 F800
G1 X121.6948 Y174.7082 Z-0.7937 F800
G1 X121.6859 Y174.7085 Z-0.7937 F800
G1 X120.7688 Y174.7393 Z-0.7937 F800
G1 X120.7599 Y174.7396 Z-0.7937 F800
G1 X119.8681 Y174.7685 Z-0.7937 F800
G1 X119.8592 Y174.7688 Z-0.7937 F800
G1 X118.9951 Y174.7956 Z-0.7937 F800
G1 X118.9862 Y174.7958 Z-0.7937 F800
G1 X118.1525 Y174.8206 Z-0.7937 F800
G1 X118.1433 Y174.8208 Z-0.7937 F800
G1 X117.4979 Y174.8391 Z-0.7937 F800
G0 Z5.000
G0 X118.8030 Y176.0718 Z5.0000
G1 Z-0.7937 F300
G1 X118.8052 Y176.1185 Z-0.7937 F800
G1 X118.8468 Y176.6948 Z-0.7937 F800
G1 X118.9053 Y177.2765 Z-0.7937 F800
G1 X118.9814 Y177.8606 Z-0.7937 F800
G1 X119.0761 Y178.4441 Z-0.7937 F800
G1 X119.1901 Y179.0242 Z-0.7937 F800
G1 X119.3239 Y179.5984 Z-0.7937 F800
G1 X119.4781 Y180.1642 Z-0.7937 F800
G1 X119.6529 Y180.7196 Z-0.7937 F800
G1 X119.8487 Y181.2627 Z-0.7937 F800
G1 X120.0659 Y181.7922 Z-0.7937 F800
G1 X120.3049 Y182.3072 Z-0.7937 F800
G1 X120.5664 Y182.8071 Z-0.7937 F800
G1 X120.8512 Y183.2920 Z-0.7937 F800
G1 X121.1609 Y183.7623 Z-0.7937 F800
G1 X121.4972 Y184.2187 Z-0.7937 F800
G1 X121.8629 Y184.6624 Z-0.7937 F800
G1 X122.2611 Y185.0944 Z-0.7937 F800
G1 X122.6959 Y185.5159 Z-0.7937 F800
G1 X123.1720 Y185.9276 Z-0.7937 F800
G1 X123.6947 Y186.3300 Z-0.7937 F800
G1 X124.2697 Y186.7229 Z-0.7937 F800
G1 X124.9031 Y187.1054 Z-0.7937 F800
G1 X125.6009 Y187.4760 Z-0.7937 F800
G1 X126.3693 Y187.8322 Z-0.7937 F800
G1 X127.2139 Y188.1711 Z-0.7937 F800
G1 X128.1401 Y188.4891 Z-0.7937 F800
G1 X129.1528 Y188.7823 Z-0.7937 F800
G1 X130.2564 Y189.0463 Z-0.7937 F800
G1 X131.4546 Y189.2767 Z-0.7937 F800
G1 X132.7211 Y189.4644 Z-0.7937 F800
G1 X133.9262 Y189.5839 Z-0.7937 F800
G1 X134.9949 Y189.6271 Z-0.7937 F800
G1 X135.9564 Y189.6061 Z-0.7937 F800
G1 X136.8161 Y189.5306 Z-0.7937 F800
G1 X137.5811 Y189.4095 Z-0.7937 F800
G1 X138.2602 Y189.2511 Z-0.7937 F800
G1 X138.8639 Y189.0619 Z-0.7937 F800
G1 X139.4035 Y188.8462 Z-0.7937 F800
G1 X139.8908 Y188.6061 Z-0.7937 F800
G1 X140.3368 Y188.3417 Z-0.7937 F800
G1 X140.7512 Y188.0507 Z-0.7937 F800
G1 X141.1419 Y187.7298 Z-0.7937 F800
G1 X141.5144 Y187.3751 Z-0.7937 F800
G1 X141.8722 Y186.9829 Z-0.7937 F800
G1 X142.2165 Y186.5500 Z-0.7937 F800
G1 X142.5474 Y186.0746 Z-0.7937 F800
G1 X142.8636 Y185.5557 Z-0.7937 F800
G1 X143.1633 Y184.9941 Z-0.7937 F800
G1 X143.4445 Y184.3914 Z-0.7937 F800
G1 X143.7051 Y183.7505 Z-0.7937 F800
G1 X143.9431 Y183.0748 Z-0.7937 F800
G1 X144.1570 Y182.3686 Z-0.7937 F800
G1 X144.3455 Y181.6367 Z-0.7937 F800
G1 X144.5078 Y180.8842 Z-0.7937 F800
G1 X144.6432 Y180.1163 Z-0.7937 F800
G1 X144.7518 Y179.3388 Z-0.7937 F800
G1 X144.8336 Y178.5573 Z-0.7937 F800
G1 X144.8891 Y177.7777 Z-0.7937 F800
G1 X144.9192 Y177.0060 Z-0.7937 F800
G1 X144.9248 Y176.2483 Z-0.7937 F800
G1 X144.9074 Y175.5111 Z-0.7937 F800
G1 X144.8685 Y174.8010 Z-0.7937 F800
G1 X144.8572 Y174.6691 Z-0.7937 F800
G1 X144.4987 Y174.7045 Z-0.7937 F800
G1 X144.4479 Y174.7093 Z-0.7937 F800
G1 X143.6471 Y174.7831 Z-0.7937 F800
G1 X143.6025 Y174.7871 Z-0.7937 F800
G1 X142.7688 Y174.8592 Z-0.7937 F800
G1 X142.7293 Y174.8625 Z-0.7937 F800
G1 X141.8652 Y174.9329 Z-0.7937 F800
G1 X141.8299 Y174.9357 Z-0.7937 F800
G1 X140.9380 Y175.0043 Z-0.7937 F800
G1 X140.9063 Y175.0067 Z-0.7937 F800
G1 X139.9891 Y175.0735 Z-0.7937 F800
G1 X139.9604 Y175.0756 Z-0.7937 F800
G1 X139.0205 Y175.1407 Z-0.7937 F800
G1 X138.9943 Y175.1424 Z-0.7937 F800
G1 X138.0342 Y175.2057 Z-0.7937 F800
G1 X138.0103 Y175.2073 Z-0.7937 F800
G1 X137.0324 Y175.2688 Z-0.7937 F800
G1 X137.0104 Y175.2702 Z-0.7937 F800
G1 X136.0174 Y175.3299 Z-0.7937 F800
G1 X135.9971 Y175.3311 Z-0.7937 F800
G1 X134.9915 Y175.3890 Z-0.7937 F800
G1 X134.9726 Y175.3900 Z-0.7937 F800
G1 X133.9568 Y175.4461 Z-0.7937 F800
G1 X133.9393 Y175.4470 Z-0.7937 F800
G1 X132.9159 Y175.5012 Z-0.7937 F800
G1 X132.8995 Y175.5021 Z-0.7937 F800
G1 X131.8711 Y175.5544 Z-0.7937 F800
G1 X131.8557 Y175.5552 Z-0.7937 F800
G1 X130.8247 Y175.6056 Z-0.7937 F800
G1 X130.8102 Y175.6063 Z-0.7937 F800
G1 X129.7792 Y175.6549 Z-0.7937 F800
G1 X129.7655 Y175.6555 Z-0.7937 F800
G1 X128.7370 Y175.7022 Z-0.7937 F800
G1 X128.7240 Y175.7027 Z-0.7937 F800
G1 X127.7006 Y175.7475 Z-0.7937 F800
G1 X127.6881 Y175.7480 Z-0.7937 F800
G1 X126.6723 Y175.7908 Z-0.7937 F800
G1 X126.6603 Y175.7913 Z-0.7937 F800
G1 X125.6546 Y175.8321 Z-0.7937 F800
G1 X125.6430 Y175.8326 Z-0.7937 F800
G1 X124.6500 Y175.8715 Z-0.7937 F800
G1 X124.6388 Y175.8719 Z-0.7937 F800
G1 X123.6609 Y175.9088 Z-0.7937 F800
G1 X123.6500 Y175.9092 Z-0.7937 F800
G1 X122.6899 Y175.9441 Z-0.7937 F800
G1 X122.6792 Y175.9445 Z-0.7937 F800
G1 X121.7392 Y175.9774 Z-0.7937 F800
G1 X121.7287 Y175.9777 Z-0.7937 F800
G1 X120.8115 Y176.0086 Z-0.7937 F800
G1 X120.8010 Y176.0090 Z-0.7937 F800
G1 X119.9091 Y176.0378 Z-0.7937 F800
G1 X119.8986 Y176.0382 Z-0.7937 F800
G1 X119.0345 Y176.0649 Z-0.7937 F800
G1 X119.0238 Y176.0653 Z-0.7937 F800
G1 X118.8030 Y176.0718 Z-0.7937 F800
G0 Z5.000
G0 X120.1890 Y177.2994 Z5.0000
G1 Z-0.7937 F300
G1 X120.2382 Y177.6767 Z-0.7937 F800
G1 X120.3263 Y178.2199 Z-0.7937 F800
G1 X120.4320 Y178.7576 Z-0.7937 F800
G1 X120.5555 Y179.2872 Z-0.7937 F800
G1 X120.6969 Y179.8065 Z-0.7937 F800
G1 X120.8565 Y180.3133 Z-0.7937 F800
G1 X121.0341 Y180.8061 Z-0.7937 F800
G1 X121.2300 Y181.2836 Z-0.7937 F800
G1 X121.4442 Y181.7453 Z-0.7937 F800
G1 X121.6772 Y182.1908 Z-0.7937 F800
G1 X121.9298 Y182.6207 Z-0.7937 F800
G1 X122.2031 Y183.0359 Z-0.7937 F800
G1 X122.4992 Y183.4376 Z-0.7937 F800
G1 X122.8206 Y183.8275 Z-0.7937 F800
G1 X123.1707 Y184.2074 Z-0.7937 F800
G1 X123.5540 Y184.5789 Z-0.7937 F800
G1 X123.9754 Y184.9434 Z-0.7937 F800
G1 X124.4409 Y185.3017 Z-0.7937 F800
G1 X124.9567 Y185.6542 Z-0.7937 F800
G1 X125.5296 Y186.0002 Z-0.7937 F800
G1 X126.1662 Y186.3382 Z-0.7937 F800
G1 X126.8732 Y186.6659 Z-0.7937 F800
G1 X127.6569 Y186.9804 Z-0.7937 F800
G1 X128.5232 Y187.2778 Z-0.7937 F800
G1 X129.4774 Y187.5541 Z-0.7937 F800
G1 X130.5241 Y187.8046 Z-0.7937 F800
G1 X131.6676 Y188.0244 Z-0.7937 F800
G1 X132.8770 Y188.2036 Z-0.7937 F800
G1 X134.0146 Y188.3165 Z-0.7937 F800
G1 X135.0067 Y188.3566 Z-0.7937 F800
G1 X135.8869 Y188.3374 Z-0.7937 F800
G1 X136.6611 Y188.2693 Z-0.7937 F800
G1 X137.3373 Y188.1623 Z-0.7937 F800
G1 X137.9255 Y188.0251 Z-0.7937 F800
G1 X138.4376 Y187.8646 Z-0.7937 F800
G1 X138.8865 Y187.6852 Z-0.7937 F800
G1 X139.2854 Y187.4886 Z-0.7937 F800
G1 X139.6470 Y187.2742 Z-0.7937 F800
G1 X139.9822 Y187.0388 Z-0.7937 F800
G1 X140.2999 Y186.7779 Z-0.7937 F800
G1 X140.6063 Y186.4862 Z-0.7937 F800
G1 X140.9049 Y186.1588 Z-0.7937 F800
G1 X141.1973 Y185.7913 Z-0.7937 F800
G1 X141.4829 Y185.3808 Z-0.7937 F800
G1 X141.7602 Y184.9257 Z-0.7937 F800
G1 X142.0269 Y184.4262 Z-0.7937 F800
G1 X142.2801 Y183.8835 Z-0.7937 F800
G1 X142.5173 Y183.3001 Z-0.7937 F800
G1 X142.7359 Y182.6795 Z-0.7937 F800
G1 X142.9338 Y182.0260 Z-0.7937 F800
G1 X143.1094 Y181.3444 Z-0.7937 F800
G1 X143.2613 Y180.6399 Z-0.7937 F800
G1 X143.3886 Y179.9181 Z-0.7937 F800
G1 X143.4910 Y179.1848 Z-0.7937 F800
G1 X143.5683 Y178.4460 Z-0.7937 F800
G1 X143.6209 Y177.7078 Z-0.7937 F800
G1 X143.6493 Y176.9765 Z-0.7937 F800
G1 X143.6547 Y176.2586 Z-0.7937 F800
G1 X143.6499 Y176.0577 Z-0.7937 F800
G1 X142.8782 Y176.1245 Z-0.7937 F800
G1 X142.8323 Y176.1283 Z-0.7937 F800
G1 X141.9683 Y176.1987 Z-0.7937 F800
G1 X141.9273 Y176.2019 Z-0.7937 F800
G1 X141.0354 Y176.2705 Z-0.7937 F800
G1 X140.9986 Y176.2733 Z-0.7937 F800
G1 X140.0815 Y176.3402 Z-0.7937 F800
G1 X140.0481 Y176.3425 Z-0.7937 F800
G1 X139.1082 Y176.4076 Z-0.7937 F800
G1 X139.0779 Y176.4097 Z-0.7937 F800
G1 X138.1177 Y176.4730 Z-0.7937 F800
G1 X138.0900 Y176.4748 Z-0.7937 F800
G1 X137.1122 Y176.5363 Z-0.7937 F800
G1 X137.0867 Y176.5379 Z-0.7937 F800
G1 X136.0936 Y176.5976 Z-0.7937 F800
G1 X136.0701 Y176.5990 Z-0.7937 F800
G1 X135.0644 Y176.6569 Z-0.7937 F800
G1 X135.0426 Y176.6581 Z-0.7937 F800
G1 X134.0268 Y176.7141 Z-0.7937 F800
G1 X134.0065 Y176.7152 Z-0.7937 F800
G1 X132.9831 Y176.7694 Z-0.7937 F800
G1 X132.9641 Y176.7704 Z-0.7937 F800
G1 X131.9356 Y176.8228 Z-0.7937 F800
G1 X131.9178 Y176.8236 Z-0.7937 F800
G1 X130.8868 Y176.8741 Z-0.7937 F800
G1 X130.8699 Y176.8749 Z-0.7937 F800
G1 X129.8390 Y176.9235 Z-0.7937 F800
G1 X129.8230 Y176.9242 Z-0.7937 F800
G1 X128.7946 Y176.9709 Z-0.7937 F800
G1 X128.7794 Y176.9715 Z-0.7937 F800
G1 X127.7560 Y177.0163 Z-0.7937 F800
G1 X127.7415 Y177.0169 Z-0.7937 F800
G1 X126.7257 Y177.0597 Z-0.7937 F800
G1 X126.7118 Y177.0602 Z-0.7937 F800
G1 X125.7061 Y177.1011 Z-0.7937 F800
G1 X125.6927 Y177.1016 Z-0.7937 F800
G1 X124.6997 Y177.1405 Z-0.7937 F800
G1 X124.6867 Y177.1410 Z-0.7937 F800
G1 X123.7088 Y177.1779 Z-0.7937 F800
G1 X123.6962 Y177.1784 Z-0.7937 F800
G1 X122.7360 Y177.2133 Z-0.7937 F800
G1 X122.7236 Y177.2137 Z-0.7937 F800
G1 X121.7837 Y177.2466 Z-0.7937 F800
G1 X121.7714 Y177.2470 Z-0.7937 F800
G1 X120.8542 Y177.2779 Z-0.7937 F800
G1 X120.8420 Y177.2783 Z-0.7937 F800
G1 X120.1890 Y177.2994 Z-0.7937 F800
G0 Z5.000
G0 X121.6808 Y178.5208 Z5.0000
G1 Z-0.7937 F300
G1 X121.7870 Y178.9761 Z-0.7937 F800
G1 X121.9157 Y179.4488 Z-0.7937 F800
G1 X122.0600 Y179.9071 Z-0.7937 F800
G1 X122.2195 Y180.3495 Z-0.7937 F800
G1 X122.3941 Y180.7751 Z-0.7937 F800
G1 X122.5836 Y181.1834 Z-0.7937 F800
G1 X122.7881 Y181.5745 Z-0.7937 F800
G1 X123.0084 Y181.9494 Z-0.7937 F800
G1 X123.2454 Y182.3094 Z-0.7937 F800
G1 X123.5011 Y182.6564 Z-0.7937 F800
G1 X123.7782 Y182.9926 Z-0.7937 F800
G1 X124.0803 Y183.3203 Z-0.7937 F800
G1 X124.4120 Y183.6419 Z-0.7937 F800
G1 X124.7789 Y183.9591 Z-0.7937 F800
G1 X125.1871 Y184.2735 Z-0.7937 F800
G1 X125.6438 Y184.5855 Z-0.7937 F800
G1 X126.1561 Y184.8949 Z-0.7937 F800
G1 X126.7315 Y185.2004 Z-0.7937 F800
G1 X127.3771 Y185.4997 Z-0.7937 F800
G1 X128.0999 Y185.7897 Z-0.7937 F800
G1 X128.9062 Y186.0666 Z-0.7937 F800
G1 X129.8019 Y186.3259 Z-0.7937 F800
G1 X130.7919 Y186.5628 Z-0.7937 F800
G1 X131.8807 Y186.7721 Z-0.7937 F800
G1 X133.0328 Y186.9429 Z-0.7937 F800
G1 X134.1030 Y187.0490 Z-0.7937 F800
G1 X135.0185 Y187.0860 Z-0.7937 F800
G1 X135.8174 Y187.0686 Z-0.7937 F800
G1 X136.5061 Y187.0080 Z-0.7937 F800
G1 X137.0935 Y186.9151 Z-0.7937 F800
G1 X137.5909 Y186.7991 Z-0.7937 F800
G1 X138.0113 Y186.6673 Z-0.7937 F800
G1 X138.3694 Y186.5241 Z-0.7937 F800
G1 X138.6800 Y186.3711 Z-0.7937 F800
G1 X138.9572 Y186.2068 Z-0.7937 F800
G1 X139.2132 Y186.0270 Z-0.7937 F800
G1 X139.4579 Y185.8260 Z-0.7937 F800
G1 X139.6981 Y185.5973 Z-0.7937 F800
G1 X139.9377 Y185.3346 Z-0.7937 F800
G1 X140.1781 Y185.0325 Z-0.7937 F800
G1 X140.4185 Y184.6870 Z-0.7937 F800
G1 X140.6569 Y184.2958 Z-0.7937 F800
G1 X140.8904 Y183.8583 Z-0.7937 F800
G1 X141.1157 Y183.3755 Z-0.7937 F800
G1 X141.3294 Y182.8497 Z-0.7937 F800
G1 X141.5286 Y182.2842 Z-0.7937 F800
G1 X141.7106 Y181.6834 Z-0.7937 F800
G1 X141.8732 Y181.0521 Z-0.7937 F800
G1 X142.0147 Y180.3957 Z-0.7937 F800
G1 X142.1340 Y179.7200 Z-0.7937 F800
G1 X142.2301 Y179.0309 Z-0.7937 F800
G1 X142.3030 Y178.3348 Z-0.7937 F800
G1 X142.3526 Y177.6380 Z-0.7937 F800
G1 X142.3603 Y177.4409 Z-0.7937 F800
G1 X142.0714 Y177.4645 Z-0.7937 F800
G1 X142.0247 Y177.4682 Z-0.7937 F800
G1 X141.1329 Y177.5368 Z-0.7937 F800
G1 X141.0910 Y177.5399 Z-0.7937 F800
G1 X140.1738 Y177.6068 Z-0.7937 F800
G1 X140.1359 Y177.6095 Z-0.7937 F800
G1 X139.1960 Y177.6746 Z-0.7937 F800
G1 X139.1615 Y177.6769 Z-0.7937 F800
G1 X138.2013 Y177.7402 Z-0.7937 F800
G1 X138.1698 Y177.7423 Z-0.7937 F800
G1 X137.1919 Y177.8038 Z-0.7937 F800
G1 X137.1629 Y177.8056 Z-0.7937 F800
G1 X136.1699 Y177.8653 Z-0.7937 F800
G1 X136.1431 Y177.8669 Z-0.7937 F800
G1 X135.1374 Y177.9248 Z-0.7937 F800
G1 X135.1126 Y177.9262 Z-0.7937 F800
G1 X134.0968 Y177.9822 Z-0.7937 F800
G1 X134.0736 Y177.9835 Z-0.7937 F800
G1 X133.0503 Y178.0377 Z-0.7937 F800
G1 X133.0286 Y178.0388 Z-0.7937 F800
G1 X132.0002 Y178.0911 Z-0.7937 F800
G1 X131.9798 Y178.0921 Z-0.7937 F800
G1 X130.9489 Y178.1426 Z-0.7937 F800
G1 X130.9297 Y178.1435 Z-0.7937 F800
G1 X129.8987 Y178.1921 Z-0.7937 F800
G1 X129.8806 Y178.1929 Z-0.7937 F800
G1 X128.8521 Y178.2395 Z-0.7937 F800
G1 X128.8349 Y178.2403 Z-0.7937 F800
G1 X127.8115 Y178.2850 Z-0.7937 F800
G1 X127.7950 Y178.2858 Z-0.7937 F800
G1 X126.7792 Y178.3285 Z-0.7937 F800
G1 X126.7633 Y178.3292 Z-0.7937 F800
G1 X125.7577 Y178.3700 Z-0.7937 F800
G1 X125.7424 Y178.3706 Z-0.7937 F800
G1 X124.7494 Y178.4095 Z-0.7937 F800
G1 X124.7346 Y178.4101 Z-0.7937 F800
G1 X123.7567 Y178.4470 Z-0.7937 F800
G1 X123.7423 Y178.4475 Z-0.7937 F800
G1 X122.7821 Y178.4824 Z-0.7937 F800
G1 X122.7680 Y178.4829 Z-0.7937 F800
G1 X121.8281 Y178.5158 Z-0.7937 F800
G1 X121.8141 Y178.5163 Z-0.7937 F800
G1 X121.6808 Y178.5208 Z-0.7937 F800
G0 Z5.000
G0 X123.3472 Y179.7327 Z5.0000
G1 Z-0.7937 F300
G1 X123.4050 Y179.8930 Z-0.7937 F800
G1 X123.5582 Y180.2665 Z-0.7937 F800
G1 X123.7229 Y180.6215 Z-0.7937 F800
G1 X123.8990 Y180.9582 Z-0.7937 F800
G1 X124.0869 Y181.2781 Z-0.7937 F800
G1 X124.2877 Y181.5830 Z-0.7937 F800
G1 X124.5031 Y181.8753 Z-0.7937 F800
G1 X124.7358 Y182.1577 Z-0.7937 F800
G1 X124.9899 Y182.4333 Z-0.7937 F800
G1 X125.2700 Y182.7049 Z-0.7937 F800
G1 X125.5823 Y182.9749 Z-0.7937 F800
G1 X125.9334 Y183.2452 Z-0.7937 F800
G1 X126.3309 Y183.5168 Z-0.7937 F800
G1 X126.7826 Y183.7897 Z-0.7937 F800
G1 X127.2967 Y184.0626 Z-0.7937 F800
G1 X127.8810 Y184.3334 Z-0.7937 F800
G1 X128.5429 Y184.5990 Z-0.7937 F800
G1 X129.2893 Y184.8553 Z-0.7937 F800
G1 X130.1264 Y185.0977 Z-0.7937 F800
G1 X131.0597 Y185.3210 Z-0.7937 F800
G1 X132.0938 Y185.5198 Z-0.7937 F800
G1 X133.1887 Y185.6821 Z-0.7937 F800
G1 X134.1914 Y185.7815 Z-0.7937 F800
G1 X135.0303 Y185.8155 Z-0.7937 F800
G1 X135.7478 Y185.7998 Z-0.7937 F800
G1 X136.3511 Y185.7468 Z-0.7937 F800
G1 X136.8497 Y185.6679 Z-0.7937 F800
G1 X137.2562 Y185.5731 Z-0.7937 F800
G1 X137.5850 Y185.4700 Z-0.7937 F800
G1 X137.8524 Y185.3631 Z-0.7937 F800
G1 X138.0746 Y185.2536 Z-0.7937 F800
G1 X138.2673 Y185.1393 Z-0.7937 F800
G1 X138.4442 Y185.0152 Z-0.7937 F800
G1 X138.6159 Y184.8741 Z-0.7937 F800
G1 X138.7900 Y184.7084 Z-0.7937 F800
G1 X138.9705 Y184.5105 Z-0.7937 F800
G1 X139.1588 Y184.2737 Z-0.7937 F800
G1 X139.3540 Y183.9932 Z-0.7937 F800
G1 X139.5536 Y183.6658 Z-0.7937 F800
G1 X139.7539 Y183.2904 Z-0.7937 F800
G1 X139.9512 Y182.8675 Z-0.7937 F800
G1 X140.1416 Y182.3993 Z-0.7937 F800
G1 X140.3214 Y181.8890 Z-0.7937 F800
G1 X140.4874 Y181.3408 Z-0.7937 F800
G1 X140.6371 Y180.7598 Z-0.7937 F800
G1 X140.7682 Y180.1514 Z-0.7937 F800
G1 X140.8793 Y179.5218 Z-0.7937 F800
G1 X140.9693 Y178.8770 Z-0.7937 F800
G1 X140.9751 Y178.8217 Z-0.7937 F800
G1 X140.2661 Y178.8734 Z-0.7937 F800
G1 X140.2236 Y178.8765 Z-0.7937 F800
G1 X139.2837 Y178.9416 Z-0.7937 F800
G1 X139.2450 Y178.9442 Z-0.7937 F800
G1 X138.2849 Y179.0075 Z-0.7937 F800
G1 X138.2495 Y179.0098 Z-0.7937 F800
G1 X137.2716 Y179.0713 Z-0.7937 F800
G1 X137.2391 Y179.0733 Z-0.7937 F800
G1 X136.2461 Y179.1330 Z-0.7937 F800
G1 X136.2161 Y179.1348 Z-0.7937 F800
G1 X135.2104 Y179.1927 Z-0.7937 F800
G1 X135.1825 Y179.1942 Z-0.7937 F800
G1 X134.1668 Y179.2503 Z-0.7937 F800
G1 X134.1408 Y179.2517 Z-0.7937 F800
G1 X133.1174 Y179.3059 Z-0.7937 F800
G1 X133.0932 Y179.3071 Z-0.7937 F800
G1 X132.0647 Y179.3595 Z-0.7937 F800
G1 X132.0419 Y179.3606 Z-0.7937 F800
G1 X131.0110 Y179.4111 Z-0.7937 F800
G1 X130.9894 Y179.4121 Z-0.7937 F800
G1 X129.9585 Y179.4607 Z-0.7937 F800
G1 X129.9381 Y179.4616 Z-0.7937 F800
G1 X128.9097 Y179.5082 Z-0.7937 F800
G1 X128.8903 Y179.5091 Z-0.7937 F800
G1 X127.8669 Y179.5538 Z-0.7937 F800
G1 X127.8484 Y179.5546 Z-0.7937 F800
G1 X126.8326 Y179.5974 Z-0.7937 F800
G1 X126.8149 Y179.5982 Z-0.7937 F800
G1 X125.8092 Y179.6390 Z-0.7937 F800
G1 X125.7921 Y179.6397 Z-0.7937 F800
G1 X124.7991 Y179.6786 Z-0.7937 F800
G1 X124.7825 Y179.6792 Z-0.7937 F800
G1 X123.8046 Y179.7161 Z-0.7937 F800
G1 X123.7884 Y179.7167 Z-0.7937 F800
G1 X123.3472 Y179.7327 Z-0.7937 F800
G0 Z5.000
G0 X125.3816 Y180.9267 Z5.0000
G1 Z-0.7937 F300
G1 X125.5050 Y181.0941 Z-0.7937 F800
G1 X125.6935 Y181.3228 Z-0.7937 F800
G1 X125.8995 Y181.5462 Z-0.7937 F800
G1 X126.1281 Y181.7678 Z-0.7937 F800
G1 X126.3857 Y181.9906 Z-0.7937 F800
G1 X126.6796 Y182.2169 Z-0.7937 F800
G1 X127.0179 Y182.4481 Z-0.7937 F800
G1 X127.4092 Y182.6844 Z-0.7937 F800
G1 X127.8620 Y182.9248 Z-0.7937 F800
G1 X128.3849 Y183.1672 Z-0.7937 F800
G1 X128.9858 Y183.4084 Z-0.7937 F800
G1 X129.6723 Y183.6441 Z-0.7937 F800
G1 X130.4509 Y183.8695 Z-0.7937 F800
G1 X131.3275 Y184.0792 Z-0.7937 F800
G1 X132.3069 Y184.2675 Z-0.7937 F800
G1 X133.3446 Y184.4213 Z-0.7937 F800
G1 X134.2798 Y184.5141 Z-0.7937 F800
G1 X135.0421 Y184.5449 Z-0.7937 F800
G1 X135.6783 Y184.5310 Z-0.7937 F800
G1 X136.1960 Y184.4855 Z-0.7937 F800
G1 X136.6059 Y184.4206 Z-0.7937 F800
G1 X136.9215 Y184.3470 Z-0.7937 F800
G1 X137.1588 Y184.2727 Z-0.7937 F800
G1 X137.3353 Y184.2021 Z-0.7937 F800
G1 X137.4692 Y184.1361 Z-0.7937 F800
G1 X137.5775 Y184.0719 Z-0.7937 F800
G1 X137.6752 Y184.0033 Z-0.7937 F800
G1 X137.7739 Y183.9222 Z-0.7937 F800
G1 X137.8818 Y183.8195 Z-0.7937 F800
G1 X138.0033 Y183.6863 Z-0.7937 F800
G1 X138.1396 Y183.5149 Z-0.7937 F800
G1 X138.2896 Y183.2994 Z-0.7937 F800
G1 X138.4502 Y183.0358 Z-0.7937 F800
G1 X138.6175 Y182.7225 Z-0.7937 F800
G1 X138.7868 Y182.3596 Z-0.7937 F800
G1 X138.9538 Y181.9489 Z-0.7937 F800
G1 X139.1141 Y181.4937 Z-0.7937 F800
G1 X139.2642 Y180.9982 Z-0.7937 F800
G1 X139.4009 Y180.4675 Z-0.7937 F800
G1 X139.4580 Y180.2025 Z-0.7937 F800
G1 X139.3715 Y180.2085 Z-0.7937 F800
G1 X139.3286 Y180.2114 Z-0.7937 F800
G1 X138.3685 Y180.2747 Z-0.7937 F800
G1 X138.3292 Y180.2773 Z-0.7937 F800
G1 X137.3514 Y180.3388 Z-0.7937 F800
G1 X137.3154 Y180.3410 Z-0.7937 F800
G1 X136.3223 Y180.4007 Z-0.7937 F800
G1 X136.2891 Y180.4027 Z-0.7937 F800
G1 X135.2834 Y180.4606 Z-0.7937 F800
G1 X135.2525 Y180.4623 Z-0.7937 F800
G1 X134.2367 Y180.5184 Z-0.7937 F800
G1 X134.2080 Y180.5199 Z-0.7937 F800
G1 X133.1846 Y180.5741 Z-0.7937 F800
G1 X133.1577 Y180.5755 Z-0.7937 F800
G1 X132.1293 Y180.6278 Z-0.7937 F800
G1 X132.1040 Y180.6291 Z-0.7937 F800
G1 X131.0730 Y180.6795 Z-0.7937 F800
G1 X131.0492 Y180.6807 Z-0.7937 F800
G1 X130.0182 Y180.7292 Z-0.7937 F800
G1 X129.9957 Y180.7303 Z-0.7937 F800
G1 X128.9672 Y180.7769 Z-0.7937 F800
G1 X128.9458 Y180.7779 Z-0.7937 F800
G1 X127.9224 Y180.8226 Z-0.7937 F800
G1 X127.9019 Y180.8235 Z-0.7937 F800
G1 X126.8861 Y180.8663 Z-0.7937 F800
G1 X126.8664 Y180.8671 Z-0.7937 F800
G1 X125.8607 Y180.9079 Z-0.7937 F800
G1 X125.8418 Y180.9087 Z-0.7937 F800
G1 X125.3816 Y180.9267 Z-0.7937 F800
G0 Z5.000
G0 X129.0025 Y182.0466 Z5.0000
G1 Z-0.7937 F300
G1 X129.4288 Y182.2177 Z-0.7937 F800
G1 X130.0554 Y182.4328 Z-0.7937 F800
G1 X130.7755 Y182.6413 Z-0.7937 F800
G1 X131.5953 Y182.8375 Z-0.7937 F800
G1 X132.5200 Y183.0152 Z-0.7937 F800
G1 X133.5004 Y183.1606 Z-0.7937 F800
G1 X134.3682 Y183.2466 Z-0.7937 F800
G1 X135.0539 Y183.2743 Z-0.7937 F800
G1 X135.6087 Y183.2622 Z-0.7937 F800
G1 X136.0410 Y183.2242 Z-0.7937 F800
G1 X136.3622 Y183.1734 Z-0.7937 F800
G1 X136.5868 Y183.1210 Z-0.7937 F800
G1 X136.7325 Y183.0753 Z-0.7937 F800
G1 X136.8182 Y183.0411 Z-0.7937 F800
G1 X136.8638 Y183.0186 Z-0.7937 F800
G1 X136.8877 Y183.0045 Z-0.7937 F800
G1 X136.9062 Y182.9915 Z-0.7937 F800
G1 X136.9319 Y182.9703 Z-0.7937 F800
G1 X136.9736 Y182.9306 Z-0.7937 F800
G1 X137.0360 Y182.8622 Z-0.7937 F800
G1 X137.1204 Y182.7561 Z-0.7937 F800
G1 X137.2252 Y182.6056 Z-0.7937 F800
G1 X137.3469 Y182.4058 Z-0.7937 F800
G1 X137.4810 Y182.1546 Z-0.7937 F800
G1 X137.6224 Y181.8516 Z-0.7937 F800
G1 X137.7297 Y181.5875 Z-0.7937 F800
G1 X137.4311 Y181.6063 Z-0.7937 F800
G1 X137.3916 Y181.6087 Z-0.7937 F800
G1 X136.3986 Y181.6684 Z-0.7937 F800
G1 X136.3620 Y181.6706 Z-0.7937 F800
G1 X135.3564 Y181.7285 Z-0.7937 F800
G1 X135.3225 Y181.7304 Z-0.7937 F800
G1 X134.3067 Y181.7864 Z-0.7937 F800
G1 X134.2751 Y181.7881 Z-0.7937 F800
G1 X133.2518 Y181.8423 Z-0.7937 F800
G1 X133.2222 Y181.8439 Z-0.7937 F800
G1 X132.1938 Y181.8962 Z-0.7937 F800
G1 X132.1661 Y181.8976 Z-0.7937 F800
G1 X131.1351 Y181.9480 Z-0.7937 F800
G1 X131.1089 Y181.9493 Z-0.7937 F800
G1 X130.0780 Y181.9978 Z-0.7937 F800
G1 X130.0532 Y181.9990 Z-0.7937 F800
G1 X129.0248 Y182.0456 Z-0.7937 F800
G1 X129.0025 Y182.0466 Z-0.7937 F800
G0 Z5.000
G0 X247.6093 Y168.7213 Z5.0000
G1 Z-0.7937 F300
G1 X247.5641 Y168.7729 Z-0.7937 F800
G1 X247.3998 Y169.0148 Z-0.7937 F800
G1 X247.2140 Y169.3537 Z-0.7937 F800
G1 X247.0207 Y169.7799 Z-0.7937 F800
G1 X246.8285 Y170.2846 Z-0.7937 F800
G1 X246.6436 Y170.8598 Z-0.7937 F800
G1 X246.4702 Y171.4987 Z-0.7937 F800
G1 X246.3115 Y172.1949 Z-0.7937 F800
G1 X246.1703 Y172.9428 Z-0.7937 F800
G1 X246.0490 Y173.7369 Z-0.7937 F800
G1 X245.9497 Y174.5721 Z-0.7937 F800
G1 X245.8744 Y175.4435 Z-0.7937 F800
G1 X245.8248 Y176.3462 Z-0.7937 F800
G1 X245.8027 Y177.2756 Z-0.7937 F800
G1 X245.8098 Y178.2269 Z-0.7937 F800
G1 X245.8477 Y179.1957 Z-0.7937 F800
G1 X245.9179 Y180.1772 Z-0.7937 F800
G1 X246.0220 Y181.1670 Z-0.7937 F800
G1 X246.1614 Y182.1605 Z-0.7937 F800
G1 X246.3374 Y183.1534 Z-0.7937 F800
G1 X246.5513 Y184.1412 Z-0.7937 F800
G1 X246.8045 Y185.1194 Z-0.7937 F800
G1 X247.0980 Y186.0837 Z-0.7937 F800
G1 X247.4329 Y187.0298 Z-0.7937 F800
G1 X247.8103 Y187.9536 Z-0.7937 F800
G1 X248.2310 Y188.8511 Z-0.7937 F800
G1 X248.6962 Y189.7183 Z-0.7937 F800
G1 X249.2066 Y190.5517 Z-0.7937 F800
G1 X249.7632 Y191.3477 Z-0.7937 F800
G1 X250.3672 Y192.1032 Z-0.7937 F800
G1 X251.0199 Y192.8153 Z-0.7937 F800
G1 X251.7230 Y193.4813 Z-0.7937 F800
G1 X252.4785 Y194.0985 Z-0.7937 F800
G1 X253.2888 Y194.6644 Z-0.7937 F800
G1 X254.1569 Y195.1764 Z-0.7937 F800
G1 X255.0861 Y195.6315 Z-0.7937 F800
G1 X256.0799 Y196.0264 Z-0.7937 F800
G1 X257.1419 Y196.3573 Z-0.7937 F800
G1 X258.2759 Y196.6199 Z-0.7937 F800
G1 X259.4851 Y196.8097 Z-0.7937 F800
G1 X260.7726 Y196.9216 Z-0.7937 F800
G1 X262.1413 Y196.9506 Z-0.7937 F800
G1 X263.5934 Y196.8913 Z-0.7937 F800
G1 X265.1360 Y196.7381 Z-0.7937 F800
G1 X266.6882 Y196.5079 Z-0.7937 F800
G1 X268.1587 Y196.2246 Z-0.7937 F800
G1 X269.5441 Y195.8922 Z-0.7937 F800
G1 X270.8469 Y195.5136 Z-0.7937 F800
G1 X272.0698 Y195.0918 Z-0.7937 F800
G1 X273.2155 Y194.6296 Z-0.7937 F800
G1 X274.2869 Y194.1300 Z-0.7937 F800
G1 X275.2868 Y193.5956 Z-0.7937 F800
G1 X276.2181 Y193.0289 Z-0.7937 F800
G1 X277.0840 Y192.4324 Z-0.7937 F800
G1 X277.8873 Y191.8083 Z-0.7937 F800
G1 X278.6310 Y191.1587 Z-0.7937 F800
G1 X279.3179 Y190.4856 Z-0.7937 F800
G1 X279.9507 Y189.7909 Z-0.7937 F800
G1 X280.5318 Y189.0765 Z-0.7937 F800
G1 X281.0638 Y188.3443 Z-0.7937 F800
G1 X281.5488 Y187.5959 Z-0.7937 F800
G1 X281.9889 Y186.8335 Z-0.7937 F800
G1 X282.3863 Y186.0590 Z-0.7937 F800
G1 X282.7427 Y185.2744 Z-0.7937 F800
G1 X283.0600 Y184.4820 Z-0.7937 F800
G1 X283.3401 Y183.6841 Z-0.7937 F800
G1 X283.5848 Y182.8830 Z-0.7937 F800
G1 X283.7958 Y182.0811 Z-0.7937 F800
G1 X283.9749 Y181.2811 Z-0.7937 F800
G1 X284.1240 Y180.4854 Z-0.7937 F800
G1 X284.2449 Y179.6967 Z-0.7937 F800
G1 X284.3396 Y178.9177 Z-0.7937 F800
G1 X284.4099 Y178.1510 Z-0.7937 F800
G1 X284.4577 Y177.3994 Z-0.7937 F800
G1 X284.4850 Y176.6655 Z-0.7937 F800
G1 X284.4938 Y175.9521 Z-0.7937 F800
G1 X284.4861 Y175.2620 Z-0.7937 F800
G1 X284.4640 Y174.5977 Z-0.7937 F800
G1 X284.4294 Y173.9622 Z-0.7937 F800
G1 X284.3845 Y173.3580 Z-0.7937 F800
G1 X284.3313 Y172.7879 Z-0.7937 F800
G1 X284.2720 Y172.2547 Z-0.7937 F800
G1 X284.2086 Y171.7610 Z-0.7937 F800
G1 X284.1432 Y171.3095 Z-0.7937 F800
G1 X284.0780 Y170.9030 Z-0.7937 F800
G1 X284.0467 Y170.7244 Z-0.7937 F800
G1 X283.6590 Y170.7202 Z-0.7937 F800
G1 X283.6560 Y170.7201 Z-0.7937 F800
G1 X283.1079 Y170.7131 Z-0.7937 F800
G1 X283.1053 Y170.7131 Z-0.7937 F800
G1 X282.5096 Y170.7045 Z-0.7937 F800
G1 X282.5072 Y170.7044 Z-0.7937 F800
G1 X281.8665 Y170.6942 Z-0.7937 F800
G1 X281.8643 Y170.6942 Z-0.7937 F800
G1 X281.1809 Y170.6823 Z-0.7937 F800
G1 X281.1789 Y170.6823 Z-0.7937 F800
G1 X280.4555 Y170.6688 Z-0.7937 F800
G1 X280.4535 Y170.6687 Z-0.7937 F800
G1 X279.6925 Y170.6536 Z-0.7937 F800
G1 X279.6905 Y170.6535 Z-0.7937 F800
G1 X278.8945 Y170.6367 Z-0.7937 F800
G1 X278.8926 Y170.6366 Z-0.7937 F800
G1 X278.0640 Y170.6181 Z-0.7937 F800
G1 X278.0621 Y170.6180 Z-0.7937 F800
G1 X277.2035 Y170.5978 Z-0.7937 F800
G1 X277.2015 Y170.5977 Z-0.7937 F800
G1 X276.3153 Y170.5758 Z-0.7937 F800
G1 X276.3134 Y170.5757 Z-0.7937 F800
G1 X275.4022 Y170.5520 Z-0.7937 F800
G1 X275.4002 Y170.5519 Z-0.7937 F800
G1 X274.4664 Y170.5265 Z-0.7937 F800
G1 X274.4644 Y170.5264 Z-0.7937 F800
G1 X273.5106 Y170.4992 Z-0.7937 F800
G1 X273.5085 Y170.4991 Z-0.7937 F800
G1 X272.5372 Y170.4701 Z-0.7937 F800
G1 X272.5350 Y170.4700 Z-0.7937 F800
G1 X271.5486 Y170.4392 Z-0.7937 F800
G1 X271.5464 Y170.4391 Z-0.7937 F800
G1 X270.5475 Y170.4065 Z-0.7937 F800
G1 X270.5451 Y170.4064 Z-0.7937 F800
G1 X269.5362 Y170.3719 Z-0.7937 F800
G1 X269.5337 Y170.3718 Z-0.7937 F800
G1 X268.5173 Y170.3355 Z-0.7937 F800
G1 X268.5147 Y170.3354 Z-0.7937 F800
G1 X267.4933 Y170.2972 Z-0.7937 F800
G1 X267.4905 Y170.2971 Z-0.7937 F800
G1 X266.4666 Y170.2571 Z-0.7937 F800
G1 X266.4637 Y170.2569 Z-0.7937 F800
G1 X265.4397 Y170.2150 Z-0.7937 F800
G1 X265.4366 Y170.2149 Z-0.7937 F800
G1 X264.4152 Y170.1710 Z-0.7937 F800
G1 X264.4119 Y170.1708 Z-0.7937 F800
G1 X263.3955 Y170.1250 Z-0.7937 F800
G1 X263.3919 Y170.1249 Z-0.7937 F800
G1 X262.3830 Y170.0771 Z-0.7937 F800
G1 X262.3791 Y170.0769 Z-0.7937 F800
G1 X261.3802 Y170.0273 Z-0.7937 F800
G1 X261.3761 Y170.0270 Z-0.7937 F800
G1 X260.3897 Y169.9754 Z-0.7937 F800
G1 X260.3852 Y169.9751 Z-0.7937 F800
G1 X259.4139 Y169.9215 Z-0.7937 F800
G1 X259.4090 Y169.9212 Z-0.7937 F800
G1 X258.4552 Y169.8656 Z-0.7937 F800
G1 X258.4498 Y169.8652 Z-0.7937 F800
G1 X257.5160 Y169.8076 Z-0.7937 F800
G1 X257.5101 Y169.8072 Z-0.7937 F800
G1 X256.5988 Y169.7475 Z-0.7937 F800
G1 X256.5923 Y169.7470 Z-0.7937 F800
G1 X255.7061 Y169.6853 Z-0.7937 F800
G1 X255.6988 Y169.6848 Z-0.7937 F800
G1 X254.8401 Y169.6209 Z-0.7937 F800
G1 X254.8320 Y169.6203 Z-0.7937 F800
G1 X254.0034 Y169.5544 Z-0.7937 F800
G1 X253.9941 Y169.5536 Z-0.7937 F800
G1 X253.1981 Y169.4857 Z-0.7937 F800
G1 X253.1876 Y169.4847 Z-0.7937 F800
G1 X252.4266 Y169.4146 Z-0.7937 F800
G1 X252.4145 Y169.4135 Z-0.7937 F800
G1 X251.6911 Y169.3412 Z-0.7937 F800
G1 X251.6771 Y169.3398 Z-0.7937 F800
G1 X250.9938 Y169.2654 Z-0.7937 F800
G1 X250.9773 Y169.2635 Z-0.7937 F800
G1 X250.3365 Y169.1870 Z-0.7937 F800
G1 X250.3168 Y169.1845 Z-0.7937 F800
G1 X249.7212 Y169.1058 Z-0.7937 F800
G1 X249.6973 Y169.1025 Z-0.7937 F800
G1 X249.1492 Y169.0216 Z-0.7937 F800
G1 X249.1197 Y169.0170 Z-0.7937 F800
G1 X248.6217 Y168.9339 Z-0.7937 F800
G1 X248.5844 Y168.9272 Z-0.7937 F800
G1 X248.1390 Y168.8419 Z-0.7937 F800
G1 X248.0902 Y168.8317 Z-0.7937 F800
G1 X247.6998 Y168.7442 Z-0.7937 F800
G1 X247.6336 Y168.7278 Z-0.7937 F800
G1 X247.6093 Y168.7213 Z-0.7937 F800
G0 Z5.000
G0 X248.2450 Y170.1552 Z5.0000
G1 Z-0.7937 F300
G1 X248.1935 Y170.2687 Z-0.7937 F800
G1 X248.0274 Y170.7052 Z-0.7937 F800
G1 X247.8616 Y171.2208 Z-0.7937 F800
G1 X247.7026 Y171.8063 Z-0.7937 F800
G1 X247.5550 Y172.4539 Z-0.7937 F800
G1 X247.4224 Y173.1565 Z-0.7937 F800
G1 X247.3077 Y173.9078 Z-0.7937 F800
G1 X247.2133 Y174.7018 Z-0.7937 F800
G1 X247.1414 Y175.5331 Z-0.7937 F800
G1 X247.0939 Y176.3962 Z-0.7937 F800
G1 X247.0728 Y177.2860 Z-0.7937 F800
G1 X247.0796 Y178.1974 Z-0.7937 F800
G1 X247.1159 Y179.1255 Z-0.7937 F800
G1 X247.1832 Y180.0654 Z-0.7937 F800
G1 X247.2828 Y181.0123 Z-0.7937 F800
G1 X247.4159 Y181.9614 Z-0.7937 F800
G1 X247.5837 Y182.9081 Z-0.7937 F800
G1 X247.7872 Y183.8475 Z-0.7937 F800
G1 X248.0272 Y184.7752 Z-0.7937 F800
G1 X248.3046 Y185.6867 Z-0.7937 F800
G1 X248.6200 Y186.5775 Z-0.7937 F800
G1 X248.9738 Y187.4436 Z-0.7937 F800
G1 X249.3664 Y188.2810 Z-0.7937 F800
G1 X249.7982 Y189.0860 Z-0.7937 F800
G1 X250.2694 Y189.8555 Z-0.7937 F800
G1 X250.7806 Y190.5865 Z-0.7937 F800
G1 X251.3324 Y191.2767 Z-0.7937 F800
G1 X251.9259 Y191.9241 Z-0.7937 F800
G1 X252.5626 Y192.5272 Z-0.7937 F800
G1 X253.2449 Y193.0847 Z-0.7937 F800
G1 X253.9760 Y193.5953 Z-0.7937 F800
G1 X254.7597 Y194.0575 Z-0.7937 F800
G1 X255.6007 Y194.4694 Z-0.7937 F800
G1 X256.5039 Y194.8283 Z-0.7937 F800
G1 X257.4746 Y195.1307 Z-0.7937 F800
G1 X258.5179 Y195.3724 Z-0.7937 F800
G1 X259.6387 Y195.5483 Z-0.7937 F800
G1 X260.8411 Y195.6528 Z-0.7937 F800
G1 X262.1288 Y195.6800 Z-0.7937 F800
G1 X263.5047 Y195.6239 Z-0.7937 F800
G1 X264.9800 Y195.4774 Z-0.7937 F800
G1 X266.4748 Y195.2557 Z-0.7937 F800
G1 X267.8902 Y194.9830 Z-0.7937 F800
G1 X269.2185 Y194.6643 Z-0.7937 F800
G1 X270.4624 Y194.3028 Z-0.7937 F800
G1 X271.6249 Y193.9018 Z-0.7937 F800
G1 X272.7093 Y193.4644 Z-0.7937 F800
G1 X273.7187 Y192.9936 Z-0.7937 F800
G1 X274.6569 Y192.4922 Z-0.7937 F800
G1 X275.5273 Y191.9626 Z-0.7937 F800
G1 X276.3336 Y191.4072 Z-0.7937 F800
G1 X277.0794 Y190.8278 Z-0.7937 F800
G1 X277.7682 Y190.2261 Z-0.7937 F800
G1 X278.4033 Y189.6038 Z-0.7937 F800
G1 X278.9879 Y188.9620 Z-0.7937 F800
G1 X279.5247 Y188.3020 Z-0.7937 F800
G1 X280.0164 Y187.6252 Z-0.7937 F800
G1 X280.4653 Y186.9326 Z-0.7937 F800
G1 X280.8733 Y186.2258 Z-0.7937 F800
G1 X281.2425 Y185.5062 Z-0.7937 F800
G1 X281.5745 Y184.7754 Z-0.7937 F800
G1 X281.8708 Y184.0354 Z-0.7937 F800
G1 X282.1331 Y183.2881 Z-0.7937 F800
G1 X282.3629 Y182.5358 Z-0.7937 F800
G1 X282.5616 Y181.7807 Z-0.7937 F800
G1 X282.7307 Y181.0253 Z-0.7937 F800
G1 X282.8719 Y180.2721 Z-0.7937 F800
G1 X282.9866 Y179.5239 Z-0.7937 F800
G1 X283.0766 Y178.7832 Z-0.7937 F800
G1 X283.1435 Y178.0528 Z-0.7937 F800
G1 X283.1892 Y177.3355 Z-0.7937 F800
G1 X283.2153 Y176.6341 Z-0.7937 F800
G1 X283.2237 Y175.9514 Z-0.7937 F800
G1 X283.2163 Y175.2902 Z-0.7937 F800
G1 X283.1951 Y174.6534 Z-0.7937 F800
G1 X283.1620 Y174.0437 Z-0.7937 F800
G1 X283.1189 Y173.4640 Z-0.7937 F800
G1 X283.0679 Y172.9171 Z-0.7937 F800
G1 X283.0110 Y172.4058 Z-0.7937 F800
G1 X282.9564 Y171.9811 Z-0.7937 F800
G1 X282.4913 Y171.9743 Z-0.7937 F800
G1 X282.4870 Y171.9743 Z-0.7937 F800
G1 X281.8462 Y171.9640 Z-0.7937 F800
G1 X281.8422 Y171.9640 Z-0.7937 F800
G1 X281.1589 Y171.9521 Z-0.7937 F800
G1 X281.1551 Y171.9520 Z-0.7937 F800
G1 X280.4317 Y171.9385 Z-0.7937 F800
G1 X280.4281 Y171.9385 Z-0.7937 F800
G1 X279.6672 Y171.9233 Z-0.7937 F800
G1 X279.6637 Y171.9232 Z-0.7937 F800
G1 X278.8676 Y171.9064 Z-0.7937 F800
G1 X278.8642 Y171.9063 Z-0.7937 F800
G1 X278.0356 Y171.8878 Z-0.7937 F800
G1 X278.0321 Y171.8877 Z-0.7937 F800
G1 X277.1735 Y171.8674 Z-0.7937 F800
G1 X277.1701 Y171.8673 Z-0.7937 F800
G1 X276.2839 Y171.8454 Z-0.7937 F800
G1 X276.2804 Y171.8453 Z-0.7937 F800
G1 X275.3691 Y171.8216 Z-0.7937 F800
G1 X275.3656 Y171.8215 Z-0.7937 F800
G1 X274.4318 Y171.7960 Z-0.7937 F800
G1 X274.4281 Y171.7959 Z-0.7937 F800
G1 X273.4743 Y171.7687 Z-0.7937 F800
G1 X273.4706 Y171.7686 Z-0.7937 F800
G1 X272.4992 Y171.7395 Z-0.7937 F800
G1 X272.4953 Y171.7394 Z-0.7937 F800
G1 X271.5089 Y171.7086 Z-0.7937 F800
G1 X271.5049 Y171.7085 Z-0.7937 F800
G1 X270.5060 Y171.6758 Z-0.7937 F800
G1 X270.5017 Y171.6757 Z-0.7937 F800
G1 X269.4928 Y171.6412 Z-0.7937 F800
G1 X269.4884 Y171.6410 Z-0.7937 F800
G1 X268.4720 Y171.6047 Z-0.7937 F800
G1 X268.4673 Y171.6045 Z-0.7937 F800
G1 X267.4458 Y171.5663 Z-0.7937 F800
G1 X267.4409 Y171.5662 Z-0.7937 F800
G1 X266.4169 Y171.5261 Z-0.7937 F800
G1 X266.4117 Y171.5259 Z-0.7937 F800
G1 X265.3877 Y171.4839 Z-0.7937 F800
G1 X265.3821 Y171.4837 Z-0.7937 F800
G1 X264.3607 Y171.4398 Z-0.7937 F800
G1 X264.3547 Y171.4395 Z-0.7937 F800
G1 X263.3383 Y171.3937 Z-0.7937 F800
G1 X263.3319 Y171.3935 Z-0.7937 F800
G1 X262.3230 Y171.3457 Z-0.7937 F800
G1 X262.3160 Y171.3454 Z-0.7937 F800
G1 X261.3171 Y171.2957 Z-0.7937 F800
G1 X261.3097 Y171.2953 Z-0.7937 F800
G1 X260.3233 Y171.2436 Z-0.7937 F800
G1 X260.3152 Y171.2432 Z-0.7937 F800
G1 X259.3438 Y171.1896 Z-0.7937 F800
G1 X259.3350 Y171.1890 Z-0.7937 F800
G1 X258.3812 Y171.1334 Z-0.7937 F800
G1 X258.3715 Y171.1328 Z-0.7937 F800
G1 X257.4377 Y171.0751 Z-0.7937 F800
G1 X257.4270 Y171.0745 Z-0.7937 F800
G1 X256.5158 Y171.0148 Z-0.7937 F800
G1 X256.5040 Y171.0140 Z-0.7937 F800
G1 X255.6178 Y170.9522 Z-0.7937 F800
G1 X255.6047 Y170.9513 Z-0.7937 F800
G1 X254.7460 Y170.8874 Z-0.7937 F800
G1 X254.7313 Y170.8863 Z-0.7937 F800
G1 X253.9027 Y170.8204 Z-0.7937 F800
G1 X253.8860 Y170.8190 Z-0.7937 F800
G1 X253.0900 Y170.7510 Z-0.7937 F800
G1 X253.0711 Y170.7494 Z-0.7937 F800
G1 X252.3101 Y170.6793 Z-0.7937 F800
G1 X252.2883 Y170.6772 Z-0.7937 F800
G1 X251.5649 Y170.6049 Z-0.7937 F800
G1 X251.5397 Y170.6023 Z-0.7937 F800
G1 X250.8563 Y170.5279 Z-0.7937 F800
G1 X250.8266 Y170.5245 Z-0.7937 F800
G1 X250.1859 Y170.4480 Z-0.7937 F800
G1 X250.1505 Y170.4436 Z-0.7937 F800
G1 X249.5548 Y170.3649 Z-0.7937 F800
G1 X249.5119 Y170.3589 Z-0.7937 F800
G1 X248.9638 Y170.2780 Z-0.7937 F800
G1 X248.9107 Y170.2696 Z-0.7937 F800
G1 X248.4127 Y170.1865 Z-0.7937 F800
G1 X248.3455 Y170.1745 Z-0.7937 F800
G1 X248.2450 Y170.1552 Z-0.7937 F800
G0 Z5.000
G0 X249.0805 Y171.5789 Z5.0000
G1 Z-0.7937 F300
G1 X249.0796 Y171.5817 Z-0.7937 F800
G1 X248.9351 Y172.1139 Z-0.7937 F800
G1 X248.7986 Y172.7128 Z-0.7937 F800
G1 X248.6745 Y173.3702 Z-0.7937 F800
G1 X248.5663 Y174.0787 Z-0.7937 F800
G1 X248.4768 Y174.8316 Z-0.7937 F800
G1 X248.4084 Y175.6227 Z-0.7937 F800
G1 X248.3631 Y176.4461 Z-0.7937 F800
G1 X248.3429 Y177.2963 Z-0.7937 F800
G1 X248.3494 Y178.1678 Z-0.7937 F800
G1 X248.3841 Y179.0553 Z-0.7937 F800
G1 X248.4484 Y179.9536 Z-0.7937 F800
G1 X248.5435 Y180.8577 Z-0.7937 F800
G1 X248.6704 Y181.7623 Z-0.7937 F800
G1 X248.8300 Y182.6627 Z-0.7937 F800
G1 X249.0230 Y183.5539 Z-0.7937 F800
G1 X249.2500 Y184.4311 Z-0.7937 F800
G1 X249.5113 Y185.2897 Z-0.7937 F800
G1 X249.8071 Y186.1252 Z-0.7937 F800
G1 X250.1373 Y186.9336 Z-0.7937 F800
G1 X250.5018 Y187.7109 Z-0.7937 F800
G1 X250.9002 Y188.4537 Z-0.7937 F800
G1 X251.3323 Y189.1593 Z-0.7937 F800
G1 X251.7980 Y189.8253 Z-0.7937 F800
G1 X252.2976 Y190.4501 Z-0.7937 F800
G1 X252.8318 Y191.0329 Z-0.7937 F800
G1 X253.4022 Y191.5732 Z-0.7937 F800
G1 X254.0114 Y192.0709 Z-0.7937 F800
G1 X254.6632 Y192.5262 Z-0.7937 F800
G1 X255.3625 Y192.9386 Z-0.7937 F800
G1 X256.1152 Y193.3073 Z-0.7937 F800
G1 X256.9278 Y193.6302 Z-0.7937 F800
G1 X257.8072 Y193.9041 Z-0.7937 F800
G1 X258.7600 Y194.1248 Z-0.7937 F800
G1 X259.7923 Y194.2868 Z-0.7937 F800
G1 X260.9096 Y194.3840 Z-0.7937 F800
G1 X262.1163 Y194.4095 Z-0.7937 F800
G1 X263.4160 Y194.3565 Z-0.7937 F800
G1 X264.8240 Y194.2166 Z-0.7937 F800
G1 X266.2614 Y194.0034 Z-0.7937 F800
G1 X267.6218 Y193.7414 Z-0.7937 F800
G1 X268.8929 Y193.4363 Z-0.7937 F800
G1 X270.0779 Y193.0920 Z-0.7937 F800
G1 X271.1800 Y192.7118 Z-0.7937 F800
G1 X272.2030 Y192.2992 Z-0.7937 F800
G1 X273.1506 Y191.8573 Z-0.7937 F800
G1 X274.0270 Y191.3888 Z-0.7937 F800
G1 X274.8364 Y190.8964 Z-0.7937 F800
G1 X275.5831 Y190.3820 Z-0.7937 F800
G1 X276.2714 Y189.8473 Z-0.7937 F800
G1 X276.9053 Y189.2936 Z-0.7937 F800
G1 X277.4887 Y188.7219 Z-0.7937 F800
G1 X278.0251 Y188.1330 Z-0.7937 F800
G1 X278.5176 Y187.5275 Z-0.7937 F800
G1 X278.9690 Y186.9061 Z-0.7937 F800
G1 X279.3817 Y186.2693 Z-0.7937 F800
G1 X279.7577 Y185.6181 Z-0.7937 F800
G1 X280.0987 Y184.9534 Z-0.7937 F800
G1 X280.4062 Y184.2764 Z-0.7937 F800
G1 X280.6816 Y183.5888 Z-0.7937 F800
G1 X280.9262 Y182.8922 Z-0.7937 F800
G1 X281.1410 Y182.1886 Z-0.7937 F800
G1 X281.3274 Y181.4802 Z-0.7937 F800
G1 X281.4865 Y180.7695 Z-0.7937 F800
G1 X281.6197 Y180.0589 Z-0.7937 F800
G1 X281.7283 Y179.3510 Z-0.7937 F800
G1 X281.8136 Y178.6486 Z-0.7937 F800
G1 X281.8772 Y177.9545 Z-0.7937 F800
G1 X281.9207 Y177.2715 Z-0.7937 F800
G1 X281.9456 Y176.6026 Z-0.7937 F800
G1 X281.9536 Y175.9506 Z-0.7937 F800
G1 X281.9466 Y175.3184 Z-0.7937 F800
G1 X281.9263 Y174.7090 Z-0.7937 F800
G1 X281.8945 Y174.1253 Z-0.7937 F800
G1 X281.8533 Y173.5701 Z-0.7937 F800
G1 X281.8219 Y173.2338 Z-0.7937 F800
G1 X281.8202 Y173.2338 Z-0.7937 F800
G1 X281.1369 Y173.2219 Z-0.7937 F800
G1 X281.1314 Y173.2218 Z-0.7937 F800
G1 X280.4080 Y173.2083 Z-0.7937 F800
G1 X280.4028 Y173.2082 Z-0.7937 F800
G1 X279.6419 Y173.1930 Z-0.7937 F800
G1 X279.6368 Y173.1929 Z-0.7937 F800
G1 X278.8408 Y173.1761 Z-0.7937 F800
G1 X278.8358 Y173.1760 Z-0.7937 F800
G1 X278.0072 Y173.1574 Z-0.7937 F800
G1 X278.0022 Y173.1573 Z-0.7937 F800
G1 X277.1436 Y173.1371 Z-0.7937 F800
G1 X277.1386 Y173.1370 Z-0.7937 F800
G1 X276.2524 Y173.1150 Z-0.7937 F800
G1 X276.2473 Y173.1149 Z-0.7937 F800
G1 X275.3361 Y173.0911 Z-0.7937 F800
G1 X275.3309 Y173.0910 Z-0.7937 F800
G1 X274.3972 Y173.0655 Z-0.7937 F800
G1 X274.3919 Y173.0654 Z-0.7937 F800
G1 X273.4381 Y173.0381 Z-0.7937 F800
G1 X273.4326 Y173.0380 Z-0.7937 F800
G1 X272.4613 Y173.0090 Z-0.7937 F800
G1 X272.4556 Y173.0088 Z-0.7937 F800
G1 X271.4693 Y172.9780 Z-0.7937 F800
G1 X271.4634 Y172.9778 Z-0.7937 F800
G1 X270.4645 Y172.9451 Z-0.7937 F800
G1 X270.4584 Y172.9449 Z-0.7937 F800
G1 X269.4495 Y172.9104 Z-0.7937 F800
G1 X269.4430 Y172.9102 Z-0.7937 F800
G1 X268.4266 Y172.8739 Z-0.7937 F800
G1 X268.4198 Y172.8736 Z-0.7937 F800
G1 X267.3984 Y172.8355 Z-0.7937 F800
G1 X267.3912 Y172.8352 Z-0.7937 F800
G1 X266.3673 Y172.7951 Z-0.7937 F800
G1 X266.3597 Y172.7948 Z-0.7937 F800
G1 X265.3357 Y172.7529 Z-0.7937 F800
G1 X265.3276 Y172.7525 Z-0.7937 F800
G1 X264.3062 Y172.7086 Z-0.7937 F800
G1 X264.2975 Y172.7083 Z-0.7937 F800
G1 X263.2811 Y172.6625 Z-0.7937 F800
G1 X263.2718 Y172.6620 Z-0.7937 F800
G1 X262.2629 Y172.6143 Z-0.7937 F800
G1 X262.2529 Y172.6138 Z-0.7937 F800
G1 X261.2540 Y172.5641 Z-0.7937 F800
G1 X261.2432 Y172.5636 Z-0.7937 F800
G1 X260.2569 Y172.5119 Z-0.7937 F800
G1 X260.2451 Y172.5113 Z-0.7937 F800
G1 X259.2738 Y172.4576 Z-0.7937 F800
G1 X259.2610 Y172.4569 Z-0.7937 F800
G1 X258.3072 Y172.4012 Z-0.7937 F800
G1 X258.2932 Y172.4004 Z-0.7937 F800
G1 X257.3594 Y172.3427 Z-0.7937 F800
G1 X257.3440 Y172.3417 Z-0.7937 F800
G1 X256.4328 Y172.2820 Z-0.7937 F800
G1 X256.4157 Y172.2809 Z-0.7937 F800
G1 X255.5295 Y172.2191 Z-0.7937 F800
G1 X255.5105 Y172.2178 Z-0.7937 F800
G1 X254.6519 Y172.1539 Z-0.7937 F800
G1 X254.6306 Y172.1523 Z-0.7937 F800
G1 X253.8020 Y172.0864 Z-0.7937 F800
G1 X253.7780 Y172.0844 Z-0.7937 F800
G1 X252.9819 Y172.0164 Z-0.7937 F800
G1 X252.9546 Y172.0140 Z-0.7937 F800
G1 X252.1936 Y171.9439 Z-0.7937 F800
G1 X252.1622 Y171.9409 Z-0.7937 F800
G1 X251.4388 Y171.8687 Z-0.7937 F800
G1 X251.4023 Y171.8649 Z-0.7937 F800
G1 X250.7189 Y171.7905 Z-0.7937 F800
G1 X250.6760 Y171.7856 Z-0.7937 F800
G1 X250.0353 Y171.7091 Z-0.7937 F800
G1 X249.9841 Y171.7026 Z-0.7937 F800
G1 X249.3885 Y171.6239 Z-0.7937 F800
G1 X249.3265 Y171.6153 Z-0.7937 F800
G1 X249.0805 Y171.5789 Z-0.7937 F800
G0 Z5.000
G0 X250.0390 Y172.9885 Z5.0000
G1 Z-0.7937 F300
G1 X249.9266 Y173.5839 Z-0.7937 F800
G1 X249.8249 Y174.2496 Z-0.7937 F800
G1 X249.7403 Y174.9613 Z-0.7937 F800
G1 X249.6754 Y175.7122 Z-0.7937 F800
G1 X249.6323 Y176.4960 Z-0.7937 F800
G1 X249.6130 Y177.3067 Z-0.7937 F800
G1 X249.6192 Y178.1382 Z-0.7937 F800
G1 X249.6524 Y178.9851 Z-0.7937 F800
G1 X249.7137 Y179.8419 Z-0.7937 F800
G1 X249.8042 Y180.7030 Z-0.7937 F800
G1 X249.9249 Y181.5632 Z-0.7937 F800
G1 X250.0763 Y182.4174 Z-0.7937 F800
G1 X250.2589 Y183.2603 Z-0.7937 F800
G1 X250.4728 Y184.0870 Z-0.7937 F800
G1 X250.7180 Y184.8927 Z-0.7937 F800
G1 X250.9942 Y185.6730 Z-0.7937 F800
G1 X251.3008 Y186.4236 Z-0.7937 F800
G1 X251.6371 Y187.1408 Z-0.7937 F800
G1 X252.0022 Y187.8214 Z-0.7937 F800
G1 X252.3952 Y188.4631 Z-0.7937 F800
G1 X252.8154 Y189.0641 Z-0.7937 F800
G1 X253.2628 Y189.6236 Z-0.7937 F800
G1 X253.7377 Y190.1417 Z-0.7937 F800
G1 X254.2417 Y190.6191 Z-0.7937 F800
G1 X254.7778 Y191.0571 Z-0.7937 F800
G1 X255.3504 Y191.4571 Z-0.7937 F800
G1 X255.9653 Y191.8197 Z-0.7937 F800
G1 X256.6298 Y192.1452 Z-0.7937 F800
G1 X257.3518 Y192.4321 Z-0.7937 F800
G1 X258.1398 Y192.6775 Z-0.7937 F800
G1 X259.0020 Y192.8772 Z-0.7937 F800
G1 X259.9459 Y193.0254 Z-0.7937 F800
G1 X260.9781 Y193.1151 Z-0.7937 F800
G1 X262.1039 Y193.1390 Z-0.7937 F800
G1 X263.3273 Y193.0890 Z-0.7937 F800
G1 X264.6680 Y192.9559 Z-0.7937 F800
G1 X266.0481 Y192.7512 Z-0.7937 F800
G1 X267.3534 Y192.4997 Z-0.7937 F800
G1 X268.5674 Y192.2084 Z-0.7937 F800
G1 X269.6934 Y191.8812 Z-0.7937 F800
G1 X270.7352 Y191.5218 Z-0.7937 F800
G1 X271.6967 Y191.1340 Z-0.7937 F800
G1 X272.5825 Y190.7209 Z-0.7937 F800
G1 X273.3971 Y190.2855 Z-0.7937 F800
G1 X274.1456 Y189.8301 Z-0.7937 F800
G1 X274.8327 Y189.3568 Z-0.7937 F800
G1 X275.4634 Y188.8667 Z-0.7937 F800
G1 X276.0424 Y188.3610 Z-0.7937 F800
G1 X276.5741 Y187.8400 Z-0.7937 F800
G1 X277.0623 Y187.3040 Z-0.7937 F800
G1 X277.5105 Y186.7530 Z-0.7937 F800
G1 X277.9217 Y186.1870 Z-0.7937 F800
G1 X278.2982 Y185.6061 Z-0.7937 F800
G1 X278.6421 Y185.0104 Z-0.7937 F800
G1 X278.9549 Y184.4006 Z-0.7937 F800
G1 X279.2380 Y183.7775 Z-0.7937 F800
G1 X279.4924 Y183.1422 Z-0.7937 F800
G1 X279.7192 Y182.4962 Z-0.7937 F800
G1 X279.9191 Y181.8414 Z-0.7937 F800
G1 X280.0932 Y181.1798 Z-0.7937 F800
G1 X280.2424 Y180.5137 Z-0.7937 F800
G1 X280.3676 Y179.8456 Z-0.7937 F800
G1 X280.4699 Y179.1781 Z-0.7937 F800
G1 X280.5506 Y178.5140 Z-0.7937 F800
G1 X280.6109 Y177.8562 Z-0.7937 F800
G1 X280.6522 Y177.2076 Z-0.7937 F800
G1 X280.6759 Y176.5711 Z-0.7937 F800
G1 X280.6835 Y175.9498 Z-0.7937 F800
G1 X280.6768 Y175.3466 Z-0.7937 F800
G1 X280.6574 Y174.7646 Z-0.7937 F800
G1 X280.6421 Y174.4829 Z-0.7937 F800
G1 X280.3843 Y174.4781 Z-0.7937 F800
G1 X280.3775 Y174.4780 Z-0.7937 F800
G1 X279.6166 Y174.4628 Z-0.7937 F800
G1 X279.6099 Y174.4627 Z-0.7937 F800
G1 X278.8139 Y174.4458 Z-0.7937 F800
G1 X278.8074 Y174.4457 Z-0.7937 F800
G1 X277.9788 Y174.4271 Z-0.7937 F800
G1 X277.9723 Y174.4270 Z-0.7937 F800
G1 X277.1136 Y174.4067 Z-0.7937 F800
G1 X277.1071 Y174.4066 Z-0.7937 F800
G1 X276.2209 Y174.3846 Z-0.7937 F800
G1 X276.2143 Y174.3844 Z-0.7937 F800
G1 X275.3031 Y174.3607 Z-0.7937 F800
G1 X275.2963 Y174.3605 Z-0.7937 F800
G1 X274.3625 Y174.3351 Z-0.7937 F800
G1 X274.3556 Y174.3349 Z-0.7937 F800
G1 X273.4018 Y174.3076 Z-0.7937 F800
G1 X273.3947 Y174.3074 Z-0.7937 F800
G1 X272.4233 Y174.2784 Z-0.7937 F800
G1 X272.4160 Y174.2782 Z-0.7937 F800
G1 X271.4296 Y174.2473 Z-0.7937 F800
G1 X271.4219 Y174.2471 Z-0.7937 F800
G1 X270.4230 Y174.2145 Z-0.7937 F800
G1 X270.4150 Y174.2142 Z-0.7937 F800
G1 X269.4061 Y174.1797 Z-0.7937 F800
G1 X269.3977 Y174.1794 Z-0.7937 F800
G1 X268.3812 Y174.1431 Z-0.7937 F800
G1 X268.3724 Y174.1428 Z-0.7937 F800
G1 X267.3509 Y174.1046 Z-0.7937 F800
G1 X267.3415 Y174.1042 Z-0.7937 F800
G1 X266.3176 Y174.0641 Z-0.7937 F800
G1 X266.3077 Y174.0637 Z-0.7937 F800
G1 X265.2837 Y174.0218 Z-0.7937 F800
G1 X265.2731 Y174.0213 Z-0.7937 F800
G1 X264.2517 Y173.9775 Z-0.7937 F800
G1 X264.2404 Y173.9770 Z-0.7937 F800
G1 X263.2240 Y173.9312 Z-0.7937 F800
G1 X263.2118 Y173.9306 Z-0.7937 F800
G1 X262.2029 Y173.8829 Z-0.7937 F800
G1 X262.1898 Y173.8822 Z-0.7937 F800
G1 X261.1909 Y173.8326 Z-0.7937 F800
G1 X261.1768 Y173.8318 Z-0.7937 F800
G1 X260.1904 Y173.7802 Z-0.7937 F800
G1 X260.1751 Y173.7793 Z-0.7937 F800
G1 X259.2038 Y173.7257 Z-0.7937 F800
G1 X259.1870 Y173.7247 Z-0.7937 F800
G1 X258.2332 Y173.6691 Z-0.7937 F800
G1 X258.2149 Y173.6680 Z-0.7937 F800
G1 X257.2811 Y173.6103 Z-0.7937 F800
G1 X257.2610 Y173.6090 Z-0.7937 F800
G1 X256.3497 Y173.5493 Z-0.7937 F800
G1 X256.3274 Y173.5478 Z-0.7937 F800
G1 X255.4412 Y173.4861 Z-0.7937 F800
G1 X255.4164 Y173.4843 Z-0.7937 F800
G1 X254.5578 Y173.4205 Z-0.7937 F800
G1 X254.5299 Y173.4183 Z-0.7937 F800
G1 X253.7013 Y173.3524 Z-0.7937 F800
G1 X253.6699 Y173.3498 Z-0.7937 F800
G1 X252.8739 Y173.2818 Z-0.7937 F800
G1 X252.8381 Y173.2787 Z-0.7937 F800
G1 X252.0771 Y173.2086 Z-0.7937 F800
G1 X252.0360 Y173.2046 Z-0.7937 F800
G1 X251.3126 Y173.1324 Z-0.7937 F800
G1 X251.2649 Y173.1274 Z-0.7937 F800
G1 X250.5815 Y173.0530 Z-0.7937 F800
G1 X250.5254 Y173.0466 Z-0.7937 F800
G1 X250.0390 Y172.9885 Z-0.7937 F800
G0 Z5.000
G0 X251.0889 Y174.3857 Z5.0000
G1 Z-0.7937 F300
G1 X251.0836 Y174.4205 Z-0.7937 F800
G1 X251.0038 Y175.0910 Z-0.7937 F800
G1 X250.9424 Y175.8018 Z-0.7937 F800
G1 X250.9015 Y176.5460 Z-0.7937 F800
G1 X250.8831 Y177.3170 Z-0.7937 F800
G1 X250.8891 Y178.1087 Z-0.7937 F800
G1 X250.9206 Y178.9150 Z-0.7937 F800
G1 X250.9789 Y179.7301 Z-0.7937 F800
G1 X251.0650 Y180.5484 Z-0.7937 F800
G1 X251.1794 Y181.3641 Z-0.7937 F800
G1 X251.3226 Y182.1720 Z-0.7937 F800
G1 X251.4947 Y182.9666 Z-0.7937 F800
G1 X251.6956 Y183.7428 Z-0.7937 F800
G1 X251.9247 Y184.4957 Z-0.7937 F800
G1 X252.1814 Y185.2207 Z-0.7937 F800
G1 X252.4644 Y185.9135 Z-0.7937 F800
G1 X252.7725 Y186.5707 Z-0.7937 F800
G1 X253.1042 Y187.1891 Z-0.7937 F800
G1 X253.4580 Y187.7669 Z-0.7937 F800
G1 X253.8328 Y188.3029 Z-0.7937 F800
G1 X254.2279 Y188.7970 Z-0.7937 F800
G1 X254.6436 Y189.2505 Z-0.7937 F800
G1 X255.0813 Y189.6651 Z-0.7937 F800
G1 X255.5443 Y190.0434 Z-0.7937 F800
G1 X256.0376 Y190.3879 Z-0.7937 F800
G1 X256.5682 Y190.7008 Z-0.7937 F800
G1 X257.1444 Y190.9830 Z-0.7937 F800
G1 X257.7758 Y191.2339 Z-0.7937 F800
G1 X258.4724 Y191.4510 Z-0.7937 F800
G1 X259.2440 Y191.6297 Z-0.7937 F800
G1 X260.0996 Y191.7640 Z-0.7937 F800
G1 X261.0466 Y191.8463 Z-0.7937 F800
G1 X262.0914 Y191.8684 Z-0.7937 F800
G1 X263.2385 Y191.8216 Z-0.7937 F800
G1 X264.5120 Y191.6951 Z-0.7937 F800
G1 X265.8347 Y191.4989 Z-0.7937 F800
G1 X267.0850 Y191.2581 Z-0.7937 F800
G1 X268.2418 Y190.9805 Z-0.7937 F800
G1 X269.3089 Y190.6704 Z-0.7937 F800
G1 X270.2903 Y190.3319 Z-0.7937 F800
G1 X271.1904 Y189.9688 Z-0.7937 F800
G1 X272.0143 Y189.5845 Z-0.7937 F800
G1 X272.7673 Y189.1821 Z-0.7937 F800
G1 X273.4547 Y188.7639 Z-0.7937 F800
G1 X274.0822 Y188.3315 Z-0.7937 F800
G1 X274.6554 Y187.8862 Z-0.7937 F800
G1 X275.1795 Y187.4284 Z-0.7937 F800
G1 X275.6594 Y186.9582 Z-0.7937 F800
G1 X276.0995 Y186.4751 Z-0.7937 F800
G1 X276.5034 Y185.9785 Z-0.7937 F800
G1 X276.8743 Y185.4679 Z-0.7937 F800
G1 X277.2147 Y184.9428 Z-0.7937 F800
G1 X277.5265 Y184.4027 Z-0.7937 F800
G1 X277.8111 Y183.8478 Z-0.7937 F800
G1 X278.0698 Y183.2785 Z-0.7937 F800
G1 X278.3032 Y182.6956 Z-0.7937 F800
G1 X278.5122 Y182.1003 Z-0.7937 F800
G1 X278.6973 Y181.4942 Z-0.7937 F800
G1 X278.8590 Y180.8794 Z-0.7937 F800
G1 X278.9982 Y180.2579 Z-0.7937 F800
G1 X279.1154 Y179.6323 Z-0.7937 F800
G1 X279.2116 Y179.0052 Z-0.7937 F800
G1 X279.2876 Y178.3795 Z-0.7937 F800
G1 X279.3446 Y177.7579 Z-0.7937 F800
G1 X279.3837 Y177.1436 Z-0.7937 F800
G1 X279.4061 Y176.5397 Z-0.7937 F800
G1 X279.4134 Y175.9490 Z-0.7937 F800
G1 X279.4110 Y175.7287 Z-0.7937 F800
G1 X278.7870 Y175.7155 Z-0.7937 F800
G1 X278.7789 Y175.7153 Z-0.7937 F800
G1 X277.9504 Y175.6968 Z-0.7937 F800
G1 X277.9423 Y175.6966 Z-0.7937 F800
G1 X277.0837 Y175.6764 Z-0.7937 F800
G1 X277.0756 Y175.6762 Z-0.7937 F800
G1 X276.1894 Y175.6542 Z-0.7937 F800
G1 X276.1812 Y175.6540 Z-0.7937 F800
G1 X275.2700 Y175.6303 Z-0.7937 F800
G1 X275.2617 Y175.6301 Z-0.7937 F800
G1 X274.3279 Y175.6046 Z-0.7937 F800
G1 X274.3194 Y175.6044 Z-0.7937 F800
G1 X273.3656 Y175.5771 Z-0.7937 F800
G1 X273.3567 Y175.5769 Z-0.7937 F800
G1 X272.3854 Y175.5478 Z-0.7937 F800
G1 X272.3763 Y175.5475 Z-0.7937 F800
G1 X271.3899 Y175.5167 Z-0.7937 F800
G1 X271.3804 Y175.5164 Z-0.7937 F800
G1 X270.3815 Y175.4838 Z-0.7937 F800
G1 X270.3716 Y175.4834 Z-0.7937 F800
G1 X269.3627 Y175.4490 Z-0.7937 F800
G1 X269.3523 Y175.4486 Z-0.7937 F800
G1 X268.3359 Y175.4123 Z-0.7937 F800
G1 X268.3249 Y175.4119 Z-0.7937 F800
G1 X267.3035 Y175.3737 Z-0.7937 F800
G1 X267.2919 Y175.3732 Z-0.7937 F800
G1 X266.2680 Y175.3332 Z-0.7937 F800
G1 X266.2557 Y175.3327 Z-0.7937 F800
G1 X265.2317 Y175.2907 Z-0.7937 F800
G1 X265.2186 Y175.2902 Z-0.7937 F800
G1 X264.1972 Y175.2463 Z-0.7937 F800
G1 X264.1832 Y175.2457 Z-0.7937 F800
G1 X263.1668 Y175.1999 Z-0.7937 F800
G1 X263.1518 Y175.1992 Z-0.7937 F800
G1 X262.1429 Y175.1515 Z-0.7937 F800
G1 X262.1267 Y175.1507 Z-0.7937 F800
G1 X261.1278 Y175.1010 Z-0.7937 F800
G1 X261.1104 Y175.1001 Z-0.7937 F800
G1 X260.1240 Y175.0484 Z-0.7937 F800
G1 X260.1051 Y175.0474 Z-0.7937 F800
G1 X259.1337 Y174.9938 Z-0.7937 F800
G1 X259.1131 Y174.9926 Z-0.7937 F800
G1 X258.1592 Y174.9369 Z-0.7937 F800
G1 X258.1366 Y174.9356 Z-0.7937 F800
G1 X257.2028 Y174.8779 Z-0.7937 F800
G1 X257.1779 Y174.8763 Z-0.7937 F800
G1 X256.2667 Y174.8166 Z-0.7937 F800
G1 X256.2391 Y174.8147 Z-0.7937 F800
G1 X255.3530 Y174.7530 Z-0.7937 F800
G1 X255.3223 Y174.7508 Z-0.7937 F800
G1 X254.4636 Y174.6870 Z-0.7937 F800
G1 X254.4292 Y174.6843 Z-0.7937 F800
G1 X253.6006 Y174.6184 Z-0.7937 F800
G1 X253.5618 Y174.6152 Z-0.7937 F800
G1 X252.7658 Y174.5472 Z-0.7937 F800
G1 X252.7216 Y174.5433 Z-0.7937 F800
G1 X251.9606 Y174.4732 Z-0.7937 F800
G1 X251.9098 Y174.4683 Z-0.7937 F800
G1 X251.1864 Y174.3961 Z-0.7937 F800
G1 X251.1274 Y174.3899 Z-0.7937 F800
G1 X251.0889 Y174.3857 Z-0.7937 F800
G0 Z5.000
G0 X252.2196 Y175.7724 Z5.0000
G1 Z-0.7937 F300
G1 X252.2093 Y175.8914 Z-0.7937 F800
G1 X252.1706 Y176.5959 Z-0.7937 F800
G1 X252.1533 Y177.3273 Z-0.7937 F800
G1 X252.1589 Y178.0791 Z-0.7937 F800
G1 X252.1888 Y178.8448 Z-0.7937 F800
G1 X252.2442 Y179.6183 Z-0.7937 F800
G1 X252.3257 Y180.3937 Z-0.7937 F800
G1 X252.4339 Y181.1650 Z-0.7937 F800
G1 X252.5689 Y181.9267 Z-0.7937 F800
G1 X252.7306 Y182.6730 Z-0.7937 F800
G1 X252.9184 Y183.3987 Z-0.7937 F800
G1 X253.1314 Y184.0987 Z-0.7937 F800
G1 X253.3685 Y184.7684 Z-0.7937 F800
G1 X253.6279 Y185.4035 Z-0.7937 F800
G1 X253.9078 Y186.0006 Z-0.7937 F800
G1 X254.2062 Y186.5568 Z-0.7937 F800
G1 X254.5209 Y187.0707 Z-0.7937 F800
G1 X254.8503 Y187.5417 Z-0.7937 F800
G1 X255.1931 Y187.9705 Z-0.7937 F800
G1 X255.5495 Y188.3593 Z-0.7937 F800
G1 X255.9208 Y188.7110 Z-0.7937 F800
G1 X256.3107 Y189.0296 Z-0.7937 F800
G1 X256.7248 Y189.3188 Z-0.7937 F800
G1 X257.1710 Y189.5819 Z-0.7937 F800
G1 X257.6589 Y189.8209 Z-0.7937 F800
G1 X258.1997 Y190.0358 Z-0.7937 F800
G1 X258.8050 Y190.2244 Z-0.7937 F800
G1 X259.4861 Y190.3821 Z-0.7937 F800
G1 X260.2532 Y190.5025 Z-0.7937 F800
G1 X261.1152 Y190.5775 Z-0.7937 F800
G1 X262.0789 Y190.5979 Z-0.7937 F800
G1 X263.1498 Y190.5542 Z-0.7937 F800
G1 X264.3560 Y190.4344 Z-0.7937 F800
G1 X265.6213 Y190.2467 Z-0.7937 F800
G1 X266.8165 Y190.0164 Z-0.7937 F800
G1 X267.9163 Y189.7525 Z-0.7937 F800
G1 X268.9244 Y189.4596 Z-0.7937 F800
G1 X269.8454 Y189.1419 Z-0.7937 F800
G1 X270.6842 Y188.8036 Z-0.7937 F800
G1 X271.4462 Y188.4482 Z-0.7937 F800
G1 X272.1374 Y188.0788 Z-0.7937 F800
G1 X272.7638 Y187.6976 Z-0.7937 F800
G1 X273.3318 Y187.3063 Z-0.7937 F800
G1 X273.8475 Y186.9057 Z-0.7937 F800
G1 X274.3167 Y186.4959 Z-0.7937 F800
G1 X274.7448 Y186.0763 Z-0.7937 F800
G1 X275.1367 Y185.6461 Z-0.7937 F800
G1 X275.4963 Y185.2040 Z-0.7937 F800
G1 X275.8270 Y184.7489 Z-0.7937 F800
G1 X276.1312 Y184.2795 Z-0.7937 F800
G1 X276.4109 Y183.7950 Z-0.7937 F800
G1 X276.6674 Y183.2950 Z-0.7937 F800
G1 X276.9015 Y182.7795 Z-0.7937 F800
G1 X277.1140 Y182.2490 Z-0.7937 F800
G1 X277.3052 Y181.7043 Z-0.7937 F800
G1 X277.4754 Y181.1471 Z-0.7937 F800
G1 X277.6249 Y180.5789 Z-0.7937 F800
G1 X277.7540 Y180.0021 Z-0.7937 F800
G1 X277.8633 Y179.4190 Z-0.7937 F800
G1 X277.9533 Y178.8323 Z-0.7937 F800
G1 X278.0246 Y178.2449 Z-0.7937 F800
G1 X278.0783 Y177.6597 Z-0.7937 F800
G1 X278.1152 Y177.0797 Z-0.7937 F800
G1 X278.1192 Y176.9709 Z-0.7937 F800
G1 X277.9219 Y176.9665 Z-0.7937 F800
G1 X277.9124 Y176.9663 Z-0.7937 F800
G1 X277.0537 Y176.9460 Z-0.7937 F800
G1 X277.0441 Y176.9458 Z-0.7937 F800
G1 X276.1579 Y176.9238 Z-0.7937 F800
G1 X276.1482 Y176.9236 Z-0.7937 F800
G1 X275.2370 Y176.8999 Z-0.7937 F800
G1 X275.2271 Y176.8996 Z-0.7937 F800
G1 X274.2933 Y176.8741 Z-0.7937 F800
G1 X274.2831 Y176.8738 Z-0.7937 F800
G1 X273.3293 Y176.8466 Z-0.7937 F800
G1 X273.3188 Y176.8463 Z-0.7937 F800
G1 X272.3475 Y176.8173 Z-0.7937 F800
G1 X272.3366 Y176.8169 Z-0.7937 F800
G1 X271.3503 Y176.7861 Z-0.7937 F800
G1 X271.3389 Y176.7857 Z-0.7937 F800
G1 X270.3401 Y176.7531 Z-0.7937 F800
G1 X270.3282 Y176.7527 Z-0.7937 F800
G1 X269.3193 Y176.7182 Z-0.7937 F800
G1 X269.3069 Y176.7178 Z-0.7937 F800
G1 X268.2905 Y176.6815 Z-0.7937 F800
G1 X268.2775 Y176.6810 Z-0.7937 F800
G1 X267.2560 Y176.6428 Z-0.7937 F800
G1 X267.2422 Y176.6423 Z-0.7937 F800
G1 X266.2183 Y176.6022 Z-0.7937 F800
G1 X266.2037 Y176.6016 Z-0.7937 F800
G1 X265.1797 Y176.5597 Z-0.7937 F800
G1 X265.1641 Y176.5590 Z-0.7937 F800
G1 X264.1427 Y176.5151 Z-0.7937 F800
G1 X264.1260 Y176.5144 Z-0.7937 F800
G1 X263.1096 Y176.4686 Z-0.7937 F800
G1 X263.0918 Y176.4678 Z-0.7937 F800
G1 X262.0829 Y176.4200 Z-0.7937 F800
G1 X262.0636 Y176.4191 Z-0.7937 F800
G1 X261.0647 Y176.3694 Z-0.7937 F800
G1 X261.0439 Y176.3684 Z-0.7937 F800
G1 X260.0576 Y176.3167 Z-0.7937 F800
G1 X260.0350 Y176.3155 Z-0.7937 F800
G1 X259.0637 Y176.2618 Z-0.7937 F800
G1 X259.0391 Y176.2604 Z-0.7937 F800
G1 X258.0853 Y176.2048 Z-0.7937 F800
G1 X258.0583 Y176.2032 Z-0.7937 F800
G1 X257.1246 Y176.1455 Z-0.7937 F800
G1 X257.0949 Y176.1436 Z-0.7937 F800
G1 X256.1837 Y176.0839 Z-0.7937 F800
G1 X256.1509 Y176.0817 Z-0.7937 F800
G1 X255.2647 Y176.0199 Z-0.7937 F800
G1 X255.2281 Y176.0173 Z-0.7937 F800
G1 X254.3695 Y175.9535 Z-0.7937 F800
G1 X254.3285 Y175.9503 Z-0.7937 F800
G1 X253.5000 Y175.8844 Z-0.7937 F800
G1 X253.4537 Y175.8806 Z-0.7937 F800
G1 X252.6577 Y175.8126 Z-0.7937 F800
G1 X252.6051 Y175.8079 Z-0.7937 F800
G1 X252.2196 Y175.7724 Z-0.7937 F800
G0 Z5.000
G0 X253.4278 Y177.1527 Z5.0000
G1 Z-0.7937 F300
G1 X253.4234 Y177.3377 Z-0.7937 F800
G1 X253.4287 Y178.0495 Z-0.7937 F800
G1 X253.4570 Y178.7746 Z-0.7937 F800
G1 X253.5094 Y179.5066 Z-0.7937 F800
G1 X253.5865 Y180.2391 Z-0.7937 F800
G1 X253.6884 Y180.9660 Z-0.7937 F800
G1 X253.8152 Y181.6813 Z-0.7937 F800
G1 X253.9664 Y182.3794 Z-0.7937 F800
G1 X254.1412 Y183.0546 Z-0.7937 F800
G1 X254.3381 Y183.7018 Z-0.7937 F800
G1 X254.5556 Y184.3161 Z-0.7937 F800
G1 X254.7914 Y184.8935 Z-0.7937 F800
G1 X255.0432 Y185.4304 Z-0.7937 F800
G1 X255.3082 Y185.9245 Z-0.7937 F800
G1 X255.5838 Y186.3745 Z-0.7937 F800
G1 X255.8677 Y186.7805 Z-0.7937 F800
G1 X256.1583 Y187.1440 Z-0.7937 F800
G1 X256.4554 Y187.4681 Z-0.7937 F800
G1 X256.7604 Y187.7570 Z-0.7937 F800
G1 X257.0772 Y188.0158 Z-0.7937 F800
G1 X257.4120 Y188.2497 Z-0.7937 F800
G1 X257.7738 Y188.4630 Z-0.7937 F800
G1 X258.1735 Y188.6588 Z-0.7937 F800
G1 X258.6237 Y188.8377 Z-0.7937 F800
G1 X259.1377 Y188.9978 Z-0.7937 F800
G1 X259.7281 Y189.1346 Z-0.7937 F800
G1 X260.4068 Y189.2411 Z-0.7937 F800
G1 X261.1837 Y189.3086 Z-0.7937 F800
G1 X262.0665 Y189.3273 Z-0.7937 F800
G1 X263.0611 Y189.2867 Z-0.7937 F800
G1 X264.2000 Y189.1736 Z-0.7937 F800
G1 X265.4079 Y188.9945 Z-0.7937 F800
G1 X266.5481 Y188.7748 Z-0.7937 F800
G1 X267.5907 Y188.5246 Z-0.7937 F800
G1 X268.5399 Y188.2488 Z-0.7937 F800
G1 X269.4005 Y187.9519 Z-0.7937 F800
G1 X270.1779 Y187.6384 Z-0.7937 F800
G1 X270.8781 Y187.3118 Z-0.7937 F800
G1 X271.5075 Y186.9754 Z-0.7937 F800
G1 X272.0730 Y186.6314 Z-0.7937 F800
G1 X272.5814 Y186.2811 Z-0.7937 F800
G1 X273.0395 Y185.9252 Z-0.7937 F800
G1 X273.4538 Y185.5633 Z-0.7937 F800
G1 X273.8302 Y185.1945 Z-0.7937 F800
G1 X274.1739 Y184.8171 Z-0.7937 F800
G1 X274.4892 Y184.4295 Z-0.7937 F800
G1 X274.7796 Y184.0298 Z-0.7937 F800
G1 X275.0477 Y183.6162 Z-0.7937 F800
G1 X275.2953 Y183.1873 Z-0.7937 F800
G1 X275.5236 Y182.7422 Z-0.7937 F800
G1 X275.7333 Y182.2805 Z-0.7937 F800
G1 X275.9248 Y181.8024 Z-0.7937 F800
G1 X276.0982 Y181.3084 Z-0.7937 F800
G1 X276.2535 Y180.7999 Z-0.7937 F800
G1 X276.3907 Y180.2785 Z-0.7937 F800
G1 X276.5099 Y179.7463 Z-0.7937 F800
G1 X276.6112 Y179.2057 Z-0.7937 F800
G1 X276.6949 Y178.6594 Z-0.7937 F800
G1 X276.7497 Y178.2089 Z-0.7937 F800
G1 X276.1265 Y178.1934 Z-0.7937 F800
G1 X276.1152 Y178.1931 Z-0.7937 F800
G1 X275.2039 Y178.1694 Z-0.7937 F800
G1 X275.1924 Y178.1691 Z-0.7937 F800
G1 X274.2587 Y178.1436 Z-0.7937 F800
G1 X274.2469 Y178.1433 Z-0.7937 F800
G1 X273.2931 Y178.1161 Z-0.7937 F800
G1 X273.2809 Y178.1157 Z-0.7937 F800
G1 X272.3095 Y178.0867 Z-0.7937 F800
G1 X272.2969 Y178.0863 Z-0.7937 F800
G1 X271.3106 Y178.0555 Z-0.7937 F800
G1 X271.2975 Y178.0551 Z-0.7937 F800
G1 X270.2986 Y178.0224 Z-0.7937 F800
G1 X270.2849 Y178.0220 Z-0.7937 F800
G1 X269.2760 Y177.9875 Z-0.7937 F800
G1 X269.2616 Y177.9870 Z-0.7937 F800
G1 X268.2452 Y177.9507 Z-0.7937 F800
G1 X268.2300 Y177.9501 Z-0.7937 F800
G1 X267.2086 Y177.9119 Z-0.7937 F800
G1 X267.1926 Y177.9113 Z-0.7937 F800
G1 X266.1686 Y177.8712 Z-0.7937 F800
G1 X266.1517 Y177.8706 Z-0.7937 F800
G1 X265.1277 Y177.8286 Z-0.7937 F800
G1 X265.1096 Y177.8278 Z-0.7937 F800
G1 X264.0882 Y177.7840 Z-0.7937 F800
G1 X264.0689 Y177.7831 Z-0.7937 F800
G1 X263.0525 Y177.7373 Z-0.7937 F800
G1 X263.0317 Y177.7364 Z-0.7937 F800
G1 X262.0228 Y177.6886 Z-0.7937 F800
G1 X262.0005 Y177.6875 Z-0.7937 F800
G1 X261.0016 Y177.6378 Z-0.7937 F800
G1 X260.9775 Y177.6366 Z-0.7937 F800
G1 X259.9912 Y177.5849 Z-0.7937 F800
G1 X259.9650 Y177.5835 Z-0.7937 F800
G1 X258.9936 Y177.5299 Z-0.7937 F800
G1 X258.9651 Y177.5283 Z-0.7937 F800
G1 X258.0113 Y177.4726 Z-0.7937 F800
G1 X257.9800 Y177.4707 Z-0.7937 F800
G1 X257.0463 Y177.4131 Z-0.7937 F800
G1 X257.0119 Y177.4109 Z-0.7937 F800
G1 X256.1006 Y177.3512 Z-0.7937 F800
G1 X256.0626 Y177.3486 Z-0.7937 F800
G1 X255.1764 Y177.2868 Z-0.7937 F800
G1 X255.1340 Y177.2838 Z-0.7937 F800
G1 X254.2754 Y177.2200 Z-0.7937 F800
G1 X254.2278 Y177.2163 Z-0.7937 F800
G1 X253.4278 Y177.1527 Z-0.7937 F800
G0 Z5.000
G0 X254.7183 Y178.5264 Z5.0000
G1 Z-0.7937 F300
G1 X254.7253 Y178.7045 Z-0.7937 F800
G1 X254.7747 Y179.3948 Z-0.7937 F800
G1 X254.8472 Y180.0844 Z-0.7937 F800
G1 X254.9429 Y180.7669 Z-0.7937 F800
G1 X255.0615 Y181.4360 Z-0.7937 F800
G1 X255.2023 Y182.0857 Z-0.7937 F800
G1 X255.3639 Y182.7104 Z-0.7937 F800
G1 X255.5448 Y183.3048 Z-0.7937 F800
G1 X255.7427 Y183.8638 Z-0.7937 F800
G1 X255.9550 Y184.3835 Z-0.7937 F800
G1 X256.1786 Y184.8603 Z-0.7937 F800
G1 X256.4102 Y185.2922 Z-0.7937 F800
G1 X256.6467 Y185.6783 Z-0.7937 F800
G1 X256.8851 Y186.0192 Z-0.7937 F800
G1 X257.1235 Y186.3174 Z-0.7937 F800
G1 X257.3613 Y186.5768 Z-0.7937 F800
G1 X257.6000 Y186.8029 Z-0.7937 F800
G1 X257.8436 Y187.0020 Z-0.7937 F800
G1 X258.0992 Y187.1805 Z-0.7937 F800
G1 X258.3766 Y187.3441 Z-0.7937 F800
G1 X258.6880 Y187.4967 Z-0.7937 F800
G1 X259.0477 Y187.6396 Z-0.7937 F800
G1 X259.4703 Y187.7712 Z-0.7937 F800
G1 X259.9702 Y187.8870 Z-0.7937 F800
G1 X260.5605 Y187.9797 Z-0.7937 F800
G1 X261.2522 Y188.0398 Z-0.7937 F800
G1 X262.0540 Y188.0568 Z-0.7937 F800
G1 X262.9724 Y188.0193 Z-0.7937 F800
G1 X264.0440 Y187.9129 Z-0.7937 F800
G1 X265.1945 Y187.7422 Z-0.7937 F800
G1 X266.2797 Y187.5332 Z-0.7937 F800
G1 X267.2651 Y187.2967 Z-0.7937 F800
G1 X268.1554 Y187.0380 Z-0.7937 F800
G1 X268.9556 Y186.7619 Z-0.7937 F800
G1 X269.6716 Y186.4731 Z-0.7937 F800
G1 X270.3100 Y186.1755 Z-0.7937 F800
G1 X270.8776 Y185.8720 Z-0.7937 F800
G1 X271.3821 Y185.5651 Z-0.7937 F800
G1 X271.8309 Y185.2559 Z-0.7937 F800
G1 X272.2315 Y184.9447 Z-0.7937 F800
G1 X272.5909 Y184.6308 Z-0.7937 F800
G1 X272.9156 Y184.3126 Z-0.7937 F800
G1 X273.2111 Y183.9882 Z-0.7937 F800
G1 X273.4821 Y183.6550 Z-0.7937 F800
G1 X273.7322 Y183.3107 Z-0.7937 F800
G1 X273.9641 Y182.9529 Z-0.7937 F800
G1 X274.1796 Y182.5796 Z-0.7937 F800
G1 X274.3798 Y182.1894 Z-0.7937 F800
G1 X274.5651 Y181.7816 Z-0.7937 F800
G1 X274.7356 Y181.3557 Z-0.7937 F800
G1 X274.8912 Y180.9125 Z-0.7937 F800
G1 X275.0316 Y180.4527 Z-0.7937 F800
G1 X275.1565 Y179.9781 Z-0.7937 F800
G1 X275.2657 Y179.4905 Z-0.7937 F800
G1 X275.2748 Y179.4417 Z-0.7937 F800
G1 X275.1709 Y179.4390 Z-0.7937 F800
G1 X275.1578 Y179.4386 Z-0.7937 F800
G1 X274.2240 Y179.4132 Z-0.7937 F800
G1 X274.2106 Y179.4128 Z-0.7937 F800
G1 X273.2568 Y179.3856 Z-0.7937 F800
G1 X273.2429 Y179.3852 Z-0.7937 F800
G1 X272.2716 Y179.3561 Z-0.7937 F800
G1 X272.2573 Y179.3557 Z-0.7937 F800
G1 X271.2709 Y179.3249 Z-0.7937 F800
G1 X271.2560 Y179.3244 Z-0.7937 F800
G1 X270.2571 Y179.2917 Z-0.7937 F800
G1 X270.2415 Y179.2912 Z-0.7937 F800
G1 X269.2326 Y179.2567 Z-0.7937 F800
G1 X269.2162 Y179.2562 Z-0.7937 F800
G1 X268.1998 Y179.2198 Z-0.7937 F800
G1 X268.1826 Y179.2192 Z-0.7937 F800
G1 X267.1611 Y179.1810 Z-0.7937 F800
G1 X267.1429 Y179.1803 Z-0.7937 F800
G1 X266.1190 Y179.1403 Z-0.7937 F800
G1 X266.0997 Y179.1395 Z-0.7937 F800
G1 X265.0757 Y179.0975 Z-0.7937 F800
G1 X265.0551 Y179.0967 Z-0.7937 F800
G1 X264.0337 Y179.0528 Z-0.7937 F800
G1 X264.0117 Y179.0518 Z-0.7937 F800
G1 X262.9953 Y179.0060 Z-0.7937 F800
G1 X262.9717 Y179.0049 Z-0.7937 F800
G1 X261.9628 Y178.9572 Z-0.7937 F800
G1 X261.9374 Y178.9560 Z-0.7937 F800
G1 X260.9385 Y178.9063 Z-0.7937 F800
G1 X260.9111 Y178.9049 Z-0.7937 F800
G1 X259.9247 Y178.8532 Z-0.7937 F800
G1 X259.8949 Y178.8516 Z-0.7937 F800
G1 X258.9236 Y178.7980 Z-0.7937 F800
G1 X258.8911 Y178.7961 Z-0.7937 F800
G1 X257.9373 Y178.7405 Z-0.7937 F800
G1 X257.9018 Y178.7383 Z-0.7937 F800
G1 X256.9680 Y178.6807 Z-0.7937 F800
G1 X256.9288 Y178.6782 Z-0.7937 F800
G1 X256.0176 Y178.6185 Z-0.7937 F800
G1 X255.9743 Y178.6155 Z-0.7937 F800
G1 X255.0881 Y178.5538 Z-0.7937 F800
G1 X255.0399 Y178.5503 Z-0.7937 F800
G1 X254.7183 Y178.5264 Z-0.7937 F800
G0 Z5.000
G0 X256.1045 Y179.8969 Z5.0000
G1 Z-0.7937 F300
G1 X256.1079 Y179.9297 Z-0.7937 F800
G1 X256.1974 Y180.5678 Z-0.7937 F800
G1 X256.3078 Y181.1906 Z-0.7937 F800
G1 X256.4381 Y181.7921 Z-0.7937 F800
G1 X256.5867 Y182.3663 Z-0.7937 F800
G1 X256.7515 Y182.9078 Z-0.7937 F800
G1 X256.9298 Y183.4116 Z-0.7937 F800
G1 X257.1185 Y183.8734 Z-0.7937 F800
G1 X257.3139 Y184.2902 Z-0.7937 F800
G1 X257.5122 Y184.6599 Z-0.7937 F800
G1 X257.7095 Y184.9821 Z-0.7937 F800
G1 X257.9025 Y185.2580 Z-0.7937 F800
G1 X258.0886 Y185.4909 Z-0.7937 F800
G1 X258.2672 Y185.6856 Z-0.7937 F800
G1 X258.4395 Y185.8489 Z-0.7937 F800
G1 X258.6101 Y185.9882 Z-0.7937 F800
G1 X258.7864 Y186.1114 Z-0.7937 F800
G1 X258.9794 Y186.2252 Z-0.7937 F800
G1 X259.2026 Y186.3345 Z-0.7937 F800
G1 X259.4717 Y186.4415 Z-0.7937 F800
G1 X259.8029 Y186.5446 Z-0.7937 F800
G1 X260.2122 Y186.6395 Z-0.7937 F800
G1 X260.7141 Y186.7182 Z-0.7937 F800
G1 X261.3207 Y186.7710 Z-0.7937 F800
G1 X262.0416 Y186.7862 Z-0.7937 F800
G1 X262.8837 Y186.7518 Z-0.7937 F800
G1 X263.8879 Y186.6521 Z-0.7937 F800
G1 X264.9811 Y186.4900 Z-0.7937 F800
G1 X266.0112 Y186.2915 Z-0.7937 F800
G1 X266.9396 Y186.0688 Z-0.7937 F800
G1 X267.7709 Y185.8272 Z-0.7937 F800
G1 X268.5107 Y185.5720 Z-0.7937 F800
G1 X269.1654 Y185.3079 Z-0.7937 F800
G1 X269.7418 Y185.0391 Z-0.7937 F800
G1 X270.2478 Y184.7687 Z-0.7937 F800
G1 X270.6912 Y184.4988 Z-0.7937 F800
G1 X271.0805 Y184.2307 Z-0.7937 F800
G1 X271.4235 Y183.9642 Z-0.7937 F800
G1 X271.7280 Y183.6982 Z-0.7937 F800
G1 X272.0010 Y183.4307 Z-0.7937 F800
G1 X272.2483 Y183.1592 Z-0.7937 F800
G1 X272.4750 Y182.8805 Z-0.7937 F800
G1 X272.6849 Y182.5916 Z-0.7937 F800
G1 X272.8806 Y182.2896 Z-0.7937 F800
G1 X273.0640 Y181.9719 Z-0.7937 F800
G1 X273.2360 Y181.6367 Z-0.7937 F800
G1 X273.3969 Y181.2826 Z-0.7937 F800
G1 X273.5464 Y180.9091 Z-0.7937 F800
G1 X273.6315 Y180.6668 Z-0.7937 F800
G1 X273.2205 Y180.6550 Z-0.7937 F800
G1 X273.2050 Y180.6546 Z-0.7937 F800
G1 X272.2337 Y180.6256 Z-0.7937 F800
G1 X272.2176 Y180.6251 Z-0.7937 F800
G1 X271.2312 Y180.5942 Z-0.7937 F800
G1 X271.2145 Y180.5937 Z-0.7937 F800
G1 X270.2156 Y180.5611 Z-0.7937 F800
G1 X270.1981 Y180.5605 Z-0.7937 F800
G1 X269.1892 Y180.5260 Z-0.7937 F800
G1 X269.1709 Y180.5254 Z-0.7937 F800
G1 X268.1544 Y180.4890 Z-0.7937 F800
G1 X268.1351 Y180.4883 Z-0.7937 F800
G1 X267.1137 Y180.4501 Z-0.7937 F800
G1 X267.0933 Y180.4494 Z-0.7937 F800
G1 X266.0693 Y180.4093 Z-0.7937 F800
G1 X266.0477 Y180.4084 Z-0.7937 F800
G1 X265.0237 Y180.3665 Z-0.7937 F800
G1 X265.0006 Y180.3655 Z-0.7937 F800
G1 X263.9792 Y180.3216 Z-0.7937 F800
G1 X263.9546 Y180.3205 Z-0.7937 F800
G1 X262.9381 Y180.2747 Z-0.7937 F800
G1 X262.9117 Y180.2735 Z-0.7937 F800
G1 X261.9028 Y180.2258 Z-0.7937 F800
G1 X261.8743 Y180.2244 Z-0.7937 F800
G1 X260.8754 Y180.1747 Z-0.7937 F800
G1 X260.8447 Y180.1731 Z-0.7937 F800
G1 X259.8583 Y180.1215 Z-0.7937 F800
G1 X259.8249 Y180.1197 Z-0.7937 F800
G1 X258.8536 Y180.0660 Z-0.7937 F800
G1 X258.8171 Y180.0640 Z-0.7937 F800
G1 X257.8633 Y180.0083 Z-0.7937 F800
G1 X257.8235 Y180.0059 Z-0.7937 F800
G1 X256.8897 Y179.9482 Z-0.7937 F800
G1 X256.8458 Y179.9454 Z-0.7937 F800
G1 X256.1045 Y179.8969 Z-0.7937 F800
G0 Z5.000
G0 X257.6236 Y181.2660 Z5.0000
G1 Z-0.7937 F300
G1 X257.6740 Y181.4985 Z-0.7937 F800
G1 X257.8095 Y182.0222 Z-0.7937 F800
G1 X257.9582 Y182.5108 Z-0.7937 F800
G1 X258.1170 Y182.9593 Z-0.7937 F800
G1 X258.2820 Y183.3634 Z-0.7937 F800
G1 X258.4493 Y183.7201 Z-0.7937 F800
G1 X258.6142 Y184.0276 Z-0.7937 F800
G1 X258.7724 Y184.2859 Z-0.7937 F800
G1 X258.9199 Y184.4968 Z-0.7937 F800
G1 X259.0538 Y184.6643 Z-0.7937 F800
G1 X259.1731 Y184.7944 Z-0.7937 F800
G1 X259.2791 Y184.8949 Z-0.7937 F800
G1 X259.3765 Y184.9745 Z-0.7937 F800
G1 X259.4736 Y185.0423 Z-0.7937 F800
G1 X259.5822 Y185.1063 Z-0.7937 F800
G1 X259.7172 Y185.1724 Z-0.7937 F800
G1 X259.8956 Y185.2433 Z-0.7937 F800
G1 X260.1355 Y185.3181 Z-0.7937 F800
G1 X260.4543 Y185.3919 Z-0.7937 F800
G1 X260.8677 Y185.4568 Z-0.7937 F800
G1 X261.3892 Y185.5021 Z-0.7937 F800
G1 X262.0291 Y185.5157 Z-0.7937 F800
G1 X262.7950 Y185.4844 Z-0.7937 F800
G1 X263.7319 Y185.3914 Z-0.7937 F800
G1 X264.7678 Y185.2377 Z-0.7937 F800
G1 X265.7428 Y185.0499 Z-0.7937 F800
G1 X266.6140 Y184.8408 Z-0.7937 F800
G1 X267.3864 Y184.6164 Z-0.7937 F800
G1 X268.0658 Y184.3820 Z-0.7937 F800
G1 X268.6591 Y184.1427 Z-0.7937 F800
G1 X269.1737 Y183.9027 Z-0.7937 F800
G1 X269.6179 Y183.6653 Z-0.7937 F800
G1 X270.0004 Y183.4326 Z-0.7937 F800
G1 X270.3300 Y183.2055 Z-0.7937 F800
G1 X270.6155 Y182.9837 Z-0.7937 F800
G1 X270.8652 Y182.7656 Z-0.7937 F800
G1 X271.0863 Y182.5489 Z-0.7937 F800
G1 X271.2855 Y182.3302 Z-0.7937 F800
G1 X271.4679 Y182.1060 Z-0.7937 F800
G1 X271.6340 Y181.8774 Z-0.7937 F800
G1 X271.1916 Y181.8636 Z-0.7937 F800
G1 X271.1730 Y181.8630 Z-0.7937 F800
G1 X270.1741 Y181.8304 Z-0.7937 F800
G1 X270.1547 Y181.8297 Z-0.7937 F800
G1 X269.1458 Y181.7953 Z-0.7937 F800
G1 X269.1255 Y181.7945 Z-0.7937 F800
G1 X268.1091 Y181.7582 Z-0.7937 F800
G1 X268.0877 Y181.7574 Z-0.7937 F800
G1 X267.0662 Y181.7193 Z-0.7937 F800
G1 X267.0436 Y181.7184 Z-0.7937 F800
G1 X266.0197 Y181.6783 Z-0.7937 F800
G1 X265.9956 Y181.6774 Z-0.7937 F800
G1 X264.9717 Y181.6354 Z-0.7937 F800
G1 X264.9461 Y181.6343 Z-0.7937 F800
G1 X263.9247 Y181.5905 Z-0.7937 F800
G1 X263.8974 Y181.5892 Z-0.7937 F800
G1 X262.8810 Y181.5435 Z-0.7937 F800
G1 X262.8517 Y181.5421 Z-0.7937 F800
G1 X261.8428 Y181.4944 Z-0.7937 F800
G1 X261.8112 Y181.4928 Z-0.7937 F800
G1 X260.8123 Y181.4431 Z-0.7937 F800
G1 X260.7782 Y181.4414 Z-0.7937 F800
G1 X259.7919 Y181.3897 Z-0.7937 F800
G1 X259.7548 Y181.3877 Z-0.7937 F800
G1 X258.7835 Y181.3341 Z-0.7937 F800
G1 X258.7432 Y181.3318 Z-0.7937 F800
G1 X257.7894 Y181.2761 Z-0.7937 F800
G1 X257.7452 Y181.2735 Z-0.7937 F800
G1 X257.6236 Y181.2660 Z-0.7937 F800
G0 Z5.000
G0 X259.3575 Y182.6377 Z5.0000
G1 Z-0.7937 F300
G1 X259.4456 Y182.8534 Z-0.7937 F800
G1 X259.5846 Y183.1500 Z-0.7937 F800
G1 X259.7162 Y183.3953 Z-0.7937 F800
G1 X259.8353 Y183.5897 Z-0.7937 F800
G1 X259.9373 Y183.7356 Z-0.7937 F800
G1 X260.0190 Y183.8378 Z-0.7937 F800
G1 X260.0790 Y183.9032 Z-0.7937 F800
G1 X260.1187 Y183.9408 Z-0.7937 F800
G1 X260.1430 Y183.9607 Z-0.7937 F800
G1 X260.1608 Y183.9732 Z-0.7937 F800
G1 X260.1850 Y183.9874 Z-0.7937 F800
G1 X260.2317 Y184.0103 Z-0.7937 F800
G1 X260.3196 Y184.0452 Z-0.7937 F800
G1 X260.4681 Y184.0915 Z-0.7937 F800
G1 X260.6963 Y184.1443 Z-0.7937 F800
G1 X261.0214 Y184.1953 Z-0.7937 F800
G1 X261.4577 Y184.2333 Z-0.7937 F800
G1 X262.0166 Y184.2451 Z-0.7937 F800
G1 X262.7062 Y184.2170 Z-0.7937 F800
G1 X263.5759 Y184.1306 Z-0.7937 F800
G1 X264.5544 Y183.9855 Z-0.7937 F800
G1 X265.4744 Y183.8082 Z-0.7937 F800
G1 X266.2885 Y183.6129 Z-0.7937 F800
G1 X267.0019 Y183.4056 Z-0.7937 F800
G1 X267.6210 Y183.1920 Z-0.7937 F800
G1 X268.0320 Y183.0262 Z-0.7937 F800
G1 X267.0188 Y182.9884 Z-0.7937 F800
G1 X266.9939 Y182.9874 Z-0.7937 F800
G1 X265.9700 Y182.9473 Z-0.7937 F800
G1 X265.9436 Y182.9463 Z-0.7937 F800
G1 X264.9197 Y182.9043 Z-0.7937 F800
G1 X264.8916 Y182.9032 Z-0.7937 F800
G1 X263.8702 Y182.8593 Z-0.7937 F800
G1 X263.8402 Y182.8580 Z-0.7937 F800
G1 X262.8238 Y182.8122 Z-0.7937 F800
G1 X262.7916 Y182.8107 Z-0.7937 F800
G1 X261.7827 Y182.7629 Z-0.7937 F800
G1 X261.7481 Y182.7613 Z-0.7937 F800
G1 X260.7492 Y182.7116 Z-0.7937 F800
G1 X260.7118 Y182.7097 Z-0.7937 F800
G1 X259.7254 Y182.6580 Z-0.7937 F800
G1 X259.6848 Y182.6558 Z-0.7937 F800
G1 X259.3575 Y182.6377 Z-0.7937 F800
G0 Z5.000
G0 Z5.000
M5
M2
