( Scrappy - mouth round-over pass (2mm outside, 2.5mm deep) )
( Origin: true bottom-left corner of the 18x12.5in stock )
( Zero the machine at that corner before running this file )
G21 ( mm )
G90 ( absolute )
M3 S12000 ( ignored if spindle speed is set manually )
G0 Z5.000
( Round-over profile, 2.00mm outside the mouth SVG path, single pass to Z=-2.500mm )
G0 X98.9909 Y56.3050 Z5.0000
G1 Z-2.5000 F300
G1 X99.0626 Y56.3295 Z-2.5000 F800
G1 X99.2550 Y56.4334 Z-2.5000 F800
G1 X99.5365 Y56.6351 Z-2.5000 F800
G1 X99.8832 Y56.9391 Z-2.5000 F800
G1 X100.2776 Y57.3421 Z-2.5000 F800
G1 X100.7073 Y57.8380 Z-2.5000 F800
G1 X101.1639 Y58.4205 Z-2.5000 F800
G1 X101.6417 Y59.0830 Z-2.5000 F800
G1 X102.1361 Y59.8197 Z-2.5000 F800
G1 X102.6440 Y60.6249 Z-2.5000 F800
G1 X103.1627 Y61.4934 Z-2.5000 F800
G1 X103.6901 Y62.4201 Z-2.5000 F800
G1 X104.2243 Y63.4000 Z-2.5000 F800
G1 X104.7635 Y64.4287 Z-2.5000 F800
G1 X105.3064 Y65.5014 Z-2.5000 F800
G1 X105.8514 Y66.6137 Z-2.5000 F800
G1 X106.3972 Y67.7612 Z-2.5000 F800
G1 X106.9426 Y68.9396 Z-2.5000 F800
G1 X107.4863 Y70.1445 Z-2.5000 F800
G1 X108.0272 Y71.3716 Z-2.5000 F800
G1 X108.5639 Y72.6169 Z-2.5000 F800
G1 X109.0955 Y73.8759 Z-2.5000 F800
G1 X109.6207 Y75.1446 Z-2.5000 F800
G1 X110.1384 Y76.4188 Z-2.5000 F800
G1 X110.6474 Y77.6943 Z-2.5000 F800
G1 X111.1467 Y78.9670 Z-2.5000 F800
G1 X111.6352 Y80.2326 Z-2.5000 F800
G1 X112.1118 Y81.4871 Z-2.5000 F800
G1 X112.5753 Y82.7264 Z-2.5000 F800
G1 X113.0246 Y83.9462 Z-2.5000 F800
G1 X113.4587 Y85.1425 Z-2.5000 F800
G1 X113.8765 Y86.3111 Z-2.5000 F800
G1 X114.2769 Y87.4479 Z-2.5000 F800
G1 X114.6587 Y88.5487 Z-2.5000 F800
G1 X115.0209 Y89.6092 Z-2.5000 F800
G1 X115.3623 Y90.6255 Z-2.5000 F800
G1 X115.6819 Y91.5931 Z-2.5000 F800
G1 X115.9785 Y92.5078 Z-2.5000 F800
G1 X116.2510 Y93.3652 Z-2.5000 F800
G1 X116.4981 Y94.1609 Z-2.5000 F800
G1 X116.7188 Y94.8902 Z-2.5000 F800
G1 X116.9116 Y95.5479 Z-2.5000 F800
G1 X117.0751 Y96.1284 Z-2.5000 F800
G1 X117.2078 Y96.6248 Z-2.5000 F800
G1 X117.3075 Y97.0272 Z-2.5000 F800
G1 X117.3711 Y97.3178 Z-2.5000 F800
G1 X117.4103 Y97.5458 Z-2.5000 F800
G1 X117.4571 Y97.7523 Z-2.5000 F800
G1 X117.5255 Y97.9527 Z-2.5000 F800
G1 X117.6146 Y98.1447 Z-2.5000 F800
G1 X117.7236 Y98.3263 Z-2.5000 F800
G1 X117.8512 Y98.4953 Z-2.5000 F800
G1 X117.9959 Y98.6498 Z-2.5000 F800
G1 X118.2280 Y98.8728 Z-2.5000 F800
G1 X118.3926 Y99.0145 Z-2.5000 F800
G1 X118.5716 Y99.1376 Z-2.5000 F800
G1 X118.7630 Y99.2405 Z-2.5000 F800
G1 X118.9643 Y99.3221 Z-2.5000 F800
G1 X119.5886 Y99.5363 Z-2.5000 F800
G1 X119.8346 Y99.6036 Z-2.5000 F800
G1 X120.8342 Y99.8093 Z-2.5000 F800
G1 X120.9497 Y99.8296 Z-2.5000 F800
G1 X122.3075 Y100.0269 Z-2.5000 F800
G1 X122.3739 Y100.0354 Z-2.5000 F800
G1 X124.0732 Y100.2245 Z-2.5000 F800
G1 X124.1162 Y100.2289 Z-2.5000 F800
G1 X126.1399 Y100.4099 Z-2.5000 F800
G1 X126.1699 Y100.4124 Z-2.5000 F800
G1 X128.5011 Y100.5856 Z-2.5000 F800
G1 X128.5233 Y100.5871 Z-2.5000 F800
G1 X131.1451 Y100.7526 Z-2.5000 F800
G1 X131.1621 Y100.7536 Z-2.5000 F800
G1 X134.0575 Y100.9115 Z-2.5000 F800
G1 X134.0710 Y100.9122 Z-2.5000 F800
G1 X137.2231 Y101.0626 Z-2.5000 F800
G1 X137.2341 Y101.0631 Z-2.5000 F800
G1 X140.6258 Y101.2063 Z-2.5000 F800
G1 X140.6349 Y101.2067 Z-2.5000 F800
G1 X144.2494 Y101.3428 Z-2.5000 F800
G1 X144.2571 Y101.3430 Z-2.5000 F800
G1 X148.0775 Y101.4722 Z-2.5000 F800
G1 X148.0841 Y101.4724 Z-2.5000 F800
G1 X152.0933 Y101.5948 Z-2.5000 F800
G1 X152.0990 Y101.5949 Z-2.5000 F800
G1 X156.2802 Y101.7107 Z-2.5000 F800
G1 X156.2852 Y101.7108 Z-2.5000 F800
G1 X160.6214 Y101.8201 Z-2.5000 F800
G1 X160.6258 Y101.8202 Z-2.5000 F800
G1 X165.1001 Y101.9231 Z-2.5000 F800
G1 X165.1040 Y101.9232 Z-2.5000 F800
G1 X169.6994 Y102.0200 Z-2.5000 F800
G1 X169.7029 Y102.0201 Z-2.5000 F800
G1 X174.4025 Y102.1108 Z-2.5000 F800
G1 X174.4056 Y102.1109 Z-2.5000 F800
G1 X179.1925 Y102.1959 Z-2.5000 F800
G1 X179.1953 Y102.1959 Z-2.5000 F800
G1 X184.0525 Y102.2752 Z-2.5000 F800
G1 X184.0551 Y102.2752 Z-2.5000 F800
G1 X188.9656 Y102.3490 Z-2.5000 F800
G1 X188.9680 Y102.3490 Z-2.5000 F800
G1 X193.9149 Y102.4174 Z-2.5000 F800
G1 X193.9171 Y102.4174 Z-2.5000 F800
G1 X198.8835 Y102.4806 Z-2.5000 F800
G1 X198.8855 Y102.4806 Z-2.5000 F800
G1 X203.8563 Y102.5387 Z-2.5000 F800
G1 X208.8126 Y102.5920 Z-2.5000 F800
G1 X213.7374 Y102.6405 Z-2.5000 F800
G1 X218.6139 Y102.6844 Z-2.5000 F800
G1 X223.4250 Y102.7239 Z-2.5000 F800
G1 X228.1538 Y102.7591 Z-2.5000 F800
G1 X232.7835 Y102.7903 Z-2.5000 F800
G1 X237.2970 Y102.8175 Z-2.5000 F800
G1 X241.6775 Y102.8408 Z-2.5000 F800
G1 X245.9081 Y102.8606 Z-2.5000 F800
G1 X249.9717 Y102.8769 Z-2.5000 F800
G1 X253.8515 Y102.8899 Z-2.5000 F800
G1 X257.5306 Y102.8997 Z-2.5000 F800
G1 X260.9920 Y102.9065 Z-2.5000 F800
G1 X264.2189 Y102.9105 Z-2.5000 F800
G1 X267.1943 Y102.9118 Z-2.5000 F800
G1 X269.8994 Y102.9105 Z-2.5000 F800
G1 X269.9014 Y102.9105 Z-2.5000 F800
G1 X272.3210 Y102.9069 Z-2.5000 F800
G1 X272.3235 Y102.9069 Z-2.5000 F800
G1 X274.4407 Y102.9011 Z-2.5000 F800
G1 X274.4439 Y102.9011 Z-2.5000 F800
G1 X276.2417 Y102.8932 Z-2.5000 F800
G1 X276.2463 Y102.8932 Z-2.5000 F800
G1 X277.7077 Y102.8834 Z-2.5000 F800
G1 X277.7151 Y102.8834 Z-2.5000 F800
G1 X278.8232 Y102.8719 Z-2.5000 F800
G1 X278.8379 Y102.8717 Z-2.5000 F800
G1 X279.5759 Y102.8586 Z-2.5000 F800
G1 X279.6230 Y102.8572 Z-2.5000 F800
G1 X279.9738 Y102.8427 Z-2.5000 F800
G1 X280.1923 Y102.8216 Z-2.5000 F800
G1 X280.4072 Y102.7767 Z-2.5000 F800
G1 X280.6159 Y102.7085 Z-2.5000 F800
G1 X280.7846 Y102.6429 Z-2.5000 F800
G1 X280.9727 Y102.5584 Z-2.5000 F800
G1 X281.1511 Y102.4549 Z-2.5000 F800
G1 X281.3179 Y102.3337 Z-2.5000 F800
G1 X281.5201 Y102.1701 Z-2.5000 F800
G1 X281.6342 Y102.0703 Z-2.5000 F800
G1 X281.7404 Y101.9623 Z-2.5000 F800
G1 X281.9749 Y101.7049 Z-2.5000 F800
G1 X282.0845 Y101.5738 Z-2.5000 F800
G1 X282.3501 Y101.2270 Z-2.5000 F800
G1 X282.4131 Y101.1400 Z-2.5000 F800
G1 X282.7085 Y100.7080 Z-2.5000 F800
G1 X282.7484 Y100.6472 Z-2.5000 F800
G1 X283.0724 Y100.1343 Z-2.5000 F800
G1 X283.0995 Y100.0902 Z-2.5000 F800
G1 X283.4508 Y99.5006 Z-2.5000 F800
G1 X283.4701 Y99.4676 Z-2.5000 F800
G1 X283.8477 Y98.8057 Z-2.5000 F800
G1 X283.8618 Y98.7804 Z-2.5000 F800
G1 X284.2643 Y98.0504 Z-2.5000 F800
G1 X284.2749 Y98.0308 Z-2.5000 F800
G1 X284.7011 Y97.2370 Z-2.5000 F800
G1 X284.7093 Y97.2218 Z-2.5000 F800
G1 X285.1580 Y96.3684 Z-2.5000 F800
G1 X285.1642 Y96.3565 Z-2.5000 F800
G1 X285.6341 Y95.4479 Z-2.5000 F800
G1 X285.6389 Y95.4386 Z-2.5000 F800
G1 X286.1289 Y94.4790 Z-2.5000 F800
G1 X286.1325 Y94.4719 Z-2.5000 F800
G1 X286.6413 Y93.4656 Z-2.5000 F800
G1 X286.6440 Y93.4604 Z-2.5000 F800
G1 X287.1704 Y92.4117 Z-2.5000 F800
G1 X287.1722 Y92.4080 Z-2.5000 F800
G1 X287.7151 Y91.3211 Z-2.5000 F800
G1 X287.7162 Y91.3189 Z-2.5000 F800
G1 X288.2747 Y90.1971 Z-2.5000 F800
G1 X288.8465 Y89.0467 Z-2.5000 F800
G1 X289.4308 Y87.8717 Z-2.5000 F800
G1 X290.0260 Y86.6766 Z-2.5000 F800
G1 X290.6310 Y85.4658 Z-2.5000 F800
G1 X291.2445 Y84.2435 Z-2.5000 F800
G1 X291.8653 Y83.0139 Z-2.5000 F800
G1 X292.4921 Y81.7814 Z-2.5000 F800
G1 X293.1237 Y80.5503 Z-2.5000 F800
G1 X293.7589 Y79.3249 Z-2.5000 F800
G1 X294.3963 Y78.1096 Z-2.5000 F800
G1 X295.0346 Y76.9088 Z-2.5000 F800
G1 X295.6726 Y75.7267 Z-2.5000 F800
G1 X296.3088 Y74.5680 Z-2.5000 F800
G1 X296.9419 Y73.4370 Z-2.5000 F800
G1 X297.5705 Y72.3382 Z-2.5000 F800
G1 X298.1931 Y71.2763 Z-2.5000 F800
G1 X298.8080 Y70.2559 Z-2.5000 F800
G1 X299.4138 Y69.2816 Z-2.5000 F800
G1 X300.0085 Y68.3583 Z-2.5000 F800
G1 X300.5903 Y67.4910 Z-2.5000 F800
G1 X301.1567 Y66.6849 Z-2.5000 F800
G1 X301.7052 Y65.9452 Z-2.5000 F800
G1 X302.2323 Y65.2778 Z-2.5000 F800
G1 X302.7340 Y64.6886 Z-2.5000 F800
G1 X303.2043 Y64.1839 Z-2.5000 F800
G1 X303.6353 Y63.7706 Z-2.5000 F800
G1 X304.0152 Y63.4547 Z-2.5000 F800
G1 X304.3267 Y63.2405 Z-2.5000 F800
G1 X304.5457 Y63.1258 Z-2.5000 F800
G1 X304.6386 Y63.0945 Z-2.5000 F800
G1 X304.6863 Y63.1091 Z-2.5000 F800
G1 X304.8091 Y63.1710 Z-2.5000 F800
G1 X304.9958 Y63.3009 Z-2.5000 F800
G1 X305.2336 Y63.5107 Z-2.5000 F800
G1 X305.5084 Y63.8032 Z-2.5000 F800
G1 X305.8090 Y64.1758 Z-2.5000 F800
G1 X306.1269 Y64.6240 Z-2.5000 F800
G1 X306.4561 Y65.1424 Z-2.5000 F800
G1 X306.7925 Y65.7256 Z-2.5000 F800
G1 X307.1331 Y66.3682 Z-2.5000 F800
G1 X307.4757 Y67.0653 Z-2.5000 F800
G1 X307.8190 Y67.8122 Z-2.5000 F800
G1 X308.1617 Y68.6043 Z-2.5000 F800
G1 X308.5029 Y69.4372 Z-2.5000 F800
G1 X308.8421 Y70.3068 Z-2.5000 F800
G1 X309.1787 Y71.2090 Z-2.5000 F800
G1 X309.5123 Y72.1398 Z-2.5000 F800
G1 X309.8426 Y73.0954 Z-2.5000 F800
G1 X310.1693 Y74.0720 Z-2.5000 F800
G1 X310.4921 Y75.0657 Z-2.5000 F800
G1 X310.8108 Y76.0730 Z-2.5000 F800
G1 X311.1254 Y77.0901 Z-2.5000 F800
G1 X311.4355 Y78.1134 Z-2.5000 F800
G1 X311.7412 Y79.1393 Z-2.5000 F800
G1 X312.0422 Y80.1641 Z-2.5000 F800
G1 X312.3385 Y81.1845 Z-2.5000 F800
G1 X312.6299 Y82.1968 Z-2.5000 F800
G1 X312.9165 Y83.1976 Z-2.5000 F800
G1 X313.1981 Y84.1836 Z-2.5000 F800
G1 X313.4742 Y85.1496 Z-2.5000 F800
G1 X313.4749 Y85.1518 Z-2.5000 F800
G1 X313.7454 Y86.0942 Z-2.5000 F800
G1 X313.7466 Y86.0983 Z-2.5000 F800
G1 X314.0115 Y87.0136 Z-2.5000 F800
G1 X314.0133 Y87.0198 Z-2.5000 F800
G1 X314.2724 Y87.9044 Z-2.5000 F800
G1 X314.2749 Y87.9131 Z-2.5000 F800
G1 X314.5282 Y88.7635 Z-2.5000 F800
G1 X314.5316 Y88.7750 Z-2.5000 F800
G1 X314.7790 Y89.5877 Z-2.5000 F800
G1 X314.7835 Y89.6025 Z-2.5000 F800
G1 X315.0249 Y90.3741 Z-2.5000 F800
G1 X315.0309 Y90.3929 Z-2.5000 F800
G1 X315.2661 Y91.1198 Z-2.5000 F800
G1 X315.2740 Y91.1436 Z-2.5000 F800
G1 X315.5031 Y91.8222 Z-2.5000 F800
G1 X315.5136 Y91.8524 Z-2.5000 F800
G1 X315.7365 Y92.4793 Z-2.5000 F800
G1 X315.7507 Y92.5179 Z-2.5000 F800
G1 X315.9672 Y93.0895 Z-2.5000 F800
G1 X315.9869 Y93.1393 Z-2.5000 F800
G1 X316.1970 Y93.6522 Z-2.5000 F800
G1 X316.2252 Y93.7177 Z-2.5000 F800
G1 X316.4289 Y94.1683 Z-2.5000 F800
G1 X316.4714 Y94.2564 Z-2.5000 F800
G1 X316.6685 Y94.6412 Z-2.5000 F800
G1 X316.7364 Y94.7631 Z-2.5000 F800
G1 X316.9269 Y95.0786 Z-2.5000 F800
G1 X317.0446 Y95.2522 Z-2.5000 F800
G1 X317.2285 Y95.4949 Z-2.5000 F800
G1 X317.3355 Y95.6246 Z-2.5000 F800
G1 X317.4531 Y95.7448 Z-2.5000 F800
G1 X317.6301 Y95.9112 Z-2.5000 F800
G1 X317.7739 Y96.0341 Z-2.5000 F800
G1 X317.9287 Y96.1428 Z-2.5000 F800
G1 X318.0931 Y96.2365 Z-2.5000 F800
G1 X318.2633 Y96.3230 Z-2.5000 F800
G1 X318.4819 Y96.4183 Z-2.5000 F800
G1 X318.7103 Y96.4869 Z-2.5000 F800
G1 X318.9371 Y96.5404 Z-2.5000 F800
G1 X319.0014 Y96.5545 Z-2.5000 F800
G1 X319.3448 Y96.6237 Z-2.5000 F800
G1 X319.3760 Y96.6298 Z-2.5000 F800
G1 X319.8308 Y96.7140 Z-2.5000 F800
G1 X319.8492 Y96.7173 Z-2.5000 F800
G1 X320.4102 Y96.8158 Z-2.5000 F800
G1 X320.4224 Y96.8178 Z-2.5000 F800
G1 X321.0844 Y96.9298 Z-2.5000 F800
G1 X321.0930 Y96.9313 Z-2.5000 F800
G1 X321.8507 Y97.0560 Z-2.5000 F800
G1 X321.8571 Y97.0571 Z-2.5000 F800
G1 X322.7054 Y97.1939 Z-2.5000 F800
G1 X322.7103 Y97.1947 Z-2.5000 F800
G1 X323.6439 Y97.3430 Z-2.5000 F800
G1 X323.6479 Y97.3436 Z-2.5000 F800
G1 X324.6615 Y97.5024 Z-2.5000 F800
G1 X324.6648 Y97.5029 Z-2.5000 F800
G1 X325.7533 Y97.6717 Z-2.5000 F800
G1 X325.7560 Y97.6721 Z-2.5000 F800
G1 X326.9141 Y97.8500 Z-2.5000 F800
G1 X326.9164 Y97.8504 Z-2.5000 F800
G1 X328.1409 Y98.0370 Z-2.5000 F800
G1 X329.4243 Y98.2314 Z-2.5000 F800
G1 X330.7615 Y98.4327 Z-2.5000 F800
G1 X332.1473 Y98.6404 Z-2.5000 F800
G1 X333.5765 Y98.8535 Z-2.5000 F800
G1 X335.0438 Y99.0715 Z-2.5000 F800
G1 X336.5442 Y99.2936 Z-2.5000 F800
G1 X338.0723 Y99.5190 Z-2.5000 F800
G1 X339.6229 Y99.7471 Z-2.5000 F800
G1 X341.1909 Y99.9772 Z-2.5000 F800
G1 X342.7711 Y100.2084 Z-2.5000 F800
G1 X344.3582 Y100.4402 Z-2.5000 F800
G1 X345.9469 Y100.6717 Z-2.5000 F800
G1 X347.5322 Y100.9023 Z-2.5000 F800
G1 X349.1087 Y101.1312 Z-2.5000 F800
G1 X350.6713 Y101.3577 Z-2.5000 F800
G1 X352.2147 Y101.5811 Z-2.5000 F800
G1 X353.7337 Y101.8006 Z-2.5000 F800
G1 X355.2232 Y102.0156 Z-2.5000 F800
G1 X356.6777 Y102.2253 Z-2.5000 F800
G1 X358.0923 Y102.4289 Z-2.5000 F800
G1 X359.4616 Y102.6258 Z-2.5000 F800
G1 X360.7803 Y102.8153 Z-2.5000 F800
G1 X362.0434 Y102.9966 Z-2.5000 F800
G1 X363.2455 Y103.1689 Z-2.5000 F800
G1 X364.3815 Y103.3317 Z-2.5000 F800
G1 X365.4461 Y103.4841 Z-2.5000 F800
G1 X366.4342 Y103.6254 Z-2.5000 F800
G1 X367.3403 Y103.7549 Z-2.5000 F800
G1 X368.1595 Y103.8719 Z-2.5000 F800
G1 X368.8864 Y103.9756 Z-2.5000 F800
G1 X369.5158 Y104.0654 Z-2.5000 F800
G1 X370.0425 Y104.1404 Z-2.5000 F800
G1 X370.4613 Y104.2001 Z-2.5000 F800
G1 X370.7669 Y104.2436 Z-2.5000 F800
G1 X370.9542 Y104.2702 Z-2.5000 F800
G1 X371.0177 Y104.2793 Z-2.5000 F800
G1 X371.2168 Y104.2975 Z-2.5000 F800
G1 X371.4167 Y104.2957 Z-2.5000 F800
G1 X371.6154 Y104.2740 Z-2.5000 F800
G1 X371.8110 Y104.2326 Z-2.5000 F800
G1 X372.0014 Y104.1719 Z-2.5000 F800
G1 X372.1848 Y104.0925 Z-2.5000 F800
G1 X372.3594 Y103.9951 Z-2.5000 F800
G1 X372.5234 Y103.8808 Z-2.5000 F800
G1 X372.6752 Y103.7507 Z-2.5000 F800
G1 X372.8132 Y103.6061 Z-2.5000 F800
G1 X372.9361 Y103.4485 Z-2.5000 F800
G1 X373.0427 Y103.2793 Z-2.5000 F800
G1 X373.1318 Y103.1004 Z-2.5000 F800
G1 X373.2026 Y102.9135 Z-2.5000 F800
G1 X373.2544 Y102.7204 Z-2.5000 F800
G1 X373.2867 Y102.5231 Z-2.5000 F800
G1 X373.2992 Y102.3236 Z-2.5000 F800
G1 X373.2916 Y102.1239 Z-2.5000 F800
G1 X373.2642 Y101.9259 Z-2.5000 F800
G1 X373.2171 Y101.7316 Z-2.5000 F800
G1 X373.1508 Y101.5430 Z-2.5000 F800
G1 X373.0661 Y101.3619 Z-2.5000 F800
G1 X372.9637 Y101.1903 Z-2.5000 F800
G1 X372.9074 Y101.1142 Z-2.5000 F800
G1 X372.8466 Y100.9820 Z-2.5000 F800
G1 X372.6133 Y100.3995 Z-2.5000 F800
G1 X372.2803 Y99.5335 Z-2.5000 F800
G1 X371.8563 Y98.4281 Z-2.5000 F800
G1 X371.8524 Y98.4178 Z-2.5000 F800
G1 X371.3371 Y97.0962 Z-2.5000 F800
G1 X371.3304 Y97.0791 Z-2.5000 F800
G1 X370.7193 Y95.5531 Z-2.5000 F800
G1 X370.7104 Y95.5315 Z-2.5000 F800
G1 X369.9985 Y93.8122 Z-2.5000 F800
G1 X369.9880 Y93.7873 Z-2.5000 F800
G1 X369.1703 Y91.8859 Z-2.5000 F800
G1 X369.1582 Y91.8584 Z-2.5000 F800
G1 X368.2298 Y89.7860 Z-2.5000 F800
G1 X368.2162 Y89.7564 Z-2.5000 F800
G1 X367.1722 Y87.5239 Z-2.5000 F800
G1 X367.1572 Y87.4925 Z-2.5000 F800
G1 X365.9926 Y85.1112 Z-2.5000 F800
G1 X365.9761 Y85.0782 Z-2.5000 F800
G1 X364.6860 Y82.5591 Z-2.5000 F800
G1 X364.6679 Y82.5247 Z-2.5000 F800
G1 X363.2474 Y79.8788 Z-2.5000 F800
G1 X363.2278 Y79.8431 Z-2.5000 F800
G1 X361.6719 Y77.0816 Z-2.5000 F800
G1 X361.6506 Y77.0447 Z-2.5000 F800
G1 X359.9545 Y74.1787 Z-2.5000 F800
G1 X359.9314 Y74.1408 Z-2.5000 F800
G1 X358.0900 Y71.1813 Z-2.5000 F800
G1 X358.0652 Y71.1423 Z-2.5000 F800
G1 X356.0736 Y68.1005 Z-2.5000 F800
G1 X356.0469 Y68.0607 Z-2.5000 F800
G1 X353.9002 Y64.9476 Z-2.5000 F800
G1 X353.8715 Y64.9070 Z-2.5000 F800
G1 X351.5648 Y61.7337 Z-2.5000 F800
G1 X351.5340 Y61.6924 Z-2.5000 F800
G1 X349.0624 Y58.4701 Z-2.5000 F800
G1 X349.0295 Y58.4283 Z-2.5000 F800
G1 X346.3880 Y55.1679 Z-2.5000 F800
G1 X346.3528 Y55.1257 Z-2.5000 F800
G1 X343.5365 Y51.8384 Z-2.5000 F800
G1 X343.4990 Y51.7959 Z-2.5000 F800
G1 X340.5030 Y48.4928 Z-2.5000 F800
G1 X340.4632 Y48.4502 Z-2.5000 F800
G1 X337.2824 Y45.1424 Z-2.5000 F800
G1 X337.2403 Y45.0999 Z-2.5000 F800
G1 X333.8699 Y41.7984 Z-2.5000 F800
G1 X333.8255 Y41.7562 Z-2.5000 F800
G1 X330.2605 Y38.4721 Z-2.5000 F800
G1 X330.2137 Y38.4303 Z-2.5000 F800
G1 X326.4493 Y35.1748 Z-2.5000 F800
G1 X326.4002 Y35.1337 Z-2.5000 F800
G1 X322.4313 Y31.9178 Z-2.5000 F800
G1 X322.3799 Y31.8775 Z-2.5000 F800
G1 X318.2017 Y28.7123 Z-2.5000 F800
G1 X318.1481 Y28.6730 Z-2.5000 F800
G1 X313.7556 Y25.5696 Z-2.5000 F800
G1 X313.6999 Y25.5317 Z-2.5000 F800
G1 X309.0882 Y22.5012 Z-2.5000 F800
G1 X309.0305 Y22.4647 Z-2.5000 F800
G1 X304.1946 Y19.5181 Z-2.5000 F800
G1 X304.1351 Y19.4833 Z-2.5000 F800
G1 X299.0702 Y16.6318 Z-2.5000 F800
G1 X299.0091 Y16.5988 Z-2.5000 F800
G1 X293.7101 Y13.8535 Z-2.5000 F800
G1 X293.6475 Y13.8224 Z-2.5000 F800
G1 X288.1096 Y11.1944 Z-2.5000 F800
G1 X288.0459 Y11.1655 Z-2.5000 F800
G1 X282.2641 Y8.6657 Z-2.5000 F800
G1 X282.1993 Y8.6391 Z-2.5000 F800
G1 X276.1687 Y6.2788 Z-2.5000 F800
G1 X276.1032 Y6.2545 Z-2.5000 F800
G1 X269.8189 Y4.0447 Z-2.5000 F800
G1 X269.7529 Y4.0228 Z-2.5000 F800
G1 X263.2099 Y1.9746 Z-2.5000 F800
G1 X263.1437 Y1.9551 Z-2.5000 F800
G1 X256.3370 Y0.0796 Z-2.5000 F800
G1 X256.2709 Y0.0626 Z-2.5000 F800
G1 X249.1957 Y-1.6291 Z-2.5000 F800
G1 X249.1297 Y-1.6437 Z-2.5000 F800
G1 X241.7811 Y-3.1406 Z-2.5000 F800
G1 X241.7157 Y-3.1528 Z-2.5000 F800
G1 X234.0886 Y-4.4437 Z-2.5000 F800
G1 X234.0238 Y-4.4535 Z-2.5000 F800
G1 X226.1134 Y-5.5274 Z-2.5000 F800
G1 X226.0496 Y-5.5350 Z-2.5000 F800
G1 X217.8509 Y-6.3807 Z-2.5000 F800
G1 X217.7881 Y-6.3862 Z-2.5000 F800
G1 X209.2962 Y-6.9926 Z-2.5000 F800
G1 X209.2347 Y-6.9961 Z-2.5000 F800
G1 X200.4447 Y-7.3523 Z-2.5000 F800
G1 X200.3863 Y-7.3538 Z-2.5000 F800
G1 X191.5932 Y-7.4534 Z-2.5000 F800
G1 X191.5355 Y-7.4532 Z-2.5000 F800
G1 X183.0345 Y-7.3043 Z-2.5000 F800
G1 X182.9754 Y-7.3024 Z-2.5000 F800
G1 X174.7620 Y-6.9153 Z-2.5000 F800
G1 X174.7016 Y-6.9115 Z-2.5000 F800
G1 X166.7712 Y-6.2967 Z-2.5000 F800
G1 X166.7096 Y-6.2909 Z-2.5000 F800
G1 X159.0577 Y-5.4587 Z-2.5000 F800
G1 X158.9950 Y-5.4508 Z-2.5000 F800
G1 X151.6170 Y-4.4115 Z-2.5000 F800
G1 X151.5533 Y-4.4015 Z-2.5000 F800
G1 X144.4446 Y-3.1655 Z-2.5000 F800
G1 X144.3803 Y-3.1532 Z-2.5000 F800
G1 X137.5363 Y-1.7309 Z-2.5000 F800
G1 X137.4714 Y-1.7163 Z-2.5000 F800
G1 X130.8876 Y-0.1181 Z-2.5000 F800
G1 X130.8224 Y-0.1011 Z-2.5000 F800
G1 X124.4941 Y1.6628 Z-2.5000 F800
G1 X124.4288 Y1.6822 Z-2.5000 F800
G1 X118.3515 Y3.6013 Z-2.5000 F800
G1 X118.2864 Y3.6231 Z-2.5000 F800
G1 X112.4555 Y5.6870 Z-2.5000 F800
G1 X112.3908 Y5.7112 Z-2.5000 F800
G1 X106.8017 Y7.9096 Z-2.5000 F800
G1 X106.7376 Y7.9361 Z-2.5000 F800
G1 X101.3858 Y10.2587 Z-2.5000 F800
G1 X101.3225 Y10.2874 Z-2.5000 F800
G1 X96.2034 Y12.7237 Z-2.5000 F800
G1 X96.1412 Y12.7547 Z-2.5000 F800
G1 X91.2502 Y15.2944 Z-2.5000 F800
G1 X91.1892 Y15.3274 Z-2.5000 F800
G1 X86.5217 Y17.9601 Z-2.5000 F800
G1 X86.4623 Y17.9950 Z-2.5000 F800
G1 X82.0137 Y20.7104 Z-2.5000 F800
G1 X81.9559 Y20.7470 Z-2.5000 F800
G1 X77.7217 Y23.5347 Z-2.5000 F800
G1 X77.6657 Y23.5729 Z-2.5000 F800
G1 X73.6413 Y26.4225 Z-2.5000 F800
G1 X73.5873 Y26.4622 Z-2.5000 F800
G1 X69.7681 Y29.3634 Z-2.5000 F800
G1 X69.7161 Y29.4042 Z-2.5000 F800
G1 X66.0975 Y32.3466 Z-2.5000 F800
G1 X66.0476 Y32.3885 Z-2.5000 F800
G1 X62.6251 Y35.3617 Z-2.5000 F800
G1 X62.5774 Y35.4045 Z-2.5000 F800
G1 X59.3464 Y38.3982 Z-2.5000 F800
G1 X59.3009 Y38.4416 Z-2.5000 F800
G1 X56.2568 Y41.4454 Z-2.5000 F800
G1 X56.2135 Y41.4894 Z-2.5000 F800
G1 X53.3517 Y44.4929 Z-2.5000 F800
G1 X53.3107 Y44.5373 Z-2.5000 F800
G1 X50.6266 Y47.5302 Z-2.5000 F800
G1 X50.5878 Y47.5747 Z-2.5000 F800
G1 X48.0769 Y50.5466 Z-2.5000 F800
G1 X48.0403 Y50.5913 Z-2.5000 F800
G1 X45.6979 Y53.5318 Z-2.5000 F800
G1 X45.6634 Y53.5764 Z-2.5000 F800
G1 X43.4850 Y56.4752 Z-2.5000 F800
G1 X43.4525 Y56.5198 Z-2.5000 F800
G1 X41.4336 Y59.3665 Z-2.5000 F800
G1 X41.4031 Y59.4108 Z-2.5000 F800
G1 X39.5390 Y62.1951 Z-2.5000 F800
G1 X39.5103 Y62.2392 Z-2.5000 F800
G1 X37.7966 Y64.9506 Z-2.5000 F800
G1 X37.7696 Y64.9945 Z-2.5000 F800
G1 X36.2015 Y67.6227 Z-2.5000 F800
G1 X36.1763 Y67.6663 Z-2.5000 F800
G1 X34.7493 Y70.2010 Z-2.5000 F800
G1 X34.7256 Y70.2444 Z-2.5000 F800
G1 X33.4352 Y72.6751 Z-2.5000 F800
G1 X33.4129 Y72.7184 Z-2.5000 F800
G1 X32.2545 Y75.0349 Z-2.5000 F800
G1 X32.2335 Y75.0781 Z-2.5000 F800
G1 X31.2024 Y77.2699 Z-2.5000 F800
G1 X31.1826 Y77.3134 Z-2.5000 F800
G1 X30.2744 Y79.3702 Z-2.5000 F800
G1 X30.2556 Y79.4141 Z-2.5000 F800
G1 X29.4655 Y81.3256 Z-2.5000 F800
G1 X29.4476 Y81.3706 Z-2.5000 F800
G1 X28.7712 Y83.1263 Z-2.5000 F800
G1 X28.7539 Y83.1730 Z-2.5000 F800
G1 X28.1866 Y84.7626 Z-2.5000 F800
G1 X28.1696 Y84.8124 Z-2.5000 F800
G1 X27.7068 Y86.2255 Z-2.5000 F800
G1 X27.6896 Y86.2804 Z-2.5000 F800
G1 X27.3268 Y87.5067 Z-2.5000 F800
G1 X27.3089 Y87.5710 Z-2.5000 F800
G1 X27.0414 Y88.6000 Z-2.5000 F800
G1 X27.0218 Y88.6825 Z-2.5000 F800
G1 X26.8450 Y89.5040 Z-2.5000 F800
G1 X26.8224 Y89.6279 Z-2.5000 F800
G1 X26.7318 Y90.2314 Z-2.5000 F800
G1 X26.7102 Y90.4805 Z-2.5000 F800
G1 X26.7013 Y90.8557 Z-2.5000 F800
G1 X26.7055 Y91.0423 Z-2.5000 F800
G1 X26.7271 Y91.2276 Z-2.5000 F800
G1 X26.7659 Y91.4102 Z-2.5000 F800
G1 X26.8216 Y91.5884 Z-2.5000 F800
G1 X26.9089 Y91.8279 Z-2.5000 F800
G1 X26.9912 Y92.0214 Z-2.5000 F800
G1 X27.0933 Y92.2052 Z-2.5000 F800
G1 X27.2142 Y92.3772 Z-2.5000 F800
G1 X27.3525 Y92.5356 Z-2.5000 F800
G1 X27.5507 Y92.7399 Z-2.5000 F800
G1 X27.6918 Y92.8720 Z-2.5000 F800
G1 X27.8451 Y92.9899 Z-2.5000 F800
G1 X28.0091 Y93.0924 Z-2.5000 F800
G1 X28.3135 Y93.2628 Z-2.5000 F800
G1 X28.4768 Y93.3447 Z-2.5000 F800
G1 X28.6470 Y93.4114 Z-2.5000 F800
G1 X29.0529 Y93.5493 Z-2.5000 F800
G1 X29.2807 Y93.6120 Z-2.5000 F800
G1 X29.7835 Y93.7189 Z-2.5000 F800
G1 X29.9421 Y93.7460 Z-2.5000 F800
G1 X30.5371 Y93.8231 Z-2.5000 F800
G1 X30.6516 Y93.8346 Z-2.5000 F800
G1 X31.3342 Y93.8834 Z-2.5000 F800
G1 X31.4197 Y93.8877 Z-2.5000 F800
G1 X32.1851 Y93.9096 Z-2.5000 F800
G1 X32.2510 Y93.9103 Z-2.5000 F800
G1 X33.0946 Y93.9066 Z-2.5000 F800
G1 X33.1466 Y93.9057 Z-2.5000 F800
G1 X34.0637 Y93.8778 Z-2.5000 F800
G1 X34.1056 Y93.8761 Z-2.5000 F800
G1 X35.0916 Y93.8254 Z-2.5000 F800
G1 X35.1259 Y93.8233 Z-2.5000 F800
G1 X36.1760 Y93.7512 Z-2.5000 F800
G1 X36.2045 Y93.7490 Z-2.5000 F800
G1 X37.3142 Y93.6568 Z-2.5000 F800
G1 X37.3381 Y93.6547 Z-2.5000 F800
G1 X38.5026 Y93.5438 Z-2.5000 F800
G1 X38.5229 Y93.5418 Z-2.5000 F800
G1 X39.7375 Y93.4136 Z-2.5000 F800
G1 X39.7549 Y93.4117 Z-2.5000 F800
G1 X41.0150 Y93.2677 Z-2.5000 F800
G1 X41.0298 Y93.2659 Z-2.5000 F800
G1 X42.3308 Y93.1074 Z-2.5000 F800
G1 X42.3436 Y93.1058 Z-2.5000 F800
G1 X43.6807 Y92.9341 Z-2.5000 F800
G1 X43.6917 Y92.9326 Z-2.5000 F800
G1 X45.0604 Y92.7492 Z-2.5000 F800
G1 X45.0698 Y92.7479 Z-2.5000 F800
G1 X46.4653 Y92.5540 Z-2.5000 F800
G1 X46.4734 Y92.5529 Z-2.5000 F800
G1 X47.8910 Y92.3500 Z-2.5000 F800
G1 X47.8979 Y92.3490 Z-2.5000 F800
G1 X49.3330 Y92.1386 Z-2.5000 F800
G1 X49.3388 Y92.1377 Z-2.5000 F800
G1 X50.7867 Y91.9210 Z-2.5000 F800
G1 X50.7915 Y91.9203 Z-2.5000 F800
G1 X52.2476 Y91.6987 Z-2.5000 F800
G1 X52.2515 Y91.6981 Z-2.5000 F800
G1 X53.7110 Y91.4731 Z-2.5000 F800
G1 X53.7140 Y91.4726 Z-2.5000 F800
G1 X55.1723 Y91.2455 Z-2.5000 F800
G1 X55.1745 Y91.2452 Z-2.5000 F800
G1 X56.6283 Y91.0171 Z-2.5000 F800
G1 X58.0706 Y90.7899 Z-2.5000 F800
G1 X59.4971 Y90.5648 Z-2.5000 F800
G1 X60.9031 Y90.3433 Z-2.5000 F800
G1 X62.2836 Y90.1267 Z-2.5000 F800
G1 X63.6338 Y89.9165 Z-2.5000 F800
G1 X64.9491 Y89.7140 Z-2.5000 F800
G1 X66.2244 Y89.5207 Z-2.5000 F800
G1 X67.4551 Y89.3379 Z-2.5000 F800
G1 X68.6362 Y89.1671 Z-2.5000 F800
G1 X69.7626 Y89.0096 Z-2.5000 F800
G1 X70.8292 Y88.8668 Z-2.5000 F800
G1 X71.8307 Y88.7403 Z-2.5000 F800
G1 X72.7614 Y88.6313 Z-2.5000 F800
G1 X73.6152 Y88.5413 Z-2.5000 F800
G1 X74.3852 Y88.4717 Z-2.5000 F800
G1 X75.0634 Y88.4236 Z-2.5000 F800
G1 X75.6389 Y88.3978 Z-2.5000 F800
G1 X76.0959 Y88.3941 Z-2.5000 F800
G1 X76.4070 Y88.4086 Z-2.5000 F800
G1 X76.5141 Y88.4231 Z-2.5000 F800
G1 X76.6103 Y88.4524 Z-2.5000 F800
G1 X76.7643 Y88.4927 Z-2.5000 F800
G1 X76.9729 Y88.5384 Z-2.5000 F800
G1 X77.1681 Y88.5712 Z-2.5000 F800
G1 X77.3655 Y88.5846 Z-2.5000 F800
G1 X77.5634 Y88.5784 Z-2.5000 F800
G1 X77.7596 Y88.5526 Z-2.5000 F800
G1 X77.9907 Y88.5106 Z-2.5000 F800
G1 X78.1743 Y88.4682 Z-2.5000 F800
G1 X78.3530 Y88.4087 Z-2.5000 F800
G1 X78.5253 Y88.3326 Z-2.5000 F800
G1 X78.7783 Y88.2065 Z-2.5000 F800
G1 X78.9383 Y88.1173 Z-2.5000 F800
G1 X79.0896 Y88.0138 Z-2.5000 F800
G1 X79.3635 Y87.8073 Z-2.5000 F800
G1 X79.5465 Y87.6512 Z-2.5000 F800
G1 X79.8406 Y87.3681 Z-2.5000 F800
G1 X79.9545 Y87.2491 Z-2.5000 F800
G1 X80.2680 Y86.8931 Z-2.5000 F800
G1 X80.3432 Y86.8026 Z-2.5000 F800
G1 X80.6753 Y86.3775 Z-2.5000 F800
G1 X80.7274 Y86.3077 Z-2.5000 F800
G1 X81.0774 Y85.8172 Z-2.5000 F800
G1 X81.1149 Y85.7627 Z-2.5000 F800
G1 X81.4819 Y85.2105 Z-2.5000 F800
G1 X81.5099 Y85.1673 Z-2.5000 F800
G1 X81.8932 Y84.5572 Z-2.5000 F800
G1 X81.9144 Y84.5226 Z-2.5000 F800
G1 X82.3132 Y83.8583 Z-2.5000 F800
G1 X82.3296 Y83.8304 Z-2.5000 F800
G1 X82.7431 Y83.1156 Z-2.5000 F800
G1 X82.7560 Y83.0930 Z-2.5000 F800
G1 X83.1833 Y82.3315 Z-2.5000 F800
G1 X83.1935 Y82.3132 Z-2.5000 F800
G1 X83.6339 Y81.5087 Z-2.5000 F800
G1 X83.6419 Y81.4939 Z-2.5000 F800
G1 X84.0947 Y80.6502 Z-2.5000 F800
G1 X84.1009 Y80.6384 Z-2.5000 F800
G1 X84.5652 Y79.7591 Z-2.5000 F800
G1 X84.5701 Y79.7499 Z-2.5000 F800
G1 X85.0451 Y78.8389 Z-2.5000 F800
G1 X85.0487 Y78.8319 Z-2.5000 F800
G1 X85.5336 Y77.8929 Z-2.5000 F800
G1 X85.5362 Y77.8879 Z-2.5000 F800
G1 X86.0303 Y76.9245 Z-2.5000 F800
G1 X86.0319 Y76.9214 Z-2.5000 F800
G1 X86.5351 Y75.9360 Z-2.5000 F800
G1 X87.0451 Y74.9353 Z-2.5000 F800
G1 X87.5615 Y73.9223 Z-2.5000 F800
G1 X88.0831 Y72.9015 Z-2.5000 F800
G1 X88.6091 Y71.8765 Z-2.5000 F800
G1 X89.1387 Y70.8512 Z-2.5000 F800
G1 X89.6711 Y69.8293 Z-2.5000 F800
G1 X90.2055 Y68.8145 Z-2.5000 F800
G1 X90.7410 Y67.8108 Z-2.5000 F800
G1 X91.2767 Y66.8220 Z-2.5000 F800
G1 X91.8116 Y65.8520 Z-2.5000 F800
G1 X92.3447 Y64.9047 Z-2.5000 F800
G1 X92.8752 Y63.9840 Z-2.5000 F800
G1 X93.4018 Y63.0942 Z-2.5000 F800
G1 X93.9235 Y62.2392 Z-2.5000 F800
G1 X94.4388 Y61.4233 Z-2.5000 F800
G1 X94.9464 Y60.6507 Z-2.5000 F800
G1 X95.4446 Y59.9261 Z-2.5000 F800
G1 X95.9315 Y59.2538 Z-2.5000 F800
G1 X96.4045 Y58.6388 Z-2.5000 F800
G1 X96.8606 Y58.0860 Z-2.5000 F800
G1 X97.2957 Y57.6007 Z-2.5000 F800
G1 X97.7045 Y57.1880 Z-2.5000 F800
G1 X98.0794 Y56.8532 Z-2.5000 F800
G1 X98.4101 Y56.6001 Z-2.5000 F800
G1 X98.6827 Y56.4299 Z-2.5000 F800
G1 X98.8805 Y56.3372 Z-2.5000 F800
G1 X98.9889 Y56.3052 Z-2.5000 F800
G1 X98.9909 Y56.3050 Z-2.5000 F800
G0 Z5.000
G0 Z5.000
M5
M2
